{"type": "FeatureCollection", "features": [{"type": "Feature", "properties": {"name": "Camden", "geoid": "3410000", "city": "camden"}, "geometry": {"type": "Polygon", "coordinates": [[[-75.1362880003885, 39.9465880000058], [-75.1363159999776, 39.94584100010088], [-75.13622700028914, 39.94493200007662], [-75.1361400002505, 39.944415999678164], [-75.13596600017324, 39.94328900030074], [-75.13586099969294, 39.94264900022129], [-75.13576299978364, 39.94196299982732], [-75.13569900020954, 39.940794999659275], [-75.13572199977575, 39.940148999948846], [-75.13571400027817, 39.93947999992548], [-75.13574500024029, 39.93873699991102], [-75.13579999959356, 39.937433999807226], [-75.13583800012671, 39.936547999704], [-75.13592799964009, 39.93436100004174], [-75.13595399957934, 39.93380299996717], [-75.13591199974655, 39.93244500001046], [-75.13578000040039, 39.93157199983308], [-75.13560799997293, 39.930656999818545], [-75.13531000004711, 39.92928499970909], [-75.13517799980262, 39.9286980003365], [-75.134653999921, 39.927369000185394], [-75.1341190001687, 39.92608599993029], [-75.13400799984062, 39.925824000042], [-75.13356900034779, 39.92485900025411], [-75.13223500035424, 39.921932000214376], [-75.13217599990469, 39.921804000001174], [-75.13137900021158, 39.920052999831874], [-75.13104500030073, 39.91920800023322], [-75.13075700042064, 39.918480000199], [-75.13048500043409, 39.91769300006956], [-75.13034999981654, 39.9174039999709], [-75.13018699960993, 39.916668999927424], [-75.13005899956342, 39.91615000013954], [-75.12998999996644, 39.91588500023512], [-75.12978499992704, 39.91480599994831], [-75.12968299981978, 39.91422399993791], [-75.12951399976538, 39.91321800033777], [-75.12938300024412, 39.91232399995458], [-75.12929899968022, 39.911304000045696], [-75.12923900030408, 39.91017299982138], [-75.12919699957298, 39.90912199995502], [-75.12923199973308, 39.908216000333844], [-75.1292750002891, 39.90748100022764], [-75.127845999861, 39.907434999925044], [-75.1270509998177, 39.90735500028392], [-75.12661300014977, 39.90731100030371], [-75.12509000001033, 39.90729300008433], [-75.12375900038984, 39.907363999696955], [-75.12202899966285, 39.90745800008023], [-75.12035999993356, 39.90847200032483], [-75.12004199991624, 39.90849199991773], [-75.11791100022958, 39.90862199988581], [-75.11748600008215, 39.908482000122035], [-75.11733399974618, 39.90841399981853], [-75.11717700028565, 39.90831199992576], [-75.11672600019895, 39.90797499988262], [-75.11645699968712, 39.90775200006514], [-75.11616899980703, 39.907514000305895], [-75.11552799974952, 39.90698500003947], [-75.11524900009026, 39.90674900010619], [-75.11512799971642, 39.90664599993301], [-75.11495299981425, 39.90646900021707], [-75.1148499998821, 39.90636399987745], [-75.11483399998858, 39.90634399966329], [-75.1147729998892, 39.90625400000536], [-75.11471400033797, 39.90611699985506], [-75.11469400024647, 39.90596999995748], [-75.11469800044443, 39.905853000291735], [-75.11471199978983, 39.90572600022816], [-75.1147650003916, 39.9056049999214], [-75.1148790001944, 39.90539200021769], [-75.11501499973852, 39.905202000075235], [-75.11515500037895, 39.90501000030999], [-75.11521399993016, 39.90493300027451], [-75.11539399985523, 39.90471899996305], [-75.11557499960519, 39.904515999948295], [-75.11593100015565, 39.90411199999288], [-75.1161250003244, 39.90389799987356], [-75.11628400033308, 39.90373199966195], [-75.11638100041743, 39.9035809998176], [-75.11642900009802, 39.90347400004593], [-75.1164409997936, 39.9034250000625], [-75.11646000006017, 39.90334000028939], [-75.11652700000732, 39.90304699989842], [-75.11652899965715, 39.90302800001561], [-75.11654200007594, 39.902910000226534], [-75.11655100029675, 39.902829000201116], [-75.11655799996946, 39.902784000145616], [-75.11657100038826, 39.902670000332186], [-75.11656499964216, 39.9025359996924], [-75.11654200007594, 39.90241200016284], [-75.11649199984721, 39.902283999990765], [-75.1166390001603, 39.90211500019944], [-75.11667299959718, 39.90207599997636], [-75.11500600041602, 39.9014699999661], [-75.11371599990507, 39.90081299973047], [-75.11343100039804, 39.89959900032334], [-75.11339200003998, 39.89943300003401], [-75.11333799961332, 39.89941199988985], [-75.11326300016856, 39.89938399991739], [-75.11316899955891, 39.89929899995547], [-75.11296600006764, 39.8991640003263], [-75.1128360003713, 39.8990909998392], [-75.11262799995883, 39.89898499992803], [-75.11243499961499, 39.89888799969014], [-75.11214300043525, 39.89874700003726], [-75.11200399961976, 39.89867099984015], [-75.11187399992342, 39.89859600023399], [-75.11183600028859, 39.898561000022106], [-75.11160500030992, 39.898578999778856], [-75.1114350004306, 39.89860900005213], [-75.11113599978152, 39.89867199982514], [-75.11093800031314, 39.898726999667126], [-75.11074499996928, 39.898800999835956], [-75.11055199962543, 39.8988859997264], [-75.11045200006632, 39.8989280003306], [-75.11038799959393, 39.89895499981936], [-75.10999500013185, 39.89909899966977], [-75.10978699971938, 39.89919099972207], [-75.10977599984872, 39.899195000320866], [-75.10970499970361, 39.89922600030137], [-75.1096190003882, 39.899267000031706], [-75.10952999980144, 39.899307999737516], [-75.10938300038666, 39.89939600030082], [-75.1092810002794, 39.89945800006593], [-75.10921199978411, 39.89951999977495], [-75.10912200027074, 39.899608000065996], [-75.1090569999734, 39.899683999913094], [-75.10894800019346, 39.899766000179596], [-75.10885399958383, 39.899812000117976], [-75.10866799981098, 39.89988299990242], [-75.1085149996501, 39.899940000083824], [-75.10838400012885, 39.89999400032072], [-75.10832399985439, 39.90003700021093], [-75.10823799964066, 39.90011900005496], [-75.10812100036311, 39.90017600004001], [-75.10808000035524, 39.90018800028474], [-75.10793899988992, 39.90023000009097], [-75.10771700013208, 39.90028200017634], [-75.10738900006902, 39.90034799967132], [-75.10714499967155, 39.90036900021773], [-75.1065709995612, 39.900355000083884], [-75.10625900028998, 39.9003399999865], [-75.10613899974106, 39.90033800006514], [-75.10598200028055, 39.900339000025845], [-75.10575600032472, 39.900371000138186], [-75.1054729995692, 39.90041399979183], [-75.10543999995723, 39.90042100019766], [-75.10529400036738, 39.9004489997464], [-75.10487500006771, 39.900519000291084], [-75.10479100040212, 39.900519000291084], [-75.1047040003635, 39.90050300027134], [-75.10459399986031, 39.900466999696405], [-75.10432299969867, 39.900370000177986], [-75.1040020002066, 39.900262000254216], [-75.1037059999306, 39.900198999875506], [-75.10347599977683, 39.90013200027335], [-75.10324099960019, 39.900026999870256], [-75.10291500008526, 39.89987400019588], [-75.10280799995515, 39.89981000018126], [-75.10273500016021, 39.89974000029059], [-75.1026430000987, 39.89964199977226], [-75.10253599996858, 39.899502000265365], [-75.10246499982348, 39.899390999739275], [-75.10242600036374, 39.899330999864354], [-75.10234500017287, 39.89923300013938], [-75.10225700030934, 39.89916600028192], [-75.10211400019419, 39.89909899966977], [-75.10196400040637, 39.899049000024036], [-75.10178799978097, 39.89901400004357], [-75.10159799981017, 39.89897500012301], [-75.10144499964929, 39.8989280003306], [-75.10128700036384, 39.89888699970826], [-75.10114099987567, 39.89887399994285], [-75.1010300004459, 39.89889600023359], [-75.10101399965406, 39.89890000016037], [-75.10090099967616, 39.89894500000997], [-75.10081500036074, 39.89898199998667], [-75.10064799995617, 39.89906700034179], [-75.10043399969592, 39.8991640003263], [-75.1002839999081, 39.89919299967691], [-75.1000930001124, 39.89920700004821], [-75.09988300005011, 39.89921999975045], [-75.0997340000872, 39.89922600030137], [-75.099671000338, 39.89923000020889], [-75.09951499980407, 39.89926200014993], [-75.09941199987192, 39.8992819996748], [-75.09926000043427, 39.89934400023224], [-75.0991089999232, 39.89940999994146], [-75.09891200027971, 39.89949499976564], [-75.09872700033179, 39.89956899979431], [-75.09853800018591, 39.89964099980137], [-75.09842000018513, 39.89969700021402], [-75.09830899985704, 39.89975099995328], [-75.0981509996733, 39.89985500012241], [-75.09813099958181, 39.899867999701755], [-75.097800000044, 39.90002999976587], [-75.09760199967731, 39.90012099998272], [-75.09743099997307, 39.9002110001162], [-75.09728200001015, 39.90029900020898], [-75.09699300030516, 39.90040200027584], [-75.09629500034625, 39.90100700013239], [-75.09623300042196, 39.901084999705816], [-75.0959830001767, 39.90139899975859], [-75.09581999997009, 39.90140999984413], [-75.09491699997176, 39.90147199985443], [-75.09475899978803, 39.901482999928184], [-75.09487299959083, 39.901733999878864], [-75.09533399972328, 39.90277199966643], [-75.0953980001957, 39.90289599992272], [-75.09558300014363, 39.9033150002955], [-75.09563400019725, 39.90346300029175], [-75.09566500015939, 39.90355300017045], [-75.09572500043384, 39.90374100024004], [-75.09575899987072, 39.9039410000703], [-75.09582800036601, 39.904184000050215], [-75.09586600000084, 39.90428799969316], [-75.09600499991802, 39.90478300021642], [-75.0961439998352, 39.905121999893865], [-75.09645199980677, 39.90586600011134], [-75.09670500042508, 39.906460999868735], [-75.09673999968686, 39.90654800033368], [-75.09677900004492, 39.90669700010503], [-75.09685199983984, 39.90683500033955], [-75.09715399996362, 39.907502999822206], [-75.09721099986504, 39.9076200001155], [-75.09728000036034, 39.90776299981981], [-75.09730299992655, 39.907813999849324], [-75.09737200042184, 39.90797300018411], [-75.09740000001094, 39.9080360003057], [-75.09697300021368, 39.908332000254454], [-75.09413199997422, 39.909129000160235], [-75.09396600029287, 39.90917900003024], [-75.09249400020705, 39.90958999989397], [-75.09246700044287, 39.90959499971113], [-75.09340499970298, 39.91070399989454], [-75.09350699981024, 39.910825000152876], [-75.09442200040243, 39.91190699982917], [-75.09589399958995, 39.91364700001543], [-75.09608699993379, 39.913664000176965], [-75.09614899985806, 39.913718999697984], [-75.09626100001107, 39.91372499966813], [-75.09630899969163, 39.91372999987251], [-75.09636499976813, 39.91373500007651], [-75.09659800029495, 39.91375699972962], [-75.09770399978456, 39.91375399974601], [-75.09869299999662, 39.913661000189286], [-75.09950599958323, 39.91343999981741], [-75.09971200034587, 39.913384000302045], [-75.09980199985924, 39.91336000029889], [-75.09984500041527, 39.913462000254256], [-75.09994499997438, 39.91369900025311], [-75.10006799999803, 39.913948000022614], [-75.10094800043014, 39.91574399973287], [-75.1010029997834, 39.91586299988758], [-75.10104999963907, 39.91596399982773], [-75.1015159997944, 39.91696199993318], [-75.10172800040482, 39.91741399984209], [-75.10177100006253, 39.91750600010446], [-75.10196799970602, 39.91792499999818], [-75.10198199994971, 39.918149000157555], [-75.10173500007751, 39.91815600012917], [-75.1015719998709, 39.918193999765904], [-75.10014499999093, 39.918595000267715], [-75.09926899975677, 39.91884099970035], [-75.09862100002658, 39.91902800015382], [-75.09838599984994, 39.91909600025471], [-75.09767600019546, 39.91930099983623], [-75.0974540004376, 39.91936300019038], [-75.09653700019557, 39.91961600013133], [-75.09570299979423, 39.91985100015136], [-75.0947789998795, 39.92011500019412], [-75.09387400023137, 39.92037099980633], [-75.09347599984808, 39.92048299976632], [-75.09299499962417, 39.92061800010205], [-75.09183100040823, 39.92094099988639], [-75.09176100008804, 39.92096000031256], [-75.09140100023792, 39.92105999996674], [-75.09135299965904, 39.92108400002735], [-75.09125499974975, 39.92113200012337], [-75.09119200000056, 39.92116200016626], [-75.09079600016544, 39.921352000132856], [-75.09023899977352, 39.92165399968369], [-75.08992900015211, 39.92182199985186], [-75.08990599968759, 39.92183300010272], [-75.08848600037862, 39.92251800009415], [-75.08835999998193, 39.92257100012169], [-75.08806399970592, 39.92269599999804], [-75.08755800026594, 39.92297700001141], [-75.08539300024408, 39.924083000303476], [-75.08519999990024, 39.924178000089], [-75.08403999998397, 39.92477299991704], [-75.08329699981921, 39.9251470002919], [-75.08311299969621, 39.925240000095584], [-75.08154000022635, 39.92604099999711], [-75.08217999956064, 39.92626400020271], [-75.08293699996909, 39.926494999757836], [-75.08331899956052, 39.92661000014339], [-75.08362400005737, 39.926693000133916], [-75.08387500012752, 39.92670799997207], [-75.08391600013542, 39.926717000286736], [-75.08399599960303, 39.92672700017571], [-75.08410100008335, 39.92674000016692], [-75.08421400006125, 39.92675399973081], [-75.084372000245, 39.92677400018536], [-75.08488500025597, 39.9267040002911], [-75.0854350000769, 39.92666299975885], [-75.08579199955396, 39.92668199997496], [-75.08617200039387, 39.92673500022357], [-75.08648700003812, 39.926819999899756], [-75.08670999962088, 39.92693499973938], [-75.08691100036064, 39.9270820001097], [-75.08709100028572, 39.927294999875336], [-75.08723699987557, 39.92749700032809], [-75.08729700015003, 39.92774499996644], [-75.08731999971624, 39.92802499967839], [-75.08725899961688, 39.928305999864136], [-75.08722000015715, 39.928653000053664], [-75.08716499990554, 39.92888399981405], [-75.0871399997912, 39.9291919998894], [-75.08707100019423, 39.92951099966281], [-75.08696800026206, 39.92983599995247], [-75.08677099972026, 39.9301460003064], [-75.08664500022188, 39.93039399999199], [-75.08651899982517, 39.930576000228484], [-75.08636499983939, 39.93089100031555], [-75.0862109998536, 39.93116100031884], [-75.08611299994432, 39.93137200008777], [-75.08601500003502, 39.93159699984625], [-75.08594700026298, 39.931888999847594], [-75.08599999996642, 39.93201100005948], [-75.08600699963911, 39.93202600011007], [-75.08604299962411, 39.93210899973347], [-75.08619400013517, 39.932266999966664], [-75.08633100040252, 39.932481000311334], [-75.08639099977866, 39.93273399999738], [-75.08639499997662, 39.9330470001417], [-75.08638800030394, 39.93311600026705], [-75.08639199960358, 39.93317600016977], [-75.08640300037254, 39.93327400024219], [-75.0864140002432, 39.93339300023987], [-75.08642400028896, 39.933492000167114], [-75.08643099996162, 39.93360400001652], [-75.08642099991589, 39.9337629997155], [-75.08640500002237, 39.93402400005812], [-75.08639999999949, 39.93405799990284], [-75.08637700043327, 39.93421699992478], [-75.08636400001447, 39.93434099973748], [-75.08636300018958, 39.934368999886274], [-75.08636099964143, 39.93441399985545], [-75.08636200036466, 39.934456000029606], [-75.08636900003735, 39.93459400012507], [-75.08638800030394, 39.934652999961166], [-75.08642799958858, 39.93470899999208], [-75.0864710001446, 39.93475800032596], [-75.08652899987092, 39.934797999996114], [-75.08658099974946, 39.934815999874516], [-75.08677300026838, 39.93482700010397], [-75.08686799980464, 39.93482599995795], [-75.0870629997983, 39.93481099983222], [-75.08721900033224, 39.93478000011298], [-75.08757499998438, 39.93467300017426], [-75.08788799997883, 39.93456799967912], [-75.08819000010261, 39.93445200011252], [-75.08837800042359, 39.93438500026141], [-75.08849999972401, 39.934353999660395], [-75.08871900000713, 39.9343459998141], [-75.08883799983282, 39.93434499966106], [-75.08892900006943, 39.93435899973607], [-75.08902100013093, 39.934381999803875], [-75.08906999963641, 39.934394999719], [-75.08920000023106, 39.934439000208215], [-75.08938900037694, 39.93451100007104], [-75.08960299973889, 39.93461300020626], [-75.0897230002878, 39.93468499988603], [-75.08981100015134, 39.93476799972905], [-75.08987600044867, 39.93482800024998], [-75.08994699969546, 39.93491200006435], [-75.09000299977198, 39.93501200000418], [-75.09005600037372, 39.935148000073504], [-75.09008300013791, 39.93526299969846], [-75.09010200040447, 39.93538899995811], [-75.09011900012291, 39.93564699989719], [-75.09013099981848, 39.93590500024123], [-75.09013300036663, 39.93595399971881], [-75.09013300036663, 39.93605599976982], [-75.08995900028935, 39.9361969997723], [-75.08985200015923, 39.93628499978297], [-75.0898360002657, 39.93629699990091], [-75.0897090000441, 39.93617300018811], [-75.08964999959456, 39.93611499972314], [-75.08961199995971, 39.93607799982841], [-75.08959699989109, 39.93606299997709], [-75.0892870002697, 39.935763000193575], [-75.08891499982572, 39.936086000161055], [-75.08885100025162, 39.93613600032469], [-75.08864200001423, 39.936316000198126], [-75.08828100033921, 39.936627000252834], [-75.08815300029268, 39.93673100022599], [-75.08692600042926, 39.93778500028221], [-75.08633499970217, 39.93829200023896], [-75.08576999981264, 39.93876899999259], [-75.08517300013607, 39.93928200003242], [-75.08458800015507, 39.939779999944896], [-75.08401999989248, 39.940268999767774], [-75.08341099962203, 39.940786999877155], [-75.08331400043596, 39.94074099990641], [-75.08308199973405, 39.94063100015046], [-75.08277799996044, 39.94048700014009], [-75.0820289999479, 39.94013200016412], [-75.08172000015142, 39.93998600033991], [-75.08105999982733, 39.93967300024728], [-75.08071300039602, 39.93951900020212], [-75.079972999706, 39.93919200026735], [-75.07931699957989, 39.93888399973175], [-75.07841100010683, 39.939681000159645], [-75.07755599978907, 39.94039900002283], [-75.07669299997372, 39.94113300010328], [-75.07612100041149, 39.9416310003194], [-75.07551499961578, 39.9421600001886], [-75.07513200019946, 39.94249399995261], [-75.0750789995977, 39.942540000122335], [-75.07499800030513, 39.94260999966244], [-75.07460300029493, 39.942936999792614], [-75.07383699966564, 39.94356999980562], [-75.07314799992756, 39.944222000328935], [-75.07258899988582, 39.94470900008428], [-75.07240200028808, 39.94485700016032], [-75.07176500042851, 39.94536200007586], [-75.07081399985131, 39.94611700023865], [-75.06976199989006, 39.94695099998244], [-75.06944399987275, 39.94693199988345], [-75.06925399990195, 39.94692000025318], [-75.06915699981757, 39.94691399974858], [-75.06893000003686, 39.946900000176015], [-75.06830300022304, 39.94685600012342], [-75.06797400033507, 39.94683400008651], [-75.06786100035717, 39.94682600032176], [-75.06778099999123, 39.946819999808916], [-75.06772999993758, 39.94681599992582], [-75.06745999960086, 39.94679699978937], [-75.06676300036516, 39.94682600032176], [-75.0665959999606, 39.946827000292394], [-75.0665750000442, 39.947841000192476], [-75.06654599973189, 39.94851899993178], [-75.06693800026736, 39.94847800007138], [-75.06701400043534, 39.948469999810186], [-75.06708800005518, 39.948462000236795], [-75.06791700043365, 39.94837499999458], [-75.06973099992793, 39.94818300006593], [-75.07021200015186, 39.94813099984903], [-75.0705460000627, 39.94809700010965], [-75.07070699972118, 39.948081000185965], [-75.07099899979922, 39.948049000327295], [-75.07187800040641, 39.94795599983532], [-75.07254500040321, 39.94788800016566], [-75.07271000025965, 39.947871000237726], [-75.07290799972806, 39.94864100011], [-75.07299300011685, 39.9489730000353], [-75.0730519996681, 39.94914299982963], [-75.07313399968386, 39.9492760002451], [-75.07329600006557, 39.94949099967082], [-75.07333100022566, 39.949536999956685], [-75.07336300001272, 39.94958099966218], [-75.07339800017282, 39.94962699988752], [-75.07345699972404, 39.94970699972667], [-75.07349100005924, 39.94975299986723], [-75.07371899966486, 39.95005999975892], [-75.07445699980676, 39.951051999884285], [-75.07448699994397, 39.95109199967089], [-75.07346500011997, 39.951736000246086], [-75.0724829995806, 39.952357000050874], [-75.07174299978891, 39.95282800023815], [-75.07112099999797, 39.95321699972364], [-75.07042600041211, 39.95363199984936], [-75.06969999996579, 39.9540799998833], [-75.0708490000114, 39.95518700011888], [-75.07200800010278, 39.95626200019177], [-75.07256799996942, 39.956771999735444], [-75.07289600003247, 39.95708999989133], [-75.07371299981709, 39.95677099991019], [-75.07443400024053, 39.95647900004118], [-75.07532899984295, 39.956115999670736], [-75.07614700035077, 39.95578200030637], [-75.07687700009673, 39.9554990003188], [-75.07755199959111, 39.95520900022375], [-75.07782399957766, 39.95557299974245], [-75.0782839998852, 39.956188999970216], [-75.07899699991273, 39.95714399982287], [-75.07960000033542, 39.957952000260775], [-75.08027999985266, 39.958864999967965], [-75.08047599967124, 39.959127999853045], [-75.08053400029588, 39.959206000017204], [-75.08065700031952, 39.95937100023017], [-75.08088699957497, 39.95967800033057], [-75.08101799999454, 39.959855000210545], [-75.08104599958364, 39.95989300010954], [-75.08116899960729, 39.960058000041876], [-75.08173699986985, 39.96082100000154], [-75.08220899987295, 39.96145000006054], [-75.08264300024125, 39.96201500012501], [-75.0838309997466, 39.96356499980575], [-75.0849780001424, 39.96505999992405], [-75.08508600009742, 39.965194000071726], [-75.08512299990736, 39.96527499999254], [-75.08528100009109, 39.96558300013261], [-75.08534700021335, 39.9658369996646], [-75.08543400025198, 39.96598900029391], [-75.08673399991034, 39.967673000180234], [-75.08707399966896, 39.9680779999735], [-75.08714099961611, 39.96815899991966], [-75.08807299992675, 39.96938700013717], [-75.08805700003323, 39.969395000016924], [-75.0880970002162, 39.96944499993269], [-75.08812099960734, 39.969477999746836], [-75.08813700039917, 39.96946999987679], [-75.0887659998628, 39.969167000323154], [-75.09074500011181, 39.968211999713425], [-75.0924900000091, 39.967284000307465], [-75.09431899957197, 39.96631200007881], [-75.09450100004516, 39.96618099980859], [-75.09675700030361, 39.96454800011625], [-75.09901900040983, 39.96291200008055], [-75.10245700032587, 39.96040499966046], [-75.10281600035108, 39.96014400010752], [-75.10317500037628, 39.95988199977857], [-75.10341899987543, 39.9597029997151], [-75.10354100007416, 39.95961399974377], [-75.10381899990853, 39.95941199975814], [-75.10811899981498, 39.95811200033993], [-75.10851899984806, 39.95811200033993], [-75.10932200028728, 39.95828600004421], [-75.11012599965308, 39.9584590001937], [-75.11323200020642, 39.95913000012319], [-75.11372199975288, 39.95923599989775], [-75.11731899967756, 39.96001199994638], [-75.12279600011706, 39.96152900008586], [-75.12429999998993, 39.96329899989553], [-75.12577700009861, 39.9625440000394], [-75.12777499971588, 39.96152199972997], [-75.12908799979304, 39.960708999946824], [-75.12983000013287, 39.96021700023847], [-75.1304949995815, 39.959596000191944], [-75.1308800004443, 39.95914399994695], [-75.13107999956252, 39.958908999869976], [-75.13153800022023, 39.95828299994621], [-75.1322679999662, 39.957043000043655], [-75.13263899968696, 39.95638100015005], [-75.13334699969163, 39.95511300027753], [-75.13369800021923, 39.95461999970051], [-75.1337600001435, 39.9544599997146], [-75.13385499967974, 39.95421699979045], [-75.13424200019233, 39.95341900010436], [-75.13445499972936, 39.95299499976252], [-75.13451500000382, 39.952878999756805], [-75.13468800025618, 39.95249800020586], [-75.13487800022698, 39.952076000140096], [-75.13531900026794, 39.95081299989709], [-75.13574100004234, 39.949518999818544], [-75.13576100013381, 39.94945200025755], [-75.13580499961644, 39.94923300027885], [-75.13589099983015, 39.94888499981381], [-75.13603700031834, 39.9482689999141], [-75.13617100021264, 39.94747600019536], [-75.1362880003885, 39.9465880000058]]]}}, {"type": "Feature", "properties": {"name": "Paterson", "geoid": "3457000", "city": "paterson"}, "geometry": {"type": "Polygon", "coordinates": [[[-74.20613600039161, 40.91695300021495], [-74.2060650002465, 40.9168879997102], [-74.20600599979694, 40.916840000236334], [-74.20529799979231, 40.91621200017573], [-74.20419599960235, 40.91522400032697], [-74.20329400032723, 40.91444500013962], [-74.20210599992356, 40.913397000272305], [-74.20019100014696, 40.911695999897866], [-74.1976870001914, 40.9094059999739], [-74.19631100036504, 40.908215000245164], [-74.19623900039502, 40.908082000208836], [-74.19601099989107, 40.90788099993219], [-74.19579199960796, 40.907685999981716], [-74.19576700039191, 40.90766499975431], [-74.19567699998024, 40.90763899998073], [-74.19554800010881, 40.90757800000193], [-74.19533300002365, 40.90752400028535], [-74.19472899977607, 40.90728599990268], [-74.19430199997882, 40.90716600001818], [-74.1940829996957, 40.90708399987001], [-74.19379700036374, 40.90700699988671], [-74.19365599989843, 40.90696899988832], [-74.19298200022898, 40.90676899968003], [-74.19192600006977, 40.90646900027016], [-74.19079000044295, 40.90613700009718], [-74.19014000016459, 40.9059460000338], [-74.18974099995643, 40.90582899996777], [-74.18920799985395, 40.905681000144796], [-74.18887899996598, 40.9055890001246], [-74.18874400024677, 40.90554799976445], [-74.18653300019415, 40.904882999960705], [-74.18581000012088, 40.90475900011931], [-74.18503699981889, 40.90453299970084], [-74.18334499962508, 40.90403899990632], [-74.1812409997026, 40.90342399982575], [-74.17944099955372, 40.902898999719966], [-74.17830900012484, 40.90256900019749], [-74.17476999992647, 40.90153200030989], [-74.17412200019628, 40.90134599986295], [-74.17416400002908, 40.90122399978214], [-74.17451899985632, 40.900816000181415], [-74.17450899981056, 40.900159999700826], [-74.17470700017729, 40.89956500014031], [-74.17454800016863, 40.89947200027199], [-74.1729270001199, 40.89852699982419], [-74.17187299961053, 40.89790999971311], [-74.16989500008474, 40.896759999769465], [-74.1695770000674, 40.896577000116956], [-74.16810400015669, 40.89571399981962], [-74.16779899965987, 40.895535000217706], [-74.16776199984993, 40.89551400020609], [-74.16770599977343, 40.89546099969453], [-74.16763499962833, 40.895413000283575], [-74.16732199963388, 40.89523800011324], [-74.16658299966707, 40.894813999853056], [-74.16635599988636, 40.89467900022803], [-74.16616699974047, 40.89456600020938], [-74.16579199982175, 40.894337999782444], [-74.16573099972238, 40.89430100021985], [-74.16542600012386, 40.89411299999364], [-74.1648939998463, 40.89379700024457], [-74.16418599984165, 40.893375999675925], [-74.1635840001422, 40.89301599970845], [-74.1634729998141, 40.89295100011857], [-74.16275599958863, 40.89252700014057], [-74.16204799958396, 40.89211000007442], [-74.16174200016053, 40.891929999947045], [-74.16132700005882, 40.89168699974529], [-74.16113999956276, 40.891575999943036], [-74.16092299982779, 40.89144700019587], [-74.16084800038304, 40.891395000110805], [-74.16080400000212, 40.89135199987905], [-74.16071799978839, 40.8911620001944], [-74.16054799990907, 40.89076999967847], [-74.16038200022771, 40.89036799990414], [-74.16026599987676, 40.89008899982607], [-74.16005199961651, 40.88958099977354], [-74.1599799996465, 40.889403000195955], [-74.15972399955346, 40.88879399978987], [-74.15970099998724, 40.88868200023685], [-74.15752000007186, 40.889072999895475], [-74.15536300044593, 40.88945400016967], [-74.15445500042473, 40.88961999989173], [-74.15218999994545, 40.89002900026894], [-74.1498559998692, 40.89044900010075], [-74.14961300019495, 40.89049200024031], [-74.14926099984244, 40.89055500028372], [-74.14906500002387, 40.89059100028163], [-74.1478430001833, 40.89080899977494], [-74.14691599989554, 40.89097399987642], [-74.1462520002718, 40.89109300032397], [-74.14478299966075, 40.891356999970604], [-74.14205399957427, 40.89184700031946], [-74.13965400027409, 40.892275000326904], [-74.13764400006293, 40.89263299971073], [-74.13587999989909, 40.892946999734264], [-74.13429900003331, 40.89322999967246], [-74.1323480002717, 40.893583000077406], [-74.13185100015426, 40.89367299999087], [-74.13173999982617, 40.893693999907796], [-74.13162400037352, 40.893714000242895], [-74.13081599991145, 40.89386100010933], [-74.13053399987915, 40.89391200004216], [-74.1303120001213, 40.89395300014602], [-74.12999599975379, 40.89401000014884], [-74.12982199967652, 40.89404099973661], [-74.12969000033036, 40.89406599985358], [-74.1296009997436, 40.89408199976053], [-74.12952799994865, 40.89409500027623], [-74.12848100001028, 40.89413300020201], [-74.12845599989593, 40.894276999758375], [-74.12845900026898, 40.8942889999902], [-74.1284829996601, 40.894420000115815], [-74.12856100037622, 40.894552000223676], [-74.12877300008833, 40.894785999983625], [-74.12928699992422, 40.89526099999522], [-74.12971100024676, 40.89558000022008], [-74.13021400021202, 40.89591100020246], [-74.13066899959837, 40.896160999991906], [-74.13082799960702, 40.89624799982467], [-74.13142600000683, 40.896542999725], [-74.13156699957382, 40.896619000137626], [-74.13179500007776, 40.89674200009327], [-74.13205000034587, 40.896853000055614], [-74.13207100026229, 40.896861999879235], [-74.13234599972358, 40.896959000163946], [-74.13282299974956, 40.89707399989721], [-74.1330140004436, 40.897383999776494], [-74.13315099981263, 40.89765500012804], [-74.13324700007209, 40.897888999776455], [-74.13336400024794, 40.89812199976751], [-74.13347899987568, 40.898472000003906], [-74.13356699973922, 40.89879499971389], [-74.1336010000744, 40.899030999751396], [-74.13362399964063, 40.89921999975253], [-74.13366899984648, 40.8995909996932], [-74.13366999967138, 40.90006900030643], [-74.1335929996785, 40.90113699970396], [-74.13352499990643, 40.90176300010396], [-74.13351599968561, 40.90182500014652], [-74.13349899996716, 40.9019490000572], [-74.13348700027161, 40.90203300003987], [-74.13348399989854, 40.902072999735445], [-74.13347600040095, 40.9021209997456], [-74.13346600035521, 40.902167000147045], [-74.13346100033233, 40.90219199990895], [-74.13344299989066, 40.902258000049805], [-74.13341600012649, 40.90235800026119], [-74.13335599985203, 40.90246499981745], [-74.1333249998899, 40.90251900027021], [-74.13324899972191, 40.90265199995255], [-74.1331779995768, 40.90275399980338], [-74.13306899979686, 40.9029100003094], [-74.13273499988601, 40.903405999926065], [-74.13240299962499, 40.90391200021913], [-74.13230499971571, 40.904050000306135], [-74.13222900044603, 40.90415900003354], [-74.13207799993498, 40.90437999990742], [-74.13195800028438, 40.904646999756146], [-74.13184899960612, 40.90488899979382], [-74.13170100036643, 40.905300000306084], [-74.13164199991688, 40.905685999832286], [-74.13165500033568, 40.90631899971541], [-74.13173700035144, 40.90685300033], [-74.13181500016924, 40.90733600029945], [-74.13183799973547, 40.90748000030769], [-74.13194300021576, 40.90801200029668], [-74.132149999905, 40.90889900027992], [-74.13221699985215, 40.90908799991733], [-74.1322829999744, 40.90925099987476], [-74.13235900014237, 40.909418000176665], [-74.13239199975433, 40.90949400005245], [-74.13245000037897, 40.90962399992331], [-74.13260199981661, 40.909985999814964], [-74.13275800035055, 40.910331999715574], [-74.13301000024563, 40.91089800033898], [-74.13343299984493, 40.91187499989111], [-74.13346600035521, 40.91200499983279], [-74.133500999617, 40.9121640001659], [-74.1334949997692, 40.91234200027731], [-74.13349200029447, 40.912400999991085], [-74.13347800005077, 40.912587999863675], [-74.13346999965486, 40.91271199995946], [-74.13345299993641, 40.91290999991495], [-74.13337000009574, 40.91320900001304], [-74.1332909995547, 40.91335999983019], [-74.13307800001768, 40.91381399987822], [-74.13271800016757, 40.914476000332876], [-74.13240000015027, 40.914953999940266], [-74.13223000027095, 40.915164999738245], [-74.13204100012506, 40.91538899994499], [-74.13199400026939, 40.91544000024967], [-74.131564999924, 40.91590300021728], [-74.13123500021112, 40.916344000238325], [-74.13110100031682, 40.916561999713174], [-74.13101000008021, 40.91674200001443], [-74.13053499970405, 40.91763700013691], [-74.13037200039575, 40.91792200010851], [-74.13026000024277, 40.91811900018759], [-74.13021500003693, 40.91819700001185], [-74.13012100032559, 40.9183590000316], [-74.13005699985317, 40.9184710002489], [-74.12972200011741, 40.91905900031268], [-74.12950899968207, 40.919463999766506], [-74.12941099977279, 40.91973400006016], [-74.12937700033592, 40.92000399992966], [-74.12940800029806, 40.920213000192646], [-74.12944599993291, 40.92031599995896], [-74.12951200005513, 40.920457999828386], [-74.1296440002996, 40.92068599981225], [-74.12995800011898, 40.921019000081415], [-74.13040599983262, 40.92140299980721], [-74.13098199959279, 40.92177699968284], [-74.1315170002434, 40.92208399968337], [-74.13187399972047, 40.92223799973909], [-74.13222500024807, 40.92238899997426], [-74.13233700040107, 40.922430000072936], [-74.13303700000981, 40.92268899977745], [-74.13326299996561, 40.92276700031774], [-74.13409599964373, 40.92296000028431], [-74.13427999976676, 40.922993000179964], [-74.13448399998124, 40.923022000136335], [-74.13503399980216, 40.92304300023727], [-74.13586800020352, 40.923001999840096], [-74.1362049995891, 40.92297399968671], [-74.13658500042901, 40.922943000084786], [-74.13737100025146, 40.9229149999064], [-74.13800999976084, 40.92294099978157], [-74.1384299998854, 40.923029000170715], [-74.13887500012432, 40.92319600028634], [-74.13955700018971, 40.92354399989068], [-74.13974899981034, 40.92364999997955], [-74.13999999988049, 40.92383200026058], [-74.1402180003387, 40.92400199977206], [-74.14025299960049, 40.92403600030063], [-74.14040300028663, 40.92420100032154], [-74.14082099986307, 40.92471199991184], [-74.1413439999198, 40.925419999661635], [-74.14154499976125, 40.925742000330565], [-74.1416130004316, 40.92585100027111], [-74.14186100012873, 40.92629999988655], [-74.14209299993234, 40.92683499972915], [-74.1422179996058, 40.92714799983868], [-74.14241500014761, 40.927941000024234], [-74.14249200014052, 40.92873299979175], [-74.14251499970673, 40.92895299992776], [-74.14248899976745, 40.92917500012457], [-74.14246000035347, 40.92935500001176], [-74.14243000021622, 40.92956199978489], [-74.14233200030694, 40.92981899994837], [-74.14220199971228, 40.93007700017386], [-74.14207899968862, 40.93028700018197], [-74.1419640000609, 40.93043799967183], [-74.1417380001051, 40.93064099998387], [-74.14150499957827, 40.93077499980136], [-74.14126899957671, 40.93092600021198], [-74.14111499959094, 40.93102500013214], [-74.14070899971007, 40.93133699971216], [-74.1404149999822, 40.931674000007014], [-74.14007199985052, 40.932168999985734], [-74.14001599977404, 40.93224900021688], [-74.13999499985763, 40.93228000020406], [-74.13992700008556, 40.932406999693136], [-74.13980800025989, 40.932628000156505], [-74.13979099964314, 40.93266000030973], [-74.13969899958163, 40.932868999911335], [-74.13964300040342, 40.93305899990085], [-74.13963199963447, 40.933140000069585], [-74.1396059996952, 40.93342699968379], [-74.13958999980169, 40.93375899989784], [-74.13960700041844, 40.93389799976793], [-74.13960900006825, 40.93391800015969], [-74.13961699956586, 40.93397400000287], [-74.1397329999168, 40.93437899967341], [-74.13998399998698, 40.93503100010023], [-74.14038300019516, 40.935834000251404], [-74.14047299970852, 40.93601499993466], [-74.14067299972506, 40.93635900009912], [-74.14092200014541, 40.93673500004473], [-74.1412040001777, 40.93707899985294], [-74.14142500011064, 40.9373070001748], [-74.14150100027862, 40.9373849997471], [-74.14161599990636, 40.93750299988199], [-74.14168299985351, 40.93756900006105], [-74.14172600040953, 40.93761200010108], [-74.14184199986217, 40.93772900024197], [-74.14204600007666, 40.937954000243664], [-74.14226299981165, 40.938221999800554], [-74.14238199963734, 40.938386000107194], [-74.14272499976899, 40.93896900020974], [-74.14302900044093, 40.9394529998811], [-74.14315999996218, 40.93965000024461], [-74.14320699981786, 40.93971999990505], [-74.14354599975157, 40.94022800025907], [-74.14361600007177, 40.940332999820946], [-74.14377500008042, 40.94055100023957], [-74.14385299989823, 40.94065700018935], [-74.14393999993686, 40.94076599995391], [-74.14396900024919, 40.9408010002199], [-74.14400199986115, 40.9408380002289], [-74.14409200027283, 40.94091999989987], [-74.14429300011427, 40.94105500012113], [-74.14441399958979, 40.94112800029672], [-74.14459799971281, 40.94122299967943], [-74.14470900004089, 40.941270999765514], [-74.14484499958502, 40.941322999989076], [-74.14543100028925, 40.941481000156216], [-74.14642799999889, 40.941676000163525], [-74.14675299968891, 40.9417150000959], [-74.14696500029935, 40.941735999684575], [-74.14736000030955, 40.94175100006522], [-74.14750599989942, 40.94174500018479], [-74.14770000006817, 40.941720999979054], [-74.14791099995537, 40.94168300025746], [-74.14807099978894, 40.94164300009836], [-74.1488630003575, 40.94148899980248], [-74.14958700025568, 40.94139800029167], [-74.151187000388, 40.94039800033856], [-74.15238800031217, 40.93949799985399], [-74.15336300028052, 40.93853799966375], [-74.15393800021579, 40.93797200023786], [-74.15516000005634, 40.937540999972555], [-74.15602200004678, 40.93747600003651], [-74.15702100030458, 40.937399999758696], [-74.15976299991152, 40.93743600004406], [-74.16151000035694, 40.9374979998863], [-74.16269899968721, 40.9371279998337], [-74.16293800006181, 40.937053999710244], [-74.16340000001917, 40.93675299969246], [-74.16416999994811, 40.9364199999867], [-74.1642879999489, 40.936369000262545], [-74.1656129997216, 40.93579700015384], [-74.1661890003801, 40.934950999844666], [-74.16665600036033, 40.93434600003447], [-74.16666999970573, 40.93433100000805], [-74.16675099989658, 40.93424799998127], [-74.1667659999652, 40.934227999689405], [-74.16686700024754, 40.93409899966338], [-74.16693800039265, 40.93398700014147], [-74.16725200021199, 40.933500000145784], [-74.1673300000298, 40.933355000153114], [-74.16744800003057, 40.933070999881856], [-74.16749599971115, 40.93295699997438], [-74.16753699971903, 40.932854999890495], [-74.16762799995563, 40.93259300031054], [-74.16764200019932, 40.93247900025694], [-74.16762299993276, 40.932301999748276], [-74.16761700008497, 40.932284000245126], [-74.1675340002443, 40.932187999871246], [-74.16681600019389, 40.93136100029748], [-74.1670000003169, 40.93139800016481], [-74.16743499961179, 40.931486000151175], [-74.1676120000621, 40.93144300019561], [-74.16781700010152, 40.931409000084656], [-74.16799299982861, 40.931377999688856], [-74.16817799977655, 40.93134600027202], [-74.16846499983171, 40.93129599971006], [-74.16844399991531, 40.93137299990821], [-74.16838299981595, 40.93159300007693], [-74.16858000035776, 40.93180399969558], [-74.16870699968106, 40.9319399998999], [-74.16897799984271, 40.93223100002063], [-74.16901899985058, 40.932274999813046], [-74.16911299956192, 40.93237500009603], [-74.16923700030878, 40.93250800012256], [-74.1696880003955, 40.93216699996172], [-74.16976200001535, 40.93211200029641], [-74.16993000024483, 40.93198399988612], [-74.17008599988046, 40.93186600007294], [-74.1709410001982, 40.93121700004803], [-74.17132699998757, 40.93092200008874], [-74.17165000002777, 40.93067600018525], [-74.17260499990462, 40.929946000095846], [-74.17271399968458, 40.93004500012699], [-74.17331100025945, 40.93052900002925], [-74.17372299998812, 40.9308629999388], [-74.17395200031697, 40.93105100020997], [-74.17418800031851, 40.931240000311625], [-74.17461799959051, 40.93160500032421], [-74.17516800030972, 40.932052999851805], [-74.17523899955653, 40.93210699989268], [-74.17533399999108, 40.93217999977722], [-74.17588800000995, 40.932673999693264], [-74.17629300006591, 40.93304000026583], [-74.17649599955718, 40.93321399982692], [-74.17679500020624, 40.93346100011353], [-74.17761899966354, 40.93296899997392], [-74.17783899977157, 40.93283800020051], [-74.17833000004123, 40.9325430000136], [-74.17871699965553, 40.932305999788014], [-74.17881100026518, 40.93222600030458], [-74.17897500029672, 40.932052000177364], [-74.17938000035267, 40.93162200033144], [-74.17952099991966, 40.93147799997215], [-74.1800869996341, 40.93090000008496], [-74.18028300035098, 40.93069800026361], [-74.18105300027992, 40.92990299981668], [-74.181333999589, 40.92960699970873], [-74.18175799991153, 40.92915899988463], [-74.18227199974743, 40.92866099989662], [-74.1828819998428, 40.92803899993079], [-74.18331100018818, 40.92760200020992], [-74.18444699981504, 40.92646199972899], [-74.18507199997902, 40.926703000255465], [-74.18554700035516, 40.9268599996666], [-74.18650300005693, 40.92717499983289], [-74.18669999970042, 40.92724699998973], [-74.18685600023436, 40.92732299973081], [-74.18698199973272, 40.92739100006807], [-74.18712300019803, 40.92749499992949], [-74.1873249998644, 40.92766699968041], [-74.18748899989595, 40.92782299977766], [-74.18823700008356, 40.92845900001721], [-74.18860100013164, 40.92877100017607], [-74.18889700040765, 40.929037000218344], [-74.18925200023489, 40.92934300003453], [-74.1904509996109, 40.93037699969023], [-74.1904849999461, 40.93040700017777], [-74.19100200015502, 40.93085800011923], [-74.19144400002091, 40.93121700004803], [-74.19152400038686, 40.93129200028785], [-74.1916110004255, 40.931342000174155], [-74.19172299968017, 40.93140499999066], [-74.19178399977955, 40.93143999978734], [-74.19183300018334, 40.93146799974704], [-74.1919079996281, 40.93151000000374], [-74.19199700021488, 40.93155999972508], [-74.19208599990333, 40.931610000087254], [-74.19215500039863, 40.93164899985485], [-74.1921739997669, 40.93165900005257], [-74.19240599957047, 40.93141500022531], [-74.19286400022818, 40.93093300008783], [-74.19330400044423, 40.930468000131675], [-74.19413399974933, 40.929594000065684], [-74.1942729996665, 40.929447999931014], [-74.19548299981149, 40.9281740000073], [-74.19573200023181, 40.92791200019024], [-74.1960540004471, 40.927573000227156], [-74.19633099955821, 40.927281000206186], [-74.19648799991705, 40.92711599973072], [-74.19689700017096, 40.92680300014829], [-74.19743899959596, 40.92624500008855], [-74.19797099987352, 40.92568799983884], [-74.19842799980802, 40.9251960001891], [-74.19849700030329, 40.92512699985016], [-74.19887700024489, 40.92474800032373], [-74.19878000016051, 40.92481399967044], [-74.19873499995468, 40.92484000015602], [-74.19866499963447, 40.92486299992439], [-74.19861299975594, 40.92487400025346], [-74.19879799970387, 40.92467999998171], [-74.19934500005004, 40.924106000215794], [-74.19991699961226, 40.92350299980432], [-74.20047499982908, 40.9229149999064], [-74.20105099958927, 40.92230900002301], [-74.20161200017913, 40.921716999681955], [-74.20218799993933, 40.921110999674504], [-74.20270299960013, 40.920569000034874], [-74.20274399960802, 40.9205309996855], [-74.20331799971837, 40.91992100023299], [-74.203925000339, 40.91927999994008], [-74.2044249999312, 40.918754000267555], [-74.20501999995794, 40.91812799983261], [-74.20556200028126, 40.917556999864445], [-74.20613600039161, 40.91695300021495]]]}}, {"type": "Feature", "properties": {"name": "Newark", "geoid": "3451000", "city": "newark"}, "geometry": {"type": "Polygon", "coordinates": [[[-74.25136099975268, 40.737533999924935], [-74.25132399994276, 40.73737500033546], [-74.25123699990412, 40.73700099967012], [-74.25112300010129, 40.73658099999462], [-74.25108999959103, 40.736459000081325], [-74.25100799957526, 40.73621899990021], [-74.25094800019912, 40.736101000327515], [-74.25086100016047, 40.73596699990137], [-74.25079000001536, 40.73588199977556], [-74.25058300032613, 40.73563400021337], [-74.25023000014872, 40.73530799967897], [-74.25012100036878, 40.73520699992629], [-74.24995099959114, 40.73504700029411], [-74.24980300035145, 40.734917000182016], [-74.24970299989401, 40.734840000194794], [-74.24964500016772, 40.73480399999339], [-74.24954600043351, 40.73474400006824], [-74.249370999633, 40.73465699987644], [-74.24917900001239, 40.73458300006975], [-74.24890000035313, 40.734489000123], [-74.24868600009289, 40.73441200032113], [-74.24865000010787, 40.734403000214705], [-74.24815100034058, 40.734286000081816], [-74.24765500004804, 40.73416699986356], [-74.24628199969644, 40.73381099991906], [-74.24534799973597, 40.733568999817656], [-74.24491099989295, 40.73345500011183], [-74.24451699970767, 40.73334500001945], [-74.24436899956966, 40.73330699978435], [-74.24437399959253, 40.73326700030165], [-74.24438000033862, 40.73312699988067], [-74.24438000033862, 40.73306899971722], [-74.24438000033862, 40.73302900009144], [-74.24437799979049, 40.732955999793404], [-74.24403200018408, 40.73287599970123], [-74.24369900009815, 40.732798000114336], [-74.24395099999323, 40.73220799977127], [-74.2435400000895, 40.7321070000776], [-74.24312699963761, 40.73200500025834], [-74.24322999956976, 40.73171200024153], [-74.2432739999507, 40.73162900008126], [-74.24355199978505, 40.73110600002768], [-74.24380899970299, 40.731167999799766], [-74.2438079998781, 40.73110600002768], [-74.24384100038837, 40.73110700001347], [-74.24384800006106, 40.73109400019687], [-74.24386899997747, 40.73105400006446], [-74.24380299985522, 40.73103299966199], [-74.24366899996092, 40.73099200018615], [-74.24367700035683, 40.730974999715386], [-74.24374900032686, 40.73083899987697], [-74.24372199966437, 40.7308309999579], [-74.24344800002797, 40.73074800006012], [-74.24334599992072, 40.73071700032597], [-74.24332099980639, 40.73071399967022], [-74.24322600027013, 40.73070299976058], [-74.24312699963761, 40.73069199984917], [-74.24277600000835, 40.73058599992858], [-74.2423790003483, 40.7313309998582], [-74.24234300036328, 40.73140399989696], [-74.24198900036097, 40.731294999800326], [-74.24189599957623, 40.73129199985133], [-74.24176400023008, 40.73128300000359], [-74.24173699956756, 40.73127500013791], [-74.24141299970246, 40.73117599967827], [-74.24139000013624, 40.73121999967385], [-74.24092599963075, 40.73209499974659], [-74.24088299997305, 40.73208200012301], [-74.24057400017657, 40.73198800004636], [-74.24042699986346, 40.73200500025834], [-74.24030100036508, 40.732019999841164], [-74.23996699955593, 40.731917999888545], [-74.23993200029413, 40.73190700017794], [-74.23976499988957, 40.731856000134556], [-74.23932200019877, 40.732696999954875], [-74.23920199964986, 40.73286300023023], [-74.23919499997716, 40.73287199986426], [-74.23909600024297, 40.73305800019694], [-74.23848299977456, 40.73286999994572], [-74.23824599994809, 40.73331899989677], [-74.238070000221, 40.733651000333154], [-74.23762499998207, 40.733514999838064], [-74.2373739999119, 40.73398900012942], [-74.23733700010199, 40.7340580002091], [-74.23700599966588, 40.733955999977255], [-74.23691799980233, 40.7339079999742], [-74.23682499991591, 40.73385600015871], [-74.23668299962569, 40.733812999809366], [-74.23649199982998, 40.73375299967116], [-74.23621399999563, 40.73427799989648], [-74.23587199968887, 40.7349270001473], [-74.23577299995466, 40.73511300018053], [-74.23533500028675, 40.73497699995116], [-74.23489800044375, 40.73484299998382], [-74.2348609997355, 40.73492099989604], [-74.23445599967955, 40.735679999817755], [-74.23433400037912, 40.7356479997412], [-74.23427099973162, 40.73562500027227], [-74.23419600028686, 40.73560499986935], [-74.23340999956609, 40.735382999962184], [-74.23331599985477, 40.73535899979908], [-74.23203299991484, 40.73499799978952], [-74.23198600005918, 40.734985999979926], [-74.23188099957886, 40.734955000178225], [-74.23176799960096, 40.73492299975294], [-74.23170999987465, 40.73490399974841], [-74.23101500028879, 40.73530100021999], [-74.23031099958378, 40.73570200003164], [-74.22963299971634, 40.73608900003624], [-74.22956300029446, 40.73612099990067], [-74.22920400026926, 40.736300999872306], [-74.22899699968171, 40.736417999865], [-74.22893499975744, 40.73645399987367], [-74.22890799999327, 40.736459000081325], [-74.22884299969591, 40.736483999752636], [-74.22862099993807, 40.73655499977524], [-74.22851499963286, 40.73653000013061], [-74.22847000032534, 40.73651799991671], [-74.22832499966206, 40.73648199994261], [-74.22790100023786, 40.736666999810204], [-74.22743799955727, 40.736926999747965], [-74.22709899962355, 40.73735200010224], [-74.22687900041386, 40.73762900022173], [-74.22683699968275, 40.73767999992391], [-74.22661999994776, 40.73795100006097], [-74.22631000032636, 40.737808000312086], [-74.22622999996041, 40.73778299977703], [-74.22568500016239, 40.737598000290276], [-74.22540899997786, 40.73750399983886], [-74.2253699996198, 40.73749099991077], [-74.22527300043373, 40.73763000010954], [-74.22497899980755, 40.738055000056576], [-74.22465999996531, 40.737927000143664], [-74.22457299992668, 40.737935999773306], [-74.22443999985728, 40.737950000178046], [-74.22412100001506, 40.73782299994794], [-74.22394500028797, 40.73807600028464], [-74.22393199986917, 40.73814299976876], [-74.22390799957972, 40.73826199968169], [-74.22380200017282, 40.73852300006651], [-74.22378000043152, 40.73857700006522], [-74.22343399992681, 40.73849600005073], [-74.22334199986528, 40.738472000330006], [-74.22326300022257, 40.73845200010235], [-74.22292000009091, 40.73837199981225], [-74.2226749998685, 40.73897600013409], [-74.22233000008703, 40.7388959997935], [-74.2222449996982, 40.7388570001371], [-74.22219899966744, 40.73883500028596], [-74.22217100007836, 40.73882199993733], [-74.22204899987963, 40.73879400017267], [-74.2218920004191, 40.738758000068955], [-74.22182600029687, 40.738741000221154], [-74.22178799976372, 40.73883399973566], [-74.22168999985443, 40.739087000311144], [-74.22164399982368, 40.739186999754054], [-74.22161200003663, 40.739265999881525], [-74.22118600006426, 40.73916599987672], [-74.22109499982767, 40.73914499999275], [-74.22092900014633, 40.73910599980168], [-74.22075000004618, 40.73906399998922], [-74.22064700011401, 40.73931699968995], [-74.22050900002176, 40.73965400011044], [-74.22015699966924, 40.73957100032891], [-74.22007899985145, 40.73954599977582], [-74.22001000025449, 40.7395240001525], [-74.21999600001077, 40.73952000003461], [-74.21981899956046, 40.73947799980286], [-74.2196529998791, 40.73943799994646], [-74.21957000003842, 40.73963900020679], [-74.21937099984679, 40.740130999774465], [-74.21893200035396, 40.74002999985708], [-74.21826799983192, 40.739873999669875], [-74.2182109999305, 40.739946999864095], [-74.21807500038639, 40.74011299974648], [-74.21719999997715, 40.74118799975681], [-74.21718300025871, 40.74118100023589], [-74.21687500028715, 40.741037000107035], [-74.21666500022486, 40.740938999718225], [-74.21651200006399, 40.74086699977113], [-74.21610500035821, 40.740677000122695], [-74.21601199957347, 40.74079200022551], [-74.21596800009085, 40.74084700026356], [-74.21565000007355, 40.74124099980051], [-74.21536700021633, 40.74158999998393], [-74.21531799981253, 40.741566000018274], [-74.21519700033701, 40.74150900023521], [-74.21514399973525, 40.741482999900015], [-74.21478499971005, 40.74131499968814], [-74.21440499976845, 40.741137999856676], [-74.2143670001336, 40.74118399973894], [-74.2143019998363, 40.74126499988344], [-74.2141119998655, 40.74150600006613], [-74.21378800000039, 40.74191000006009], [-74.2136690001747, 40.74185600004461], [-74.21354799980087, 40.74180199998529], [-74.21341899992944, 40.74196599967695], [-74.21330900032459, 40.742106999694464], [-74.2130430001858, 40.74243000013325], [-74.21292000016217, 40.742372999729405], [-74.2122749999067, 40.74206899969986], [-74.21217600017249, 40.74219200003364], [-74.21211699972294, 40.74226499972576], [-74.2120859997608, 40.74230300028902], [-74.21205300014886, 40.74237100009646], [-74.21182600036812, 40.742809999762336], [-74.21160000041232, 40.74274300021465], [-74.2113319997254, 40.742667000249824], [-74.21128300021991, 40.74265799989901], [-74.21126700032639, 40.74265499978176], [-74.21119399963312, 40.742640999686714], [-74.21086899994312, 40.74252999999541], [-74.21041899968134, 40.743279000151304], [-74.21003299989195, 40.743145999696324], [-74.21000500030286, 40.743137000090925], [-74.20995699972397, 40.74312099980629], [-74.2095790003305, 40.74299200030597], [-74.20933499993303, 40.74290899992536], [-74.21011800028076, 40.741079999870955], [-74.2107540003154, 40.73946600012074], [-74.21146099959682, 40.73764300001041], [-74.21219799991381, 40.73569900028135], [-74.21265999987118, 40.735800999883004], [-74.21338700014239, 40.73388699979183], [-74.21400200026063, 40.73227399975108], [-74.21432299975268, 40.73143400001087], [-74.21491799977943, 40.72992600018209], [-74.214901000061, 40.72992200016779], [-74.21496700018324, 40.72986299992897], [-74.2150690002905, 40.72988800003658], [-74.21503599978021, 40.72980600032933], [-74.21495899978733, 40.72960999967336], [-74.21501499986381, 40.72953599969931], [-74.21505300039696, 40.72948599989105], [-74.2151820002684, 40.72931499997688], [-74.2150769997881, 40.729053000211366], [-74.21519899998684, 40.729025999755955], [-74.21523400014694, 40.729017000282504], [-74.21530500029203, 40.72882700014615], [-74.21538200028492, 40.72872099997768], [-74.21544800040718, 40.72862999998733], [-74.21554600031646, 40.72836500016687], [-74.2155990000199, 40.72836500016687], [-74.21560900006565, 40.72835399986897], [-74.21572299986848, 40.72821900014888], [-74.21580200040951, 40.728127000122264], [-74.21572700006644, 40.72808900031091], [-74.21587400037953, 40.727916000143146], [-74.21549699991267, 40.727729999732595], [-74.21548299966896, 40.72771399982672], [-74.21552899969971, 40.727660999898255], [-74.21617499978008, 40.72690599991781], [-74.21621499996306, 40.726859999693545], [-74.21600900009875, 40.72675599989811], [-74.21619599969648, 40.7265400000655], [-74.21620999994019, 40.7265030000837], [-74.21623599987946, 40.726434999713945], [-74.21640800030691, 40.7259869996659], [-74.21645900036053, 40.72591599993917], [-74.21650399966808, 40.72584700026634], [-74.2167179999283, 40.72555499975403], [-74.21659900010262, 40.725528999991354], [-74.21667299972246, 40.72530100006633], [-74.21670100020988, 40.725224999917764], [-74.2167449996925, 40.725146000137094], [-74.21679200044646, 40.72505900033051], [-74.21689100018067, 40.7247589997965], [-74.21694300005919, 40.72460099971594], [-74.21696700034866, 40.72452700029898], [-74.21700499998349, 40.72444799968982], [-74.2170409999685, 40.72437099984174], [-74.21709799986989, 40.724198000220674], [-74.21725900042671, 40.72375999969291], [-74.21733899989432, 40.723654999720935], [-74.2176329996222, 40.72325599967836], [-74.21766199993452, 40.72321199986339], [-74.21725799970346, 40.72305599972796], [-74.21739599979573, 40.72285499974759], [-74.21757700044402, 40.72264899995752], [-74.21783199981384, 40.72233399973312], [-74.21759199961433, 40.72222699999636], [-74.21736700038173, 40.72211699972499], [-74.21754099956068, 40.721906999878044], [-74.2175620003754, 40.72188300030076], [-74.21759499998737, 40.721845000328244], [-74.21769200007174, 40.72173199972642], [-74.21785199990532, 40.72154099976721], [-74.21804699989899, 40.7213100000788], [-74.2181670004479, 40.721251999827736], [-74.21825000028856, 40.72121099977243], [-74.21831499968758, 40.72117999968059], [-74.21850999968125, 40.720949000100994], [-74.21864100010082, 40.72101300007951], [-74.21906000040048, 40.72041500028552], [-74.21909100036262, 40.720372000101236], [-74.21892999980581, 40.7202969999192], [-74.21884899961498, 40.72025899972209], [-74.21887799992729, 40.72022299980205], [-74.21909200018753, 40.719996000235824], [-74.21901799966936, 40.71995600024103], [-74.21911499975374, 40.71985300002468], [-74.21921600003608, 40.71974599970382], [-74.21933099966381, 40.7196240002417], [-74.22030900000522, 40.71858499986363], [-74.22036500008171, 40.71855500008497], [-74.22047300003675, 40.7184949998062], [-74.22073699962739, 40.71811400000807], [-74.22081600016841, 40.71799800001361], [-74.22083200006195, 40.717984999678805], [-74.2208580000012, 40.717958999682445], [-74.22092800032141, 40.71788999993095], [-74.22093900019206, 40.71787799975968], [-74.22115099990417, 40.71765599994514], [-74.2215540003103, 40.71723600003742], [-74.22185899990883, 40.71692200026882], [-74.22234099995768, 40.71641400007867], [-74.22235400037646, 40.716405999787355], [-74.22243100036937, 40.716369999826156], [-74.22254199979913, 40.71631900013156], [-74.22346800026199, 40.715349999872835], [-74.22358200006481, 40.7154229997385], [-74.22384400000561, 40.71559099996474], [-74.22413600008367, 40.715333000172464], [-74.22418899978713, 40.71524500025215], [-74.22426199958205, 40.71512300003094], [-74.22577399985083, 40.71346099999918], [-74.22588799965365, 40.71333599983599], [-74.22652000038865, 40.71264100025943], [-74.22656499969617, 40.71259200027903], [-74.22679599967485, 40.71233800015029], [-74.22685000010152, 40.71225700019767], [-74.22691399967563, 40.71216199976623], [-74.2270600001638, 40.712001999879945], [-74.22774100040428, 40.711253000338694], [-74.22752700014405, 40.71112499993871], [-74.22740900014325, 40.71105400002037], [-74.22733600034833, 40.711010000311106], [-74.2271999999059, 40.71092799981583], [-74.2271010001717, 40.71086800015347], [-74.22696599955417, 40.71078699977444], [-74.22670899963622, 40.710621000270294], [-74.22688899956128, 40.710443000202694], [-74.22721800034755, 40.710115999890576], [-74.22725299960935, 40.71008599970032], [-74.22804400035298, 40.709258999778896], [-74.22807299976698, 40.70922100009068], [-74.22845100005875, 40.70886199988731], [-74.22849000041683, 40.70880500000702], [-74.228517000181, 40.70874800007794], [-74.22853800009742, 40.70869399970587], [-74.22854899996807, 40.70864100029433], [-74.22855499981584, 40.70859400006141], [-74.22855300016602, 40.70854299985803], [-74.22855099961788, 40.708506000086615], [-74.22781800039718, 40.70837999982742], [-74.22683800040596, 40.70820500020683], [-74.22613500042416, 40.70807999970989], [-74.22606699975381, 40.708067999813224], [-74.22588799965365, 40.708036999729806], [-74.22547799957482, 40.707965000271194], [-74.2245100001775, 40.70779699986967], [-74.22340200013976, 40.70760499976739], [-74.22249400011856, 40.70743899982151], [-74.22200000037414, 40.707348999677876], [-74.2219490003205, 40.70734100034019], [-74.22167099958786, 40.70714500026387], [-74.2213640003395, 40.70691700001917], [-74.22100199994127, 40.70665699995824], [-74.2203700001046, 40.70619999975357], [-74.220054999562, 40.705983999952714], [-74.21968700021428, 40.70572400033521], [-74.21942699992329, 40.705539999940186], [-74.21846799984846, 40.70484599973062], [-74.21737499987933, 40.70405600033261], [-74.21580300023442, 40.70292299985886], [-74.21442700040808, 40.70192599980612], [-74.21340600040897, 40.701196000083385], [-74.21300800002571, 40.700908000120904], [-74.2129720000407, 40.700809999882786], [-74.21258500042642, 40.69975399984505], [-74.21255199991613, 40.69966700022547], [-74.212520999954, 40.69958800008105], [-74.21240200012831, 40.69926400030177], [-74.21239100025765, 40.69923499977385], [-74.21226300021112, 40.69888799973426], [-74.21211599989805, 40.69848899972548], [-74.21147800021359, 40.69675800012715], [-74.21086200027044, 40.6950870001341], [-74.20938500016176, 40.6910800002066], [-74.2092479998944, 40.6907090000053], [-74.20876300037082, 40.690454000281164], [-74.20823500029122, 40.69017600007371], [-74.20756300027158, 40.689821999693976], [-74.20747299985989, 40.68977499980424], [-74.20719900022351, 40.68963100015309], [-74.2063890001116, 40.68920399968443], [-74.20625699986712, 40.689135000108045], [-74.20537200031045, 40.68867000003351], [-74.20511100019455, 40.68853400027299], [-74.20457399989412, 40.68825400033274], [-74.20440900003766, 40.688167999949506], [-74.20401499985238, 40.68795999987863], [-74.2035949997278, 40.687742000279904], [-74.20180399979976, 40.68680999998463], [-74.20154699988181, 40.686671999889946], [-74.20145399999541, 40.68667799972231], [-74.20092400026596, 40.68670900020992], [-74.20077699995286, 40.686718999924636], [-74.20057500028652, 40.68673000029031], [-74.19997799971163, 40.68676499995556], [-74.19964399980077, 40.68678400007748], [-74.19855699967944, 40.68684900016693], [-74.1980689997828, 40.68687799995586], [-74.19721699983812, 40.68692399987698], [-74.19606199994472, 40.68699700024934], [-74.19377399989921, 40.687132999740754], [-74.19364099982982, 40.68714100014292], [-74.19308699981096, 40.68717500030894], [-74.19307400029047, 40.68717500030894], [-74.19294100022108, 40.68718300002493], [-74.1928509998094, 40.68718799984691], [-74.19278100038753, 40.68719400031401], [-74.19266500003656, 40.68719900013517], [-74.1925000001801, 40.68720899977641], [-74.1918580002977, 40.68724899968864], [-74.19175799984026, 40.6872510002967], [-74.19018700002026, 40.68734800008344], [-74.19008599973792, 40.687351999931174], [-74.18997299976002, 40.6873600003071], [-74.18940299984763, 40.687393999680154], [-74.18908300018047, 40.687409999739785], [-74.18865499965999, 40.68743600008389], [-74.18847300008512, 40.68744800029167], [-74.18832300029727, 40.68745699993519], [-74.18762399961514, 40.68749900029918], [-74.18749100044407, 40.687506000016725], [-74.18744100021536, 40.68750899989541], [-74.18693499987707, 40.6875390000374], [-74.18391399971256, 40.687715000098756], [-74.18228400034131, 40.68781499975627], [-74.18158300000935, 40.687856999894635], [-74.17918399963577, 40.68800099997342], [-74.17112600014612, 40.68847799997032], [-74.16992699987178, 40.68854900011491], [-74.16940999966285, 40.688602999790504], [-74.16927199957057, 40.688616999674004], [-74.16898899971336, 40.68880199975609], [-74.16863800008409, 40.68925700025825], [-74.16852900030413, 40.68939700031173], [-74.1681889996472, 40.689612000161716], [-74.16773699973558, 40.68989899999246], [-74.16763299997851, 40.689962999845456], [-74.16645399979566, 40.690148000277624], [-74.16625600032725, 40.6901500001175], [-74.16560699987382, 40.690154999716874], [-74.16505000038023, 40.69016099991682], [-74.16496099979345, 40.690142000076555], [-74.1645349998211, 40.69005600008639], [-74.1644439995845, 40.69003999998095], [-74.16386799982432, 40.68991799990199], [-74.16297700041987, 40.68973400011975], [-74.16271799995378, 40.68968099992536], [-74.16267299974795, 40.68967199990101], [-74.16258400005948, 40.68965299992127], [-74.16251799993725, 40.689636999719056], [-74.16238900006583, 40.68961300008967], [-74.16231200007292, 40.68958599998543], [-74.16226199984422, 40.68956500012386], [-74.16178599964313, 40.68939700031173], [-74.16175700022914, 40.689379000185106], [-74.16169600012977, 40.68933900018904], [-74.16102400011013, 40.68891099995427], [-74.16075499959831, 40.68861900024098], [-74.1606769997805, 40.68852899987076], [-74.1606490001914, 40.688500000119156], [-74.16037200018197, 40.68802800003869], [-74.16021599964805, 40.68775499970727], [-74.1601210001118, 40.68758800005858], [-74.16007900027901, 40.687519000171264], [-74.1596690002002, 40.6869719997016], [-74.15937799994705, 40.68667399983412], [-74.15906499995259, 40.68642300023996], [-74.15870699975231, 40.68620199976314], [-74.1583410000544, 40.68602299984761], [-74.15786099965538, 40.685951999736595], [-74.15686700031878, 40.686055999921486], [-74.15596400032047, 40.686111000235286], [-74.15532200043803, 40.686116000137744], [-74.15456000000673, 40.68606799969654], [-74.1538610002229, 40.685917000325574], [-74.15265500027586, 40.68522400002883], [-74.15190999956297, 40.68459700026584], [-74.15111000039512, 40.683757999760495], [-74.15077099956308, 40.683451999664456], [-74.1504330003526, 40.68314700023221], [-74.148983999833, 40.68223599984721], [-74.14615400036251, 40.68076500031466], [-74.14544600035788, 40.68039600004506], [-74.14500899961654, 40.68016900028413], [-74.14437799960479, 40.67983099972086], [-74.14397799957169, 40.67963200021829], [-74.14375300033912, 40.67951599995683], [-74.14336099980363, 40.679311999782655], [-74.14312099960412, 40.679188000333475], [-74.14138400010276, 40.67828499976231], [-74.1391470001109, 40.67712199970494], [-74.13721800009058, 40.67622800024099], [-74.13584800011203, 40.67559299990979], [-74.1357750003171, 40.67555899996719], [-74.13670300042978, 40.6744440000356], [-74.13655699994159, 40.67436799975193], [-74.13606700039516, 40.67503500010131], [-74.13521100025248, 40.67625300004981], [-74.13365200012804, 40.67816999998165], [-74.13343299984493, 40.678433999882095], [-74.13265799989313, 40.67936800029334], [-74.13189100033723, 40.68030800028653], [-74.13148700010619, 40.68080199982652], [-74.1314030004406, 40.680902000319364], [-74.12920800028152, 40.683556999682075], [-74.12864800041486, 40.684234000145054], [-74.12291099968436, 40.69117199966513], [-74.12288700029325, 40.69120200020148], [-74.12075400005843, 40.69373900020717], [-74.11925699985827, 40.69551200000333], [-74.11920599980463, 40.69557199987866], [-74.11917099964454, 40.695612000219604], [-74.1172669997386, 40.697807999792296], [-74.11455899956853, 40.70107199980763], [-74.11428699958198, 40.701402000195976], [-74.1133379995529, 40.70247699971961], [-74.11278699990707, 40.703102000003305], [-74.1134360003605, 40.70420799984832], [-74.11470300040689, 40.70636800009793], [-74.11596999955496, 40.70852700010663], [-74.1165140004264, 40.70945400013159], [-74.11705699967631, 40.71038100018985], [-74.11718700027097, 40.71060200013654], [-74.1184569997921, 40.71277300015215], [-74.11879800027396, 40.713356000122985], [-74.11913899985748, 40.713938000192414], [-74.11966500028726, 40.71483799970345], [-74.12019099981873, 40.71573699976846], [-74.12028700007819, 40.71590099970707], [-74.1209699999685, 40.71887300031909], [-74.12138699972003, 40.72100099979038], [-74.12098699968693, 40.72290100001678], [-74.12036900009397, 40.724948999974], [-74.11896800015327, 40.72958600015075], [-74.11811100018569, 40.73242099968745], [-74.1181050003379, 40.73244200033258], [-74.11808699989626, 40.73250100032672], [-74.1175200003569, 40.73496099974575], [-74.11750699993812, 40.735017999694215], [-74.11750000026542, 40.73504599968684], [-74.11749000021966, 40.73509099977186], [-74.11719899996655, 40.73628300016933], [-74.11709299966132, 40.73671599976625], [-74.11699300010221, 40.73712499974152], [-74.1170700000951, 40.737442999735485], [-74.11718100042319, 40.737899000002244], [-74.11721800023312, 40.73805099985031], [-74.11743900016604, 40.738956000057954], [-74.11750899958793, 40.7392430003021], [-74.1176049998474, 40.73963799966858], [-74.11798499978899, 40.739839999859726], [-74.11817999978267, 40.73994400030522], [-74.1182869999128, 40.74000100006809], [-74.11862900021956, 40.740201000139365], [-74.118970999628, 40.74040100028989], [-74.11946600009564, 40.74069199979227], [-74.11995999984006, 40.740983000063444], [-74.12053599960024, 40.741320000211054], [-74.12082500020355, 40.741489000240044], [-74.12092399993774, 40.741546999869115], [-74.12104399958835, 40.741617999932934], [-74.12108700014437, 40.74164299970732], [-74.12111300008362, 40.74165799983968], [-74.12118699970348, 40.74170099988273], [-74.12152300016245, 40.74178500023485], [-74.12192599967028, 40.74188600020989], [-74.12231800020575, 40.74198399988407], [-74.12237400028225, 40.741998000117405], [-74.122448999727, 40.742017000137736], [-74.12254400016157, 40.742040000119204], [-74.1226029997128, 40.74205500016204], [-74.122709000018, 40.74208100027365], [-74.12278600001089, 40.742101000090756], [-74.1228560003311, 40.74209799994844], [-74.1229130002325, 40.74209499980594], [-74.12300199992096, 40.74209099984267], [-74.12314099983814, 40.74208399973611], [-74.12327300008262, 40.74207800013038], [-74.12345399983258, 40.74206899969986], [-74.1238630000865, 40.74204999969439], [-74.12458500033485, 40.74201499981347], [-74.136802000164, 40.74146200006689], [-74.13695000030198, 40.74142699987656], [-74.13721800009058, 40.74141400003449], [-74.13749199972698, 40.741398000016], [-74.13770299961416, 40.74131300002335], [-74.13830799968667, 40.74106799979715], [-74.13992500043575, 40.7404160000217], [-74.14156400002781, 40.73975499991809], [-74.14235800024619, 40.7394339998234], [-74.14268799995908, 40.73930099984769], [-74.14491699955505, 40.736213999674526], [-74.14526399988466, 40.73573499999846], [-74.14528800017412, 40.73570100011486], [-74.14534199970248, 40.73566399978142], [-74.1471119997141, 40.73445299973166], [-74.14718799988209, 40.73440099966142], [-74.14725300017943, 40.73439300017063], [-74.14806599976606, 40.734291999709626], [-74.14818399976686, 40.73427699995833], [-74.15083800040856, 40.73394399997972], [-74.15118800021293, 40.73390099968726], [-74.15169100017816, 40.73385600015871], [-74.15216400000618, 40.733813999754474], [-74.15227399961103, 40.73380400030263], [-74.15330100035624, 40.73371299977589], [-74.15369600036644, 40.73367900022043], [-74.15396900017792, 40.733654000175775], [-74.15399699976702, 40.733652000280685], [-74.1542419999894, 40.73363000006967], [-74.15476000002326, 40.73358399972856], [-74.15527899988203, 40.73353800003642], [-74.15568700031102, 40.73350099986136], [-74.15633099984326, 40.73364799980972], [-74.15661799989846, 40.733713999722546], [-74.15740399972091, 40.73389400008024], [-74.15820399978708, 40.73407799971566], [-74.15944099969624, 40.73436100015573], [-74.1599799996465, 40.7344849997023], [-74.16164500007615, 40.73576400028581], [-74.16166900036559, 40.7357810002137], [-74.16195800007061, 40.736006999802825], [-74.1620929997898, 40.73610900029364], [-74.16378800035669, 40.7392009998955], [-74.16510100043385, 40.74278300012542], [-74.1655569996451, 40.744024999984255], [-74.16570200030839, 40.74442100000459], [-74.16592300024132, 40.745023000293244], [-74.16595400020347, 40.74510699985286], [-74.16598699981542, 40.745199000221014], [-74.16607899987692, 40.74723500026599], [-74.16608700027285, 40.74740200007546], [-74.16607899987692, 40.74744400006752], [-74.16606899983118, 40.747494999730534], [-74.16599500021134, 40.747968999771636], [-74.16598500016559, 40.7480360001797], [-74.16598000014272, 40.748067999741345], [-74.16597599994475, 40.74809099967193], [-74.1657380002934, 40.74960400006263], [-74.16565999957727, 40.75010099995859], [-74.1654649995836, 40.750995999948444], [-74.16493300020436, 40.75356699982637], [-74.16484000031794, 40.75450599968082], [-74.16479900031005, 40.754718000019544], [-74.1645850000498, 40.755972000285595], [-74.16452899997331, 40.75629800025229], [-74.1645130000798, 40.756388000216155], [-74.16434999987317, 40.756784999706525], [-74.16396800028176, 40.7577180001455], [-74.16358599979203, 40.758651999990214], [-74.16338800032362, 40.75940100024108], [-74.16318800030706, 40.75963499972216], [-74.16312399983465, 40.75975099993882], [-74.16306000026054, 40.75986699995305], [-74.1629449997345, 40.760076000195085], [-74.16252799998298, 40.76083399998378], [-74.16214899986629, 40.76137299966552], [-74.16207400042155, 40.761479000196985], [-74.16061700040436, 40.76300199990225], [-74.16032500032631, 40.76329299984521], [-74.1599589997301, 40.763658000074294], [-74.15959300003222, 40.764023000340096], [-74.15913299972466, 40.76448199983659], [-74.15867300031543, 40.76494199972254], [-74.15840200015379, 40.76526000006319], [-74.15782999969325, 40.765931999962724], [-74.15774699985259, 40.76603000025916], [-74.15768800030135, 40.76609999989647], [-74.1574809997138, 40.76647199993921], [-74.15738700000247, 40.76664200013249], [-74.15707499983293, 40.76720300033815], [-74.15663999963975, 40.76798599988561], [-74.15636900037642, 40.76889600005398], [-74.1557979997408, 40.770814999856704], [-74.15527899988203, 40.77153999975423], [-74.15515900023142, 40.77173199976844], [-74.15466399976378, 40.772274000329844], [-74.15427499960136, 40.77277500030042], [-74.15415099975282, 40.77293400028762], [-74.15411399994288, 40.7729809999799], [-74.15403699995, 40.77308000012042], [-74.15379699975047, 40.77338900002256], [-74.1535049996724, 40.77376600020245], [-74.15340199974025, 40.77394600032417], [-74.15329999963302, 40.77412599995824], [-74.15326600019613, 40.77418899978301], [-74.15265600010078, 40.77479699998847], [-74.15224199982397, 40.77521199978456], [-74.15063199964592, 40.776658999848024], [-74.15037200025324, 40.776892999789474], [-74.14979399994492, 40.777469000058346], [-74.14967699976906, 40.77752299972125], [-74.14948500014842, 40.77761000029507], [-74.14928799960661, 40.77769999997129], [-74.14898700020606, 40.77800099978626], [-74.14843800021006, 40.77917599998339], [-74.14840800007283, 40.77940600014266], [-74.14837100026291, 40.77949600010648], [-74.14832600005707, 40.779606000047885], [-74.14832600005707, 40.77970200003335], [-74.14834199995059, 40.77988500019534], [-74.14858499962483, 40.77990600013709], [-74.14889299959641, 40.77993999986673], [-74.14908199974231, 40.77991899993573], [-74.15003199959631, 40.780151000100474], [-74.15055100035337, 40.780292000086206], [-74.15083800040856, 40.780270000339705], [-74.15100099971686, 40.780293999939126], [-74.15125199978702, 40.78033000000223], [-74.15173999968367, 40.78042999999952], [-74.15279300036812, 40.78061200027486], [-74.15328000043984, 40.780783000262296], [-74.15335800025765, 40.780814999705875], [-74.15451499980087, 40.781285999829414], [-74.15497299956029, 40.78147100020642], [-74.15531099966908, 40.781627000068674], [-74.15560699994509, 40.78172700015397], [-74.15593500000814, 40.781882000192645], [-74.15646300008775, 40.7821039999516], [-74.15686499977066, 40.78228499982483], [-74.15714000013027, 40.782375999864186], [-74.15763800007265, 40.78249299973149], [-74.15801800001422, 40.78264100010563], [-74.15882700030123, 40.7829700001971], [-74.1591629998619, 40.78310899987215], [-74.16011699991384, 40.78350399983692], [-74.16047500011413, 40.783765000162276], [-74.16089699988852, 40.784002999721274], [-74.16128100002807, 40.784178999841146], [-74.16154100031908, 40.78429799966567], [-74.16213299997278, 40.78461699973799], [-74.16255499974717, 40.78483899987776], [-74.16306199991037, 40.785051999902606], [-74.16366500033304, 40.78527499980008], [-74.16431499971307, 40.785577999671816], [-74.16479900031005, 40.785945000282545], [-74.16494800027296, 40.78605300006683], [-74.16513599969562, 40.786189999735605], [-74.16551499981232, 40.786482999821374], [-74.16590599962457, 40.786680000011145], [-74.16613900015139, 40.786729999669404], [-74.16649999982641, 40.78674099983405], [-74.1669579995858, 40.786725999670914], [-74.16733599987758, 40.78674199966343], [-74.16771400016935, 40.7867569998229], [-74.1680620003239, 40.786800999772396], [-74.16844300009042, 40.78688399976786], [-74.16870300038141, 40.78690799969803], [-74.16873000014559, 40.78691099985874], [-74.16900700015503, 40.78688799975683], [-74.16937799987579, 40.78691499984603], [-74.16960100035686, 40.786949000068795], [-74.16982999978741, 40.78700899981921], [-74.16992299967382, 40.787032999704216], [-74.170109000345, 40.78708199995262], [-74.1703210000571, 40.78718900010565], [-74.17080399993084, 40.78761199991241], [-74.17118100039771, 40.788043000264516], [-74.17133899968313, 40.78812900017359], [-74.17154000042291, 40.78823900010054], [-74.17154899974543, 40.78824900020855], [-74.17156800001199, 40.78826700012708], [-74.17165800042368, 40.788235000193], [-74.171752000135, 40.78817299989419], [-74.17177600042446, 40.788154999950194], [-74.17178999976984, 40.78814600031642], [-74.17180300018865, 40.78814199972307], [-74.172257999575, 40.787788999803745], [-74.17242400015466, 40.787648000089895], [-74.17250199997247, 40.7875780000291], [-74.17261599977527, 40.78748299968287], [-74.17289299978472, 40.78732900029333], [-74.17359800031464, 40.787104999987335], [-74.17395099959373, 40.78697100032366], [-74.17397999990607, 40.78694599990979], [-74.17403199978459, 40.786902000056365], [-74.17404299965524, 40.786874000134446], [-74.17406699994469, 40.78677400031696], [-74.17411100032562, 40.78663900015448], [-74.17411999964814, 40.78660600028461], [-74.17420300038714, 40.786458999737604], [-74.17432700023568, 40.786334999846794], [-74.17435800019783, 40.786291000268655], [-74.17441099990128, 40.7862149997539], [-74.17451100035869, 40.78607499993836], [-74.17473800013941, 40.78562999985201], [-74.17475999988073, 40.78560699998662], [-74.17487100020881, 40.78550400007763], [-74.17499599988228, 40.785387999922854], [-74.17505399960861, 40.78533399985206], [-74.1752009999217, 40.7851589999255], [-74.17536900015119, 40.78499400013593], [-74.1754620000376, 40.78490199974548], [-74.17695400021489, 40.783441000003414], [-74.17683399966599, 40.7833959999886], [-74.17649800010531, 40.78319400016625], [-74.17685899978034, 40.782838000128734], [-74.17747899992146, 40.78222100029805], [-74.1775469996935, 40.782152999755525], [-74.17759600009731, 40.782104999850795], [-74.17757099998298, 40.782084999823546], [-74.17731499988993, 40.78189299979986], [-74.17767399991511, 40.781522000293265], [-74.17773300036468, 40.78146599998239], [-74.17745999965489, 40.78131400006666], [-74.17739000023299, 40.7812709997947], [-74.17726100036157, 40.78117400012295], [-74.176877000222, 40.78097300026112], [-74.1772220000035, 40.78031399982543], [-74.17739100005791, 40.7799950001728], [-74.17697500013129, 40.779867000045634], [-74.17655500000673, 40.7797400002869], [-74.17699199984975, 40.778904999838424], [-74.17755500008944, 40.777826000265435], [-74.1776560003718, 40.77762399982943], [-74.17775400028107, 40.77743399977473], [-74.17820500036778, 40.77756900028123], [-74.17839899963822, 40.777627999695845], [-74.17859700000494, 40.77768699973837], [-74.17879500037166, 40.77774699969324], [-74.17897899959637, 40.777395000272726], [-74.17917100011529, 40.777033999888275], [-74.17958700004189, 40.777159000111496], [-74.17971500008842, 40.77719199991354], [-74.17984499978475, 40.77722499969914], [-74.18005499984704, 40.777287999986434], [-74.18012099996929, 40.777308000097534], [-74.18004700034943, 40.7774089998524], [-74.1799949995726, 40.77748099968493], [-74.1799879998999, 40.77749000008362], [-74.18028199962777, 40.777672000251336], [-74.18061100041405, 40.777876999749665], [-74.18097299991399, 40.77750700022883], [-74.18123300020498, 40.77724199991213], [-74.18142900002356, 40.77686599970748], [-74.18156700011582, 40.77660100023512], [-74.18158300000935, 40.77657100008701], [-74.18159800007797, 40.77657200006949], [-74.1819599995779, 40.77667800016762], [-74.18203499992097, 40.77670099972381], [-74.1821489997238, 40.77673699969334], [-74.18245800041859, 40.77683099978643], [-74.18277499971268, 40.77622099985288], [-74.18279200032943, 40.776195000166155], [-74.18288400039094, 40.77622199984064], [-74.18309500027812, 40.77628399973177], [-74.18316300005019, 40.776298000225836], [-74.18321300027891, 40.776294000279336], [-74.18326000013457, 40.77627799981067], [-74.1832979997694, 40.776252000146286], [-74.18332899973154, 40.77620600003484], [-74.1834669998238, 40.77594399994636], [-74.18368299973388, 40.77552699996456], [-74.18401199962184, 40.77563099969605], [-74.18408600014001, 40.77564400033131], [-74.18434100040812, 40.77515400026888], [-74.18452700018098, 40.77480300004338], [-74.18464099998378, 40.77484099969793], [-74.1846839996415, 40.77485399980754], [-74.18521500009415, 40.775011000249656], [-74.18527600019351, 40.77495599989866], [-74.1853880003465, 40.77485099978244], [-74.18545500029364, 40.774787999905165], [-74.18565399958696, 40.77472199993728], [-74.1857199997092, 40.77469799968534], [-74.18617199962084, 40.774543999903095], [-74.18620199975804, 40.77458699976776], [-74.18621799965159, 40.77460900003585], [-74.18623199989528, 40.7746300002849], [-74.18625600018473, 40.77466500000501], [-74.18635699956874, 40.77462500022621], [-74.18670999974616, 40.77448499979037], [-74.18672099961682, 40.77446400017577], [-74.18673499986052, 40.774496999955886], [-74.18676300034792, 40.774528999706455], [-74.18680099998278, 40.77455500004519], [-74.18684799983842, 40.77457100024855], [-74.186867000105, 40.77452200029383], [-74.1870789998171, 40.7740040002142], [-74.18728300003161, 40.77350400001548], [-74.18771700039989, 40.77243500024485], [-74.18790399999763, 40.771986999780005], [-74.18833300034304, 40.77092399981824], [-74.18875000009456, 40.769883999733686], [-74.18924200018914, 40.76875200007228], [-74.18930800031137, 40.76855399967302], [-74.18945399990125, 40.768276999777086], [-74.18970099977346, 40.76856999996081], [-74.1897590003981, 40.76863399971296], [-74.19010900020245, 40.76796599968962], [-74.19044899996108, 40.76731200010149], [-74.19153699990733, 40.76522299984505], [-74.19248900030946, 40.76340199989797], [-74.19337300004122, 40.76171100011552], [-74.19364800040083, 40.761177999697004], [-74.19466299965381, 40.75923099989795], [-74.1950970000221, 40.75936199968048], [-74.19525699985567, 40.75904199988664], [-74.19629000044866, 40.757054999976546], [-74.19673499978926, 40.757184999690246], [-74.19705799982945, 40.75666399970853], [-74.19736099977816, 40.756171999962085], [-74.19758000006127, 40.75580200001949], [-74.19801500025446, 40.75491299988514], [-74.19811599963847, 40.754710000250135], [-74.19832400005095, 40.7542880001618], [-74.19849800012823, 40.75394000024749], [-74.19891800025279, 40.75406000011862], [-74.19932599978347, 40.754175999856294], [-74.200150999964, 40.75250700024189], [-74.20022100028419, 40.75243200021213], [-74.20028599968319, 40.752351999724226], [-74.20105800016029, 40.750761000311385], [-74.20150900024699, 40.750889999714026], [-74.2019390004173, 40.7510139997532], [-74.20205099967197, 40.750786999741614], [-74.20206599974058, 40.75075700018877], [-74.20217399969563, 40.75065300031837], [-74.20394799990522, 40.74880799994062], [-74.20446099991622, 40.74891999976095], [-74.20534299999814, 40.74918099983759], [-74.20623500012582, 40.7494470001628], [-74.2062279995548, 40.749461000186265], [-74.20666199992307, 40.74958399977961], [-74.20677200042624, 40.74936000014543], [-74.20680199966516, 40.74930199984371], [-74.20726600017066, 40.7492859996812], [-74.2073049996304, 40.749284000256054], [-74.21242499969452, 40.74909600026411], [-74.21261200019059, 40.749089000214326], [-74.21277700004704, 40.7490820001638], [-74.2134940002725, 40.749056000066915], [-74.21435299988991, 40.74902500001662], [-74.21445800037021, 40.749022000186635], [-74.21455499955627, 40.74901899967592], [-74.21555999966185, 40.74898900000598], [-74.21562300030936, 40.74898499977672], [-74.21576399987634, 40.74897799971525], [-74.21659999992754, 40.74894500019331], [-74.21668699996616, 40.74894199967916], [-74.21680300031711, 40.74893699972931], [-74.21772499968371, 40.74889799983539], [-74.21870499967491, 40.748858000199654], [-74.21877300034531, 40.748853000243535], [-74.2198150002608, 40.748814000300364], [-74.22014400014878, 40.748797000300506], [-74.22032099970077, 40.74840099979522], [-74.22063299987032, 40.74767500023018], [-74.22089800018418, 40.74705700010921], [-74.22092300029854, 40.7469829998044], [-74.2209550000856, 40.74692599989975], [-74.22169900007526, 40.745212999777664], [-74.22171599979369, 40.74508299979507], [-74.22231800039147, 40.74514899993316], [-74.22281799998365, 40.745212000003846], [-74.22321399981877, 40.74528300023888], [-74.22342399988105, 40.74532899997685], [-74.22382599956397, 40.745415999823315], [-74.22421700027452, 40.7455219999362], [-74.22430900033605, 40.7455470002849], [-74.22451799967509, 40.74560400001037], [-74.2250809999148, 40.74577099983211], [-74.22515299988481, 40.74579300011157], [-74.22518999969475, 40.7458029998031], [-74.22523400007569, 40.74581699991314], [-74.22588099998096, 40.746009000055636], [-74.22610199991391, 40.746061999660625], [-74.2263200003721, 40.74612000006594], [-74.22662499997064, 40.74618800005437], [-74.22690299980498, 40.74624100019723], [-74.22701499995797, 40.746263000321214], [-74.22718900003524, 40.74628999990654], [-74.22756700032703, 40.74634800011305], [-74.22778400006199, 40.74637000020159], [-74.22799499994919, 40.7463959999875], [-74.2281580001558, 40.746409000216936], [-74.22840699967783, 40.7464299998493], [-74.2286999995808, 40.746443000072084], [-74.22892200023696, 40.74644999971982], [-74.22753100034201, 40.748929999662785], [-74.22729000031758, 40.74939699966609], [-74.2264190001063, 40.751086000284516], [-74.22639300016704, 40.75113099972632], [-74.22637399990046, 40.75116200015582], [-74.2264750001828, 40.75115899974171], [-74.22718200036255, 40.75118300032881], [-74.22734499967083, 40.751192999890335], [-74.2283060002938, 40.75124800017409], [-74.22925399959968, 40.75130499977673], [-74.23025799988032, 40.75135999996779], [-74.23124600026746, 40.75141700015495], [-74.23212499997634, 40.75146800017353], [-74.23262999959141, 40.75149699972631], [-74.23317000026489, 40.75152799998517], [-74.23337299975617, 40.75139699973671], [-74.23344499972619, 40.751351999794345], [-74.23467099976472, 40.75055600018145], [-74.23518799997365, 40.75021899987568], [-74.23528699970787, 40.75014399998722], [-74.23546499998308, 40.74960800025466], [-74.23549599994523, 40.74954199977803], [-74.23552500025755, 40.74948099982578], [-74.23574100016762, 40.74886599999265], [-74.235902999651, 40.748890000046295], [-74.23702999995531, 40.74554599983557], [-74.23686099990093, 40.7455470002849], [-74.2368879996651, 40.74545999992923], [-74.23790000034168, 40.74498799993504], [-74.23845600001039, 40.74472200014951], [-74.23891399976976, 40.743496999692326], [-74.23894800010495, 40.74340799977559], [-74.23902300044804, 40.74320600021085], [-74.23909600024297, 40.743011000042294], [-74.23911700015938, 40.74295400013636], [-74.23879499994409, 40.74284199979678], [-74.23891999961756, 40.74249200024248], [-74.23896900002136, 40.742427000005776], [-74.24036499993919, 40.740938999718225], [-74.24042600003857, 40.74084499990411], [-74.24060799961343, 40.74056000013368], [-74.24364200019674, 40.74164000022492], [-74.2439140001833, 40.74173800026154], [-74.24416400042855, 40.74145800006549], [-74.2443850003615, 40.7412289997558], [-74.24486900006016, 40.74068100017106], [-74.24505200035827, 40.74052799968199], [-74.24590099992992, 40.74094800030171], [-74.24608699970277, 40.740823999869555], [-74.24639200019959, 40.74062000025845], [-74.24764400017739, 40.73978499966969], [-74.24794100027832, 40.73996700032291], [-74.24805599990603, 40.73988699981286], [-74.24836800007557, 40.7396509998577], [-74.24975200029783, 40.73867200023387], [-74.25136099975268, 40.737533999924935]]]}}]}