{"type": "FeatureCollection", "features": [{"type": "Feature", "geometry": {"type": "Point", "coordinates": [-75.10062, 39.93773]}, "properties": {"id": "CAM-0680025", "name": "Martha F. Wilson Early Childhood Development Center", "city": "camden", "county": "Camden", "role": "district", "school_num": "025", "district_code": "0680", "district_name": null, "gradespan": "PK-PK", "status": "open", "enrollment_2526": 378.0, "tested_3_8": null, "enrollment_k8": 65.0}}, {"type": "Feature", "geometry": {"type": "Point", "coordinates": [-75.09535, 39.92397]}, "properties": {"id": "CAM-0680029", "name": "Dr. Charles E. Brimm Medical Arts High School", "city": "camden", "county": "Camden", "role": "district", "school_num": "029", "district_code": "0680", "district_name": null, "gradespan": "09-12", "status": "open", "enrollment_2526": 174.0, "tested_3_8": null, "enrollment_k8": null}}, {"type": "Feature", "geometry": {"type": "Point", "coordinates": [-75.09515, 39.93111]}, "properties": {"id": "CAM-0680030", "name": "Camden High School", "city": "camden", "county": "Camden", "role": "district", "school_num": "030", "district_code": "0680", "district_name": null, "gradespan": "09-12", "status": "open", "enrollment_2526": 390.0, "tested_3_8": null, "enrollment_k8": null}}, {"type": "Feature", "geometry": {"type": "Point", "coordinates": [-75.07796, 39.94674]}, "properties": {"id": "CAM-0680040", "name": "Eastside High School", "city": "camden", "county": "Camden", "role": "district", "school_num": "040", "district_code": "0680", "district_name": null, "gradespan": "09-12", "status": "open", "enrollment_2526": 442.0, "tested_3_8": null, "enrollment_k8": null}}, {"type": "Feature", "geometry": {"type": "Point", "coordinates": [-75.08084, 39.94879]}, "properties": {"id": "CAM-0680145", "name": "Octavius V. Catto Community Family School", "city": "camden", "county": "Camden", "role": "district", "school_num": "145", "district_code": "0680", "district_name": "Camden City School District", "gradespan": "PK-08", "status": "open", "enrollment_2526": 511.0, "tested_3_8": 342.0, "enrollment_k8": 452.0}}, {"type": "Feature", "geometry": {"type": "Point", "coordinates": [-75.122, 39.954]}, "properties": {"id": "CAM-0680165", "name": "Cooper'S Poynt Family School", "city": "camden", "county": "Camden", "role": "district", "school_num": "165", "district_code": "0680", "district_name": "Camden City School District", "gradespan": "PK-08", "status": "open", "enrollment_2526": 391.0, "tested_3_8": 194.0, "enrollment_k8": 349.0}}, {"type": "Feature", "geometry": {"type": "Point", "coordinates": [-75.10743, 39.92033]}, "properties": {"id": "CAM-0680175", "name": "Riletta Twyne Cream Early Childhood Center", "city": "camden", "county": "Camden", "role": "district", "school_num": "175", "district_code": "0680", "district_name": "Camden City School District", "gradespan": "PK-03", "status": "open", "enrollment_2526": 343.0, "tested_3_8": 29.0, "enrollment_k8": 198.0}}, {"type": "Feature", "geometry": {"type": "Point", "coordinates": [-75.07664, 39.9527]}, "properties": {"id": "CAM-0680180", "name": "Dr. Henry H. Davis Elementary School", "city": "camden", "county": "Camden", "role": "district", "school_num": "180", "district_code": "0680", "district_name": "Camden City School District", "gradespan": "PK-08", "status": "open", "enrollment_2526": 478.0, "tested_3_8": 271.0, "enrollment_k8": 432.0}}, {"type": "Feature", "geometry": {"type": "Point", "coordinates": [-75.09299, 39.94474]}, "properties": {"id": "CAM-0680190", "name": "Thomas H. Dudley Family School", "city": "camden", "county": "Camden", "role": "district", "school_num": "190", "district_code": "0680", "district_name": "Camden City School District", "gradespan": "PK-08", "status": "open", "enrollment_2526": 535.0, "tested_3_8": 264.0, "enrollment_k8": 482.0}}, {"type": "Feature", "geometry": {"type": "Point", "coordinates": [-75.09901, 39.93661]}, "properties": {"id": "CAM-0680205", "name": "Forest Hill School", "city": "camden", "county": "Camden", "role": "district", "school_num": "205", "district_code": "0680", "district_name": "Camden City School District", "gradespan": "KG-05", "status": "open", "enrollment_2526": 366.0, "tested_3_8": 141.0, "enrollment_k8": 366.0}}, {"type": "Feature", "geometry": {"type": "Point", "coordinates": [-75.10977, 39.91287]}, "properties": {"id": "CAM-0680245", "name": "Creative Arts High School", "city": "camden", "county": "Camden", "role": "district", "school_num": "245", "district_code": "0680", "district_name": null, "gradespan": "09-12", "status": "open", "enrollment_2526": 229.0, "tested_3_8": null, "enrollment_k8": null}}, {"type": "Feature", "geometry": {"type": "Point", "coordinates": [-75.09755, 39.93374]}, "properties": {"id": "CAM-0680305", "name": "Camden Big Picture Learning Academy", "city": "camden", "county": "Camden", "role": "district", "school_num": "305", "district_code": "0680", "district_name": null, "gradespan": "09-12", "status": "open", "enrollment_2526": 148.0, "tested_3_8": null, "enrollment_k8": null}}, {"type": "Feature", "geometry": {"type": "Point", "coordinates": [-75.11184, 39.91643]}, "properties": {"id": "CAM-0680350", "name": "Henry B. Wilson Family School", "city": "camden", "county": "Camden", "role": "district", "school_num": "350", "district_code": "0680", "district_name": "Camden City School District", "gradespan": "KG-08", "status": "open", "enrollment_2526": 386.0, "tested_3_8": 272.0, "enrollment_k8": 386.0}}, {"type": "Feature", "geometry": {"type": "Point", "coordinates": [-75.10501, 39.90447]}, "properties": {"id": "CAM-0680360", "name": "Yorkship Elementary School", "city": "camden", "county": "Camden", "role": "district", "school_num": "360", "district_code": "0680", "district_name": "Camden City School District", "gradespan": "PK-05", "status": "open", "enrollment_2526": 349.0, "tested_3_8": 99.0, "enrollment_k8": 294.0}}, {"type": "Feature", "geometry": {"type": "Point", "coordinates": [-74.19463, 40.75107]}, "properties": {"id": "NWK-1390050", "name": "Essex County Donald M. Payne, Sr. School Of Technology", "city": "newark", "county": "Essex", "role": "district", "school_num": "050", "district_code": "1390", "district_name": null, "gradespan": "09-12", "status": "open", "enrollment_2526": 1285.0, "tested_3_8": null, "enrollment_k8": null}}, {"type": "Feature", "geometry": {"type": "Point", "coordinates": [-74.18192, 40.74003]}, "properties": {"id": "NWK-1390070", "name": "Essex County Newark Tech", "city": "newark", "county": "Essex", "role": "district", "school_num": "070", "district_code": "1390", "district_name": null, "gradespan": "09-12", "status": "open", "enrollment_2526": 683.0, "tested_3_8": null, "enrollment_k8": null}}, {"type": "Feature", "geometry": {"type": "Point", "coordinates": [-75.11975, 39.93888]}, "properties": {"id": "CAM-1799111", "name": "Kipp: Cooper Norcross, A New Jersey Nonprofit Corporation", "city": "camden", "county": "Camden", "role": "district", "school_num": "111", "district_code": "1799", "district_name": "Kipp: Cooper Norcross, A New Jersey Nonprofit Corporation", "gradespan": "KG-12", "status": "open", "enrollment_2526": 2175.0, "tested_3_8": 1131.0, "enrollment_k8": 1644.0}}, {"type": "Feature", "geometry": {"type": "Point", "coordinates": [-75.106, 39.9254]}, "properties": {"id": "CAM-1801113", "name": "Camden Prep, Inc.", "city": "camden", "county": "Camden", "role": "district", "school_num": "113", "district_code": "1801", "district_name": "Camden Prep, Inc.", "gradespan": "KG-12", "status": "open", "enrollment_2526": 1521.0, "tested_3_8": 788.0, "enrollment_k8": 1126.0}}, {"type": "Feature", "geometry": {"type": "Point", "coordinates": [-75.11373, 39.95465]}, "properties": {"id": "CAM-1802112", "name": "Mastery Schools Of Camden, Inc.", "city": "camden", "county": "Camden", "role": "district", "school_num": "112", "district_code": "1802", "district_name": "Mastery Schools Of Camden, Inc.", "gradespan": "KG-12", "status": "open", "enrollment_2526": 2935.0, "tested_3_8": 1369.0, "enrollment_k8": 2113.0}}, {"type": "Feature", "geometry": {"type": "Point", "coordinates": [-74.21934, 40.7122]}, "properties": {"id": "NWK-3570004", "name": "Nj Regional Day School - Newark", "city": "newark", "county": "Essex", "role": "district", "school_num": "004", "district_code": "3570", "district_name": null, "gradespan": "KG-12", "status": "open", "enrollment_2526": 119.0, "tested_3_8": null, "enrollment_k8": 21.0}}, {"type": "Feature", "geometry": {"type": "Point", "coordinates": [-74.1802, 40.73421]}, "properties": {"id": "NWK-3570010", "name": "Arts High School", "city": "newark", "county": "Essex", "role": "district", "school_num": "010", "district_code": "3570", "district_name": null, "gradespan": "09-12", "status": "open", "enrollment_2526": 629.0, "tested_3_8": null, "enrollment_k8": null}}, {"type": "Feature", "geometry": {"type": "Point", "coordinates": [-74.17948, 40.75638]}, "properties": {"id": "NWK-3570020", "name": "Barringer High School", "city": "newark", "county": "Essex", "role": "district", "school_num": "020", "district_code": "3570", "district_name": null, "gradespan": "09-12", "status": "open", "enrollment_2526": 1602.0, "tested_3_8": null, "enrollment_k8": null}}, {"type": "Feature", "geometry": {"type": "Point", "coordinates": [-74.19284, 40.72993]}, "properties": {"id": "NWK-3570030", "name": "Central High School", "city": "newark", "county": "Essex", "role": "district", "school_num": "030", "district_code": "3570", "district_name": null, "gradespan": "09-12", "status": "open", "enrollment_2526": 1058.0, "tested_3_8": null, "enrollment_k8": null}}, {"type": "Feature", "geometry": {"type": "Point", "coordinates": [-74.1593, 40.72404]}, "properties": {"id": "NWK-3570040", "name": "East Side High School", "city": "newark", "county": "Essex", "role": "district", "school_num": "040", "district_code": "3570", "district_name": null, "gradespan": "09-12", "status": "open", "enrollment_2526": 1954.0, "tested_3_8": null, "enrollment_k8": null}}, {"type": "Feature", "geometry": {"type": "Point", "coordinates": [-74.19101, 40.7328]}, "properties": {"id": "NWK-3570045", "name": "Newark Vocational High School", "city": "newark", "county": "Essex", "role": "district", "school_num": "045", "district_code": "3570", "district_name": null, "gradespan": "09-12", "status": "open", "enrollment_2526": 625.0, "tested_3_8": null, "enrollment_k8": null}}, {"type": "Feature", "geometry": {"type": "Point", "coordinates": [-74.19161, 40.71883]}, "properties": {"id": "NWK-3570050", "name": "Malcolm X Shabazz High School", "city": "newark", "county": "Essex", "role": "district", "school_num": "050", "district_code": "3570", "district_name": null, "gradespan": "09-12", "status": "open", "enrollment_2526": 609.0, "tested_3_8": null, "enrollment_k8": null}}, {"type": "Feature", "geometry": {"type": "Point", "coordinates": [-74.18565, 40.73977]}, "properties": {"id": "NWK-3570055", "name": "Science Park High School", "city": "newark", "county": "Essex", "role": "district", "school_num": "055", "district_code": "3570", "district_name": "Newark Public School District", "gradespan": "07-12", "status": "open", "enrollment_2526": 929.0, "tested_3_8": 102.0, "enrollment_k8": 101.0}}, {"type": "Feature", "geometry": {"type": "Point", "coordinates": [-74.16925, 40.7581]}, "properties": {"id": "NWK-3570056", "name": "Technology High School", "city": "newark", "county": "Essex", "role": "district", "school_num": "056", "district_code": "3570", "district_name": null, "gradespan": "09-12", "status": "open", "enrollment_2526": 648.0, "tested_3_8": null, "enrollment_k8": null}}, {"type": "Feature", "geometry": {"type": "Point", "coordinates": [-74.21074, 40.72129]}, "properties": {"id": "NWK-3570057", "name": "University High School", "city": "newark", "county": "Essex", "role": "district", "school_num": "057", "district_code": "3570", "district_name": null, "gradespan": "08-12", "status": "open", "enrollment_2526": 416.0, "tested_3_8": null, "enrollment_k8": null}}, {"type": "Feature", "geometry": {"type": "Point", "coordinates": [-74.22029, 40.7092]}, "properties": {"id": "NWK-3570070", "name": "Weequahic High School", "city": "newark", "county": "Essex", "role": "district", "school_num": "070", "district_code": "3570", "district_name": null, "gradespan": "09-12", "status": "open", "enrollment_2526": 543.0, "tested_3_8": null, "enrollment_k8": null}}, {"type": "Feature", "geometry": {"type": "Point", "coordinates": [-74.20369, 40.7419]}, "properties": {"id": "NWK-3570080", "name": "West Side High School", "city": "newark", "county": "Essex", "role": "district", "school_num": "080", "district_code": "3570", "district_name": null, "gradespan": "09-12", "status": "open", "enrollment_2526": 547.0, "tested_3_8": null, "enrollment_k8": null}}, {"type": "Feature", "geometry": {"type": "Point", "coordinates": [-74.18608, 40.73035]}, "properties": {"id": "NWK-3570087", "name": "American History High School", "city": "newark", "county": "Essex", "role": "district", "school_num": "087", "district_code": "3570", "district_name": null, "gradespan": "09-12", "status": "open", "enrollment_2526": 406.0, "tested_3_8": null, "enrollment_k8": null}}, {"type": "Feature", "geometry": {"type": "Point", "coordinates": [-74.18152, 40.77026]}, "properties": {"id": "NWK-3570170", "name": "Abington Avenue School", "city": "newark", "county": "Essex", "role": "district", "school_num": "170", "district_code": "3570", "district_name": "Newark Public School District", "gradespan": "PK-08", "status": "open", "enrollment_2526": 810.0, "tested_3_8": 568.0, "enrollment_k8": 791.0}}, {"type": "Feature", "geometry": {"type": "Point", "coordinates": [-74.1558, 40.72334]}, "properties": {"id": "NWK-3570200", "name": "Ann Street School", "city": "newark", "county": "Essex", "role": "district", "school_num": "200", "district_code": "3570", "district_name": "Newark Public School District", "gradespan": "KG-08", "status": "open", "enrollment_2526": 1221.0, "tested_3_8": 779.0, "enrollment_k8": 1220.0}}, {"type": "Feature", "geometry": {"type": "Point", "coordinates": [-74.20062, 40.7258]}, "properties": {"id": "NWK-3570220", "name": "Avon Avenue School", "city": "newark", "county": "Essex", "role": "district", "school_num": "220", "district_code": "3570", "district_name": "Newark Public School District", "gradespan": "PK-08", "status": "open", "enrollment_2526": 454.0, "tested_3_8": 239.0, "enrollment_k8": 361.0}}, {"type": "Feature", "geometry": {"type": "Point", "coordinates": [-74.19895, 40.71728]}, "properties": {"id": "NWK-3570225", "name": "Belmont Runyon Elementary School", "city": "newark", "county": "Essex", "role": "district", "school_num": "225", "district_code": "3570", "district_name": "Newark Public School District", "gradespan": "PK-08", "status": "open", "enrollment_2526": 501.0, "tested_3_8": 265.0, "enrollment_k8": 401.0}}, {"type": "Feature", "geometry": {"type": "Point", "coordinates": [-74.176, 40.76103]}, "properties": {"id": "NWK-3570270", "name": "Branch Brook School", "city": "newark", "county": "Essex", "role": "district", "school_num": "270", "district_code": "3570", "district_name": null, "gradespan": null, "status": "open", "enrollment_2526": 55.0, "tested_3_8": null, "enrollment_k8": 40.0}}, {"type": "Feature", "geometry": {"type": "Point", "coordinates": [-74.2156, 40.71234]}, "properties": {"id": "NWK-3570290", "name": "Bruce Street School", "city": "newark", "county": "Essex", "role": "district", "school_num": "290", "district_code": "3570", "district_name": null, "gradespan": "PK-08", "status": "open", "enrollment_2526": 28.0, "tested_3_8": null, "enrollment_k8": 26.0}}, {"type": "Feature", "geometry": {"type": "Point", "coordinates": [-74.16062, 40.77284]}, "properties": {"id": "NWK-3570301", "name": "Luis Mu\u00f1oz Marin Elementary School", "city": "newark", "county": "Essex", "role": "district", "school_num": "301", "district_code": "3570", "district_name": "Newark Public School District", "gradespan": "PK-08", "status": "open", "enrollment_2526": 812.0, "tested_3_8": 410.0, "enrollment_k8": 675.0}}, {"type": "Feature", "geometry": {"type": "Point", "coordinates": [-74.16767, 40.72565]}, "properties": {"id": "NWK-3570303", "name": "East Ward Elementary School", "city": "newark", "county": "Essex", "role": "district", "school_num": "303", "district_code": "3570", "district_name": "Newark Public School District", "gradespan": "PK-06", "status": "open", "enrollment_2526": 885.0, "tested_3_8": 464.0, "enrollment_k8": 767.0}}, {"type": "Feature", "geometry": {"type": "Point", "coordinates": [-74.19512, 40.73473]}, "properties": {"id": "NWK-3570304", "name": "Bard Early College High School", "city": "newark", "county": "Essex", "role": "district", "school_num": "304", "district_code": "3570", "district_name": null, "gradespan": "09-12", "status": "open", "enrollment_2526": 411.0, "tested_3_8": null, "enrollment_k8": null}}, {"type": "Feature", "geometry": {"type": "Point", "coordinates": [-74.22029, 40.7092]}, "properties": {"id": "NWK-3570307", "name": "Eagle Academy For Young Men Of Newark", "city": "newark", "county": "Essex", "role": "district", "school_num": "307", "district_code": "3570", "district_name": null, "gradespan": "09-12", "status": "open", "enrollment_2526": 129.0, "tested_3_8": null, "enrollment_k8": null}}, {"type": "Feature", "geometry": {"type": "Point", "coordinates": [-74.19589, 40.73599]}, "properties": {"id": "NWK-3570310", "name": "Camden Street Elementary School", "city": "newark", "county": "Essex", "role": "district", "school_num": "310", "district_code": "3570", "district_name": "Newark Public School District", "gradespan": "PK-08", "status": "open", "enrollment_2526": 724.0, "tested_3_8": 345.0, "enrollment_k8": 615.0}}, {"type": "Feature", "geometry": {"type": "Point", "coordinates": [-74.18958, 40.73772]}, "properties": {"id": "NWK-3570315", "name": "Sir Isaac Newton Elementary School", "city": "newark", "county": "Essex", "role": "district", "school_num": "315", "district_code": "3570", "district_name": "Newark Public School District", "gradespan": "PK-04", "status": "open", "enrollment_2526": 257.0, "tested_3_8": 66.0, "enrollment_k8": 192.0}}, {"type": "Feature", "geometry": {"type": "Point", "coordinates": [-74.18657, 40.76898]}, "properties": {"id": "NWK-3570317", "name": "Salome Ure\u00f1a Elementary School", "city": "newark", "county": "Essex", "role": "district", "school_num": "317", "district_code": "3570", "district_name": "Newark Public School District", "gradespan": "PK-08", "status": "open", "enrollment_2526": 501.0, "tested_3_8": 283.0, "enrollment_k8": 459.0}}, {"type": "Feature", "geometry": {"type": "Point", "coordinates": [-74.17217, 40.7519]}, "properties": {"id": "NWK-3570318", "name": "Newark School Of Global Studies", "city": "newark", "county": "Essex", "role": "district", "school_num": "318", "district_code": "3570", "district_name": null, "gradespan": "09-12", "status": "open", "enrollment_2526": 392.0, "tested_3_8": null, "enrollment_k8": null}}, {"type": "Feature", "geometry": {"type": "Point", "coordinates": [-74.22122, 40.70959]}, "properties": {"id": "NWK-3570330", "name": "Chancellor Avenue School", "city": "newark", "county": "Essex", "role": "district", "school_num": "330", "district_code": "3570", "district_name": "Newark Public School District", "gradespan": "PK-08", "status": "open", "enrollment_2526": 617.0, "tested_3_8": 292.0, "enrollment_k8": 467.0}}, {"type": "Feature", "geometry": {"type": "Point", "coordinates": [-74.19576, 40.73137]}, "properties": {"id": "NWK-3570350", "name": "Grover Cleveland Elementary School", "city": "newark", "county": "Essex", "role": "district", "school_num": "350", "district_code": "3570", "district_name": "Newark Public School District", "gradespan": "PK-08", "status": "open", "enrollment_2526": 344.0, "tested_3_8": 193.0, "enrollment_k8": 279.0}}, {"type": "Feature", "geometry": {"type": "Point", "coordinates": [-74.20306, 40.71197]}, "properties": {"id": "NWK-3570370", "name": "Peshine Avenue School", "city": "newark", "county": "Essex", "role": "district", "school_num": "370", "district_code": "3570", "district_name": "Newark Public School District", "gradespan": "PK-08", "status": "open", "enrollment_2526": 602.0, "tested_3_8": 305.0, "enrollment_k8": 495.0}}, {"type": "Feature", "geometry": {"type": "Point", "coordinates": [-74.16263, 40.77608]}, "properties": {"id": "NWK-3570390", "name": "Elliott Street Elementary School", "city": "newark", "county": "Essex", "role": "district", "school_num": "390", "district_code": "3570", "district_name": "Newark Public School District", "gradespan": "PK-08", "status": "open", "enrollment_2526": 846.0, "tested_3_8": 502.0, "enrollment_k8": 731.0}}, {"type": "Feature", "geometry": {"type": "Point", "coordinates": [-74.18291, 40.76785]}, "properties": {"id": "NWK-3570410", "name": "First Avenue School", "city": "newark", "county": "Essex", "role": "district", "school_num": "410", "district_code": "3570", "district_name": "Newark Public School District", "gradespan": "PK-08", "status": "open", "enrollment_2526": 1088.0, "tested_3_8": 670.0, "enrollment_k8": 1043.0}}, {"type": "Feature", "geometry": {"type": "Point", "coordinates": [-74.18738, 40.75306]}, "properties": {"id": "NWK-3570415", "name": "Dr. E. Alma Flagg School", "city": "newark", "county": "Essex", "role": "district", "school_num": "415", "district_code": "3570", "district_name": "Newark Public School District", "gradespan": "PK-08", "status": "open", "enrollment_2526": 560.0, "tested_3_8": 351.0, "enrollment_k8": 513.0}}, {"type": "Feature", "geometry": {"type": "Point", "coordinates": [-74.1998, 40.73864]}, "properties": {"id": "NWK-3570420", "name": "Fourteenth Avenue School", "city": "newark", "county": "Essex", "role": "district", "school_num": "420", "district_code": "3570", "district_name": null, "gradespan": "PK-08", "status": "open", "enrollment_2526": 93.0, "tested_3_8": null, "enrollment_k8": 88.0}}, {"type": "Feature", "geometry": {"type": "Point", "coordinates": [-74.17504, 40.75537]}, "properties": {"id": "NWK-3570430", "name": "Franklin Elementary School", "city": "newark", "county": "Essex", "role": "district", "school_num": "430", "district_code": "3570", "district_name": "Newark Public School District", "gradespan": "PK-08", "status": "open", "enrollment_2526": 687.0, "tested_3_8": 473.0, "enrollment_k8": 641.0}}, {"type": "Feature", "geometry": {"type": "Point", "coordinates": [-74.2156, 40.71234]}, "properties": {"id": "NWK-3570435", "name": "George Washington Carver Elementary School", "city": "newark", "county": "Essex", "role": "district", "school_num": "435", "district_code": "3570", "district_name": "Newark Public School District", "gradespan": "PK-08", "status": "open", "enrollment_2526": 743.0, "tested_3_8": 419.0, "enrollment_k8": 639.0}}, {"type": "Feature", "geometry": {"type": "Point", "coordinates": [-74.18715, 40.76006]}, "properties": {"id": "NWK-3570440", "name": "Dr. William H. Horton Elementary School", "city": "newark", "county": "Essex", "role": "district", "school_num": "440", "district_code": "3570", "district_name": "Newark Public School District", "gradespan": "PK-08", "status": "open", "enrollment_2526": 698.0, "tested_3_8": 428.0, "enrollment_k8": 649.0}}, {"type": "Feature", "geometry": {"type": "Point", "coordinates": [-74.20237, 40.73481]}, "properties": {"id": "NWK-3570455", "name": "Harriet Tubman Elementary School", "city": "newark", "county": "Essex", "role": "district", "school_num": "455", "district_code": "3570", "district_name": "Newark Public School District", "gradespan": "PK-08", "status": "open", "enrollment_2526": 292.0, "tested_3_8": 186.0, "enrollment_k8": 259.0}}, {"type": "Feature", "geometry": {"type": "Point", "coordinates": [-74.14019, 40.73085]}, "properties": {"id": "NWK-3570460", "name": "Hawkins Street School", "city": "newark", "county": "Essex", "role": "district", "school_num": "460", "district_code": "3570", "district_name": "Newark Public School District", "gradespan": "KG-08", "status": "open", "enrollment_2526": 607.0, "tested_3_8": 442.0, "enrollment_k8": 603.0}}, {"type": "Feature", "geometry": {"type": "Point", "coordinates": [-74.2121, 40.71852]}, "properties": {"id": "NWK-3570470", "name": "Hawthorne Avenue School", "city": "newark", "county": "Essex", "role": "district", "school_num": "470", "district_code": "3570", "district_name": "Newark Public School District", "gradespan": "PK-08", "status": "open", "enrollment_2526": 438.0, "tested_3_8": 272.0, "enrollment_k8": 403.0}}, {"type": "Feature", "geometry": {"type": "Point", "coordinates": [-74.20008, 40.74219]}, "properties": {"id": "NWK-3570477", "name": "John F. Kennedy School", "city": "newark", "county": "Essex", "role": "district", "school_num": "477", "district_code": "3570", "district_name": null, "gradespan": "PK-12", "status": "open", "enrollment_2526": 139.0, "tested_3_8": null, "enrollment_k8": null}}, {"type": "Feature", "geometry": {"type": "Point", "coordinates": [-74.16333, 40.72966]}, "properties": {"id": "NWK-3570480", "name": "Lafayette Street School", "city": "newark", "county": "Essex", "role": "district", "school_num": "480", "district_code": "3570", "district_name": "Newark Public School District", "gradespan": "PK-08", "status": "open", "enrollment_2526": 1150.0, "tested_3_8": 710.0, "enrollment_k8": 1003.0}}, {"type": "Feature", "geometry": {"type": "Point", "coordinates": [-74.2352, 40.74246]}, "properties": {"id": "NWK-3570490", "name": "Lincoln Elementary School", "city": "newark", "county": "Essex", "role": "district", "school_num": "490", "district_code": "3570", "district_name": "Newark Public School District", "gradespan": "PK-08", "status": "open", "enrollment_2526": 422.0, "tested_3_8": 279.0, "enrollment_k8": 391.0}}, {"type": "Feature", "geometry": {"type": "Point", "coordinates": [-74.18755, 40.7257]}, "properties": {"id": "NWK-3570495", "name": "Louise A. Spencer Elementary School", "city": "newark", "county": "Essex", "role": "district", "school_num": "495", "district_code": "3570", "district_name": "Newark Public School District", "gradespan": "PK-08", "status": "open", "enrollment_2526": 758.0, "tested_3_8": 404.0, "enrollment_k8": 664.0}}, {"type": "Feature", "geometry": {"type": "Point", "coordinates": [-74.17756, 40.7504]}, "properties": {"id": "NWK-3570520", "name": "Mckinley Elementary School", "city": "newark", "county": "Essex", "role": "district", "school_num": "520", "district_code": "3570", "district_name": "Newark Public School District", "gradespan": "PK-08", "status": "open", "enrollment_2526": 893.0, "tested_3_8": 432.0, "enrollment_k8": 772.0}}, {"type": "Feature", "geometry": {"type": "Point", "coordinates": [-74.23814, 40.73745]}, "properties": {"id": "NWK-3570565", "name": "Ivy Hill Elementary School", "city": "newark", "county": "Essex", "role": "district", "school_num": "565", "district_code": "3570", "district_name": "Newark Public School District", "gradespan": "PK-08", "status": "open", "enrollment_2526": 447.0, "tested_3_8": 242.0, "enrollment_k8": 407.0}}, {"type": "Feature", "geometry": {"type": "Point", "coordinates": [-74.24484, 40.73743]}, "properties": {"id": "NWK-3570570", "name": "Mt Vernon Place School", "city": "newark", "county": "Essex", "role": "district", "school_num": "570", "district_code": "3570", "district_name": "Newark Public School District", "gradespan": "PK-08", "status": "open", "enrollment_2526": 904.0, "tested_3_8": 537.0, "enrollment_k8": 825.0}}, {"type": "Feature", "geometry": {"type": "Point", "coordinates": [-74.1671, 40.76235]}, "properties": {"id": "NWK-3570575", "name": "Rafael Hernandez School", "city": "newark", "county": "Essex", "role": "district", "school_num": "575", "district_code": "3570", "district_name": "Newark Public School District", "gradespan": "PK-08", "status": "open", "enrollment_2526": 637.0, "tested_3_8": 323.0, "enrollment_k8": 533.0}}, {"type": "Feature", "geometry": {"type": "Point", "coordinates": [-74.17028, 40.78363]}, "properties": {"id": "NWK-3570581", "name": "Park Elementary School", "city": "newark", "county": "Essex", "role": "district", "school_num": "581", "district_code": "3570", "district_name": "Newark Public School District", "gradespan": "PK-08", "status": "open", "enrollment_2526": 717.0, "tested_3_8": 435.0, "enrollment_k8": 665.0}}, {"type": "Feature", "geometry": {"type": "Point", "coordinates": [-74.16988, 40.72609]}, "properties": {"id": "NWK-3570590", "name": "Oliver Street School", "city": "newark", "county": "Essex", "role": "district", "school_num": "590", "district_code": "3570", "district_name": "Newark Public School District", "gradespan": "PK-08", "status": "open", "enrollment_2526": 1020.0, "tested_3_8": 629.0, "enrollment_k8": 925.0}}, {"type": "Feature", "geometry": {"type": "Point", "coordinates": [-74.1837, 40.73015]}, "properties": {"id": "NWK-3570605", "name": "Quitman Street School", "city": "newark", "county": "Essex", "role": "district", "school_num": "605", "district_code": "3570", "district_name": "Newark Public School District", "gradespan": "PK-08", "status": "open", "enrollment_2526": 732.0, "tested_3_8": 342.0, "enrollment_k8": 607.0}}, {"type": "Feature", "geometry": {"type": "Point", "coordinates": [-74.16594, 40.77898]}, "properties": {"id": "NWK-3570610", "name": "Ridge Street School", "city": "newark", "county": "Essex", "role": "district", "school_num": "610", "district_code": "3570", "district_name": "Newark Public School District", "gradespan": "PK-08", "status": "open", "enrollment_2526": 549.0, "tested_3_8": 371.0, "enrollment_k8": 503.0}}, {"type": "Feature", "geometry": {"type": "Point", "coordinates": [-74.1706, 40.7607]}, "properties": {"id": "NWK-3570615", "name": "Roberto Clemente Elementary School", "city": "newark", "county": "Essex", "role": "district", "school_num": "615", "district_code": "3570", "district_name": "Newark Public School District", "gradespan": "PK-08", "status": "open", "enrollment_2526": 722.0, "tested_3_8": 479.0, "enrollment_k8": 684.0}}, {"type": "Feature", "geometry": {"type": "Point", "coordinates": [-74.17107, 40.72389]}, "properties": {"id": "NWK-3570640", "name": "South Street Elementary School", "city": "newark", "county": "Essex", "role": "district", "school_num": "640", "district_code": "3570", "district_name": "Newark Public School District", "gradespan": "PK-08", "status": "open", "enrollment_2526": 801.0, "tested_3_8": 473.0, "enrollment_k8": 690.0}}, {"type": "Feature", "geometry": {"type": "Point", "coordinates": [-74.21003, 40.73444]}, "properties": {"id": "NWK-3570670", "name": "South 17th Street School", "city": "newark", "county": "Essex", "role": "district", "school_num": "670", "district_code": "3570", "district_name": "Newark Public School District", "gradespan": "PK-08", "status": "open", "enrollment_2526": 400.0, "tested_3_8": 198.0, "enrollment_k8": 343.0}}, {"type": "Feature", "geometry": {"type": "Point", "coordinates": [-74.21619, 40.74531]}, "properties": {"id": "NWK-3570690", "name": "Speedway Avenue School", "city": "newark", "county": "Essex", "role": "district", "school_num": "690", "district_code": "3570", "district_name": "Newark Public School District", "gradespan": "PK-08", "status": "open", "enrollment_2526": 523.0, "tested_3_8": 305.0, "enrollment_k8": 459.0}}, {"type": "Feature", "geometry": {"type": "Point", "coordinates": [-74.18915, 40.75025]}, "properties": {"id": "NWK-3570710", "name": "Sussex Avenue School", "city": "newark", "county": "Essex", "role": "district", "school_num": "710", "district_code": "3570", "district_name": "Newark Public School District", "gradespan": "PK-08", "status": "open", "enrollment_2526": 487.0, "tested_3_8": 313.0, "enrollment_k8": 426.0}}, {"type": "Feature", "geometry": {"type": "Point", "coordinates": [-74.19814, 40.74246]}, "properties": {"id": "NWK-3570715", "name": "Thirteenth Avenue School", "city": "newark", "county": "Essex", "role": "district", "school_num": "715", "district_code": "3570", "district_name": "Newark Public School District", "gradespan": "PK-08", "status": "open", "enrollment_2526": 828.0, "tested_3_8": 331.0, "enrollment_k8": 733.0}}, {"type": "Feature", "geometry": {"type": "Point", "coordinates": [-74.15485, 40.72735]}, "properties": {"id": "NWK-3570750", "name": "Wilson Avenue School", "city": "newark", "county": "Essex", "role": "district", "school_num": "750", "district_code": "3570", "district_name": "Newark Public School District", "gradespan": "KG-08", "status": "open", "enrollment_2526": 960.0, "tested_3_8": 674.0, "enrollment_k8": 954.0}}, {"type": "Feature", "geometry": {"type": "Point", "coordinates": [-74.17138, 40.91718]}, "properties": {"id": "PAT-4010004", "name": "Paterson Steam High School", "city": "paterson", "county": "Passaic", "role": "district", "school_num": "004", "district_code": "4010", "district_name": null, "gradespan": "09-12", "status": "open", "enrollment_2526": 367.0, "tested_3_8": null, "enrollment_k8": null}}, {"type": "Feature", "geometry": {"type": "Point", "coordinates": [-74.16813, 40.91681]}, "properties": {"id": "PAT-4010005", "name": "Paterson P-Tech High School", "city": "paterson", "county": "Passaic", "role": "district", "school_num": "005", "district_code": "4010", "district_name": null, "gradespan": "09-12", "status": "open", "enrollment_2526": 184.0, "tested_3_8": null, "enrollment_k8": null}}, {"type": "Feature", "geometry": {"type": "Point", "coordinates": [-74.16399, 40.91439]}, "properties": {"id": "PAT-4010006", "name": "Alternative High School", "city": "paterson", "county": "Passaic", "role": "district", "school_num": "006", "district_code": "4010", "district_name": null, "gradespan": "09-12", "status": "open", "enrollment_2526": 96.0, "tested_3_8": null, "enrollment_k8": null}}, {"type": "Feature", "geometry": {"type": "Point", "coordinates": [-74.14667, 40.92005]}, "properties": {"id": "PAT-4010020", "name": "Rosa L. Parks School Of Fine And Performing Arts", "city": "paterson", "county": "Passaic", "role": "district", "school_num": "020", "district_code": "4010", "district_name": null, "gradespan": "09-12", "status": "open", "enrollment_2526": 260.0, "tested_3_8": null, "enrollment_k8": null}}, {"type": "Feature", "geometry": {"type": "Point", "coordinates": [-74.14181, 40.91612]}, "properties": {"id": "PAT-4010025", "name": "Students Transitioning And Achieving Real Success", "city": "paterson", "county": "Passaic", "role": "district", "school_num": "025", "district_code": "4010", "district_name": null, "gradespan": "09-12", "status": "open", "enrollment_2526": 124.0, "tested_3_8": null, "enrollment_k8": null}}, {"type": "Feature", "geometry": {"type": "Point", "coordinates": [-74.17988, 40.90955]}, "properties": {"id": "PAT-4010035", "name": "International High School", "city": "paterson", "county": "Passaic", "role": "district", "school_num": "035", "district_code": "4010", "district_name": null, "gradespan": "09-12", "status": "open", "enrollment_2526": 606.0, "tested_3_8": null, "enrollment_k8": null}}, {"type": "Feature", "geometry": {"type": "Point", "coordinates": [-74.16675, 40.91619]}, "properties": {"id": "PAT-4010043", "name": "Alexander Hamilton Academy", "city": "paterson", "county": "Passaic", "role": "district", "school_num": "043", "district_code": "4010", "district_name": "Paterson Public School District", "gradespan": "KG-08", "status": "open", "enrollment_2526": 426.0, "tested_3_8": 264.0, "enrollment_k8": 426.0}}, {"type": "Feature", "geometry": {"type": "Point", "coordinates": [-74.16858, 40.91398]}, "properties": {"id": "PAT-4010045", "name": "Dale Avenue", "city": "paterson", "county": "Passaic", "role": "district", "school_num": "045", "district_code": "4010", "district_name": null, "gradespan": "PK-02", "status": "open", "enrollment_2526": 196.0, "tested_3_8": null, "enrollment_k8": 138.0}}, {"type": "Feature", "geometry": {"type": "Point", "coordinates": [-74.1639, 40.91749]}, "properties": {"id": "PAT-4010047", "name": "Edward W. Kilpatrick", "city": "paterson", "county": "Passaic", "role": "district", "school_num": "047", "district_code": "4010", "district_name": "Paterson Public School District", "gradespan": "PK-03", "status": "open", "enrollment_2526": 248.0, "tested_3_8": 53.0, "enrollment_k8": 173.0}}, {"type": "Feature", "geometry": {"type": "Point", "coordinates": [-74.14219, 40.92184]}, "properties": {"id": "PAT-4010050", "name": "School 1", "city": "paterson", "county": "Passaic", "role": "district", "school_num": "050", "district_code": "4010", "district_name": "Paterson Public School District", "gradespan": "KG-05", "status": "open", "enrollment_2526": 196.0, "tested_3_8": 86.0, "enrollment_k8": 196.0}}, {"type": "Feature", "geometry": {"type": "Point", "coordinates": [-74.17637, 40.91585]}, "properties": {"id": "PAT-4010060", "name": "School 2", "city": "paterson", "county": "Passaic", "role": "district", "school_num": "060", "district_code": "4010", "district_name": "Paterson Public School District", "gradespan": "KG-08", "status": "open", "enrollment_2526": 532.0, "tested_3_8": 235.0, "enrollment_k8": 532.0}}, {"type": "Feature", "geometry": {"type": "Point", "coordinates": [-74.17193, 40.91022]}, "properties": {"id": "PAT-4010070", "name": "School 3", "city": "paterson", "county": "Passaic", "role": "district", "school_num": "070", "district_code": "4010", "district_name": "Paterson Public School District", "gradespan": "KG-08", "status": "open", "enrollment_2526": null, "tested_3_8": 123.0, "enrollment_k8": null}}, {"type": "Feature", "geometry": {"type": "Point", "coordinates": [-74.17309, 40.92468]}, "properties": {"id": "PAT-4010080", "name": "Rev. Dr. Frank Napier, Jr. School", "city": "paterson", "county": "Passaic", "role": "district", "school_num": "080", "district_code": "4010", "district_name": "Paterson Public School District", "gradespan": "01-08", "status": "open", "enrollment_2526": 466.0, "tested_3_8": 379.0, "enrollment_k8": 466.0}}, {"type": "Feature", "geometry": {"type": "Point", "coordinates": [-74.18242, 40.9194]}, "properties": {"id": "PAT-4010090", "name": "School 5", "city": "paterson", "county": "Passaic", "role": "district", "school_num": "090", "district_code": "4010", "district_name": "Paterson Public School District", "gradespan": "KG-05", "status": "open", "enrollment_2526": 712.0, "tested_3_8": 348.0, "enrollment_k8": 712.0}}, {"type": "Feature", "geometry": {"type": "Point", "coordinates": [-74.16165, 40.91969]}, "properties": {"id": "PAT-4010100", "name": "Senator Frank Lautenberg School", "city": "paterson", "county": "Passaic", "role": "district", "school_num": "100", "district_code": "4010", "district_name": "Paterson Public School District", "gradespan": "KG-08", "status": "open", "enrollment_2526": 574.0, "tested_3_8": 373.0, "enrollment_k8": 574.0}}, {"type": "Feature", "geometry": {"type": "Point", "coordinates": [-74.1874, 40.90862]}, "properties": {"id": "PAT-4010110", "name": "School 7", "city": "paterson", "county": "Passaic", "role": "district", "school_num": "110", "district_code": "4010", "district_name": "Paterson Public School District", "gradespan": "KG-05", "status": "open", "enrollment_2526": 274.0, "tested_3_8": 140.0, "enrollment_k8": 274.0}}, {"type": "Feature", "geometry": {"type": "Point", "coordinates": [-74.16891, 40.90344]}, "properties": {"id": "PAT-4010120", "name": "School 8", "city": "paterson", "county": "Passaic", "role": "district", "school_num": "120", "district_code": "4010", "district_name": "Paterson Public School District", "gradespan": "KG-08", "status": "open", "enrollment_2526": 296.0, "tested_3_8": 271.0, "enrollment_k8": 296.0}}, {"type": "Feature", "geometry": {"type": "Point", "coordinates": [-74.15803, 40.89525]}, "properties": {"id": "PAT-4010130", "name": "Charles J. Riley/ School 9", "city": "paterson", "county": "Passaic", "role": "district", "school_num": "130", "district_code": "4010", "district_name": "Paterson Public School District", "gradespan": "PK-08", "status": "open", "enrollment_2526": 676.0, "tested_3_8": 438.0, "enrollment_k8": 607.0}}, {"type": "Feature", "geometry": {"type": "Point", "coordinates": [-74.16061, 40.92733]}, "properties": {"id": "PAT-4010140", "name": "School 10", "city": "paterson", "county": "Passaic", "role": "district", "school_num": "140", "district_code": "4010", "district_name": "Paterson Public School District", "gradespan": "KG-08", "status": "open", "enrollment_2526": 423.0, "tested_3_8": 277.0, "enrollment_k8": 423.0}}, {"type": "Feature", "geometry": {"type": "Point", "coordinates": [-74.17017, 40.92991]}, "properties": {"id": "PAT-4010160", "name": "School 12", "city": "paterson", "county": "Passaic", "role": "district", "school_num": "160", "district_code": "4010", "district_name": "Paterson Public School District", "gradespan": "KG-08", "status": "open", "enrollment_2526": 449.0, "tested_3_8": 288.0, "enrollment_k8": 449.0}}, {"type": "Feature", "geometry": {"type": "Point", "coordinates": [-74.15224, 40.9165]}, "properties": {"id": "PAT-4010170", "name": "School 13", "city": "paterson", "county": "Passaic", "role": "district", "school_num": "170", "district_code": "4010", "district_name": "Paterson Public School District", "gradespan": "KG-08", "status": "open", "enrollment_2526": 453.0, "tested_3_8": 284.0, "enrollment_k8": 453.0}}, {"type": "Feature", "geometry": {"type": "Point", "coordinates": [-74.16143, 40.91148]}, "properties": {"id": "PAT-4010190", "name": "School 15", "city": "paterson", "county": "Passaic", "role": "district", "school_num": "190", "district_code": "4010", "district_name": "Paterson Public School District", "gradespan": "PK-05", "status": "open", "enrollment_2526": 518.0, "tested_3_8": 281.0, "enrollment_k8": 468.0}}, {"type": "Feature", "geometry": {"type": "Point", "coordinates": [-74.14928, 40.9382]}, "properties": {"id": "PAT-4010220", "name": "School 18", "city": "paterson", "county": "Passaic", "role": "district", "school_num": "220", "district_code": "4010", "district_name": "Paterson Public School District", "gradespan": "01-08", "status": "open", "enrollment_2526": 609.0, "tested_3_8": 434.0, "enrollment_k8": 609.0}}, {"type": "Feature", "geometry": {"type": "Point", "coordinates": [-74.18916, 40.92005]}, "properties": {"id": "PAT-4010230", "name": "School 19", "city": "paterson", "county": "Passaic", "role": "district", "school_num": "230", "district_code": "4010", "district_name": "Paterson Public School District", "gradespan": "KG-04", "status": "open", "enrollment_2526": 303.0, "tested_3_8": 117.0, "enrollment_k8": 303.0}}, {"type": "Feature", "geometry": {"type": "Point", "coordinates": [-74.14086, 40.90588]}, "properties": {"id": "PAT-4010240", "name": "School 20", "city": "paterson", "county": "Passaic", "role": "district", "school_num": "240", "district_code": "4010", "district_name": "Paterson Public School District", "gradespan": "KG-08", "status": "open", "enrollment_2526": 379.0, "tested_3_8": 225.0, "enrollment_k8": 379.0}}, {"type": "Feature", "geometry": {"type": "Point", "coordinates": [-74.15152, 40.9241]}, "properties": {"id": "PAT-4010250", "name": "School 21", "city": "paterson", "county": "Passaic", "role": "district", "school_num": "250", "district_code": "4010", "district_name": "Paterson Public School District", "gradespan": "PK-08", "status": "open", "enrollment_2526": 595.0, "tested_3_8": 442.0, "enrollment_k8": 580.0}}, {"type": "Feature", "geometry": {"type": "Point", "coordinates": [-74.15367, 40.90977]}, "properties": {"id": "PAT-4010270", "name": "School 24", "city": "paterson", "county": "Passaic", "role": "district", "school_num": "270", "district_code": "4010", "district_name": "Paterson Public School District", "gradespan": "PK-08", "status": "open", "enrollment_2526": 625.0, "tested_3_8": 429.0, "enrollment_k8": 596.0}}, {"type": "Feature", "geometry": {"type": "Point", "coordinates": [-74.14459, 40.89716]}, "properties": {"id": "PAT-4010280", "name": "School 25", "city": "paterson", "county": "Passaic", "role": "district", "school_num": "280", "district_code": "4010", "district_name": "Paterson Public School District", "gradespan": "PK-08", "status": "open", "enrollment_2526": 484.0, "tested_3_8": 322.0, "enrollment_k8": 417.0}}, {"type": "Feature", "geometry": {"type": "Point", "coordinates": [-74.14219, 40.92184]}, "properties": {"id": "PAT-4010290", "name": "School 26", "city": "paterson", "county": "Passaic", "role": "district", "school_num": "290", "district_code": "4010", "district_name": "Paterson Public School District", "gradespan": "PK-08", "status": "open", "enrollment_2526": 420.0, "tested_3_8": 279.0, "enrollment_k8": 381.0}}, {"type": "Feature", "geometry": {"type": "Point", "coordinates": [-74.19967, 40.92027]}, "properties": {"id": "PAT-4010300", "name": "School 27", "city": "paterson", "county": "Passaic", "role": "district", "school_num": "300", "district_code": "4010", "district_name": "Paterson Public School District", "gradespan": "PK-05", "status": "open", "enrollment_2526": 588.0, "tested_3_8": 296.0, "enrollment_k8": 476.0}}, {"type": "Feature", "geometry": {"type": "Point", "coordinates": [-74.13289, 40.91944]}, "properties": {"id": "PAT-4010301", "name": "Joseph A. Taub School", "city": "paterson", "county": "Passaic", "role": "district", "school_num": "301", "district_code": "4010", "district_name": "Paterson Public School District", "gradespan": "06-08", "status": "open", "enrollment_2526": 934.0, "tested_3_8": 932.0, "enrollment_k8": 934.0}}, {"type": "Feature", "geometry": {"type": "Point", "coordinates": [-74.14673, 40.91632]}, "properties": {"id": "PAT-4010302", "name": "Anna Iandoli Early Learning Center", "city": "paterson", "county": "Passaic", "role": "district", "school_num": "302", "district_code": "4010", "district_name": null, "gradespan": "PK-PK", "status": "open", "enrollment_2526": 89.0, "tested_3_8": null, "enrollment_k8": null}}, {"type": "Feature", "geometry": {"type": "Point", "coordinates": [-74.18741, 40.9148]}, "properties": {"id": "PAT-4010307", "name": "John F. Kennedy High School", "city": "paterson", "county": "Passaic", "role": "district", "school_num": "307", "district_code": "4010", "district_name": null, "gradespan": "09-12", "status": "open", "enrollment_2526": 1828.0, "tested_3_8": null, "enrollment_k8": null}}, {"type": "Feature", "geometry": {"type": "Point", "coordinates": [-74.15738, 40.90459]}, "properties": {"id": "PAT-4010309", "name": "School 16", "city": "paterson", "county": "Passaic", "role": "district", "school_num": "309", "district_code": "4010", "district_name": "Paterson Public School District", "gradespan": "PK-08", "status": "open", "enrollment_2526": 777.0, "tested_3_8": 477.0, "enrollment_k8": 718.0}}, {"type": "Feature", "geometry": {"type": "Point", "coordinates": [-74.17265, 40.92306]}, "properties": {"id": "PAT-4010310", "name": "School 28", "city": "paterson", "county": "Passaic", "role": "district", "school_num": "310", "district_code": "4010", "district_name": "Paterson Public School District", "gradespan": "PK-08", "status": "open", "enrollment_2526": 456.0, "tested_3_8": 212.0, "enrollment_k8": 357.0}}, {"type": "Feature", "geometry": {"type": "Point", "coordinates": [-74.14851, 40.90782]}, "properties": {"id": "PAT-4010312", "name": "Dr. Martin Luther King, Jr. Educational Complex", "city": "paterson", "county": "Passaic", "role": "district", "school_num": "312", "district_code": "4010", "district_name": "Paterson Public School District", "gradespan": "PK-08", "status": "open", "enrollment_2526": 512.0, "tested_3_8": 257.0, "enrollment_k8": 463.0}}, {"type": "Feature", "geometry": {"type": "Point", "coordinates": [-74.16746, 40.89604]}, "properties": {"id": "PAT-4010313", "name": "Dr. Hani Awadallah School", "city": "paterson", "county": "Passaic", "role": "district", "school_num": "313", "district_code": "4010", "district_name": "Paterson Public School District", "gradespan": "PK-08", "status": "open", "enrollment_2526": null, "tested_3_8": 393.0, "enrollment_k8": null}}, {"type": "Feature", "geometry": {"type": "Point", "coordinates": [-74.15902, 40.91368]}, "properties": {"id": "PAT-4010315", "name": "Roberto Clemente", "city": "paterson", "county": "Passaic", "role": "district", "school_num": "315", "district_code": "4010", "district_name": "Paterson Public School District", "gradespan": "KG-05", "status": "open", "enrollment_2526": 261.0, "tested_3_8": 128.0, "enrollment_k8": 261.0}}, {"type": "Feature", "geometry": {"type": "Point", "coordinates": [-74.15752, 40.9124]}, "properties": {"id": "PAT-4010316", "name": "New Roberto Clemente", "city": "paterson", "county": "Passaic", "role": "district", "school_num": "316", "district_code": "4010", "district_name": "Paterson Public School District", "gradespan": "06-08", "status": "open", "enrollment_2526": 468.0, "tested_3_8": 441.0, "enrollment_k8": 468.0}}, {"type": "Feature", "geometry": {"type": "Point", "coordinates": [-74.16983, 40.91816]}, "properties": {"id": "PAT-4010325", "name": "Norman S. Weir", "city": "paterson", "county": "Passaic", "role": "district", "school_num": "325", "district_code": "4010", "district_name": "Paterson Public School District", "gradespan": "KG-08", "status": "open", "enrollment_2526": 268.0, "tested_3_8": 61.0, "enrollment_k8": 268.0}}, {"type": "Feature", "geometry": {"type": "Point", "coordinates": [-74.17156, 40.91746]}, "properties": {"id": "PAT-6021905", "name": "Community Charter School Of Paterson", "city": "paterson", "county": "Passaic", "role": "charter", "school_num": "905", "district_code": "6021", "district_name": "Community Charter School Of Paterson", "gradespan": "KG-08", "status": "open", "enrollment_2526": 914.0, "tested_3_8": 576.0, "enrollment_k8": 914.0}}, {"type": "Feature", "geometry": {"type": "Point", "coordinates": [-74.17499, 40.73196]}, "properties": {"id": "NWK-6029911", "name": "Newark Educators Community Charter School", "city": "newark", "county": "Essex", "role": "charter", "school_num": "911", "district_code": "6029", "district_name": "Newark Educators Community Charter School", "gradespan": "PK-04", "status": "open", "enrollment_2526": 116.0, "tested_3_8": 34.0, "enrollment_k8": 89.0}}, {"type": "Feature", "geometry": {"type": "Point", "coordinates": [-74.13871, 40.74294]}, "properties": {"id": "NWK-6053917", "name": "Great Oaks Legacy Charter School", "city": "newark", "county": "Essex", "role": "charter", "school_num": "917", "district_code": "6053", "district_name": "Great Oaks Legacy Charter School", "gradespan": "PK-12", "status": "open", "enrollment_2526": 2133.0, "tested_3_8": 1185.0, "enrollment_k8": 1671.0}}, {"type": "Feature", "geometry": {"type": "Point", "coordinates": [-74.19376, 40.75422]}, "properties": {"id": "NWK-6058939", "name": "Roseville Community Charter School", "city": "newark", "county": "Essex", "role": "charter", "school_num": "939", "district_code": "6058", "district_name": "Roseville Community Charter School", "gradespan": "KG-04", "status": "open", "enrollment_2526": 328.0, "tested_3_8": 117.0, "enrollment_k8": 328.0}}, {"type": "Feature", "geometry": {"type": "Point", "coordinates": [-75.12233, 39.93508]}, "properties": {"id": "CAM-6086972", "name": "Hope Community Charter School", "city": "camden", "county": "Camden", "role": "charter", "school_num": "972", "district_code": "6086", "district_name": "Hope Community Charter School", "gradespan": "KG-08", "status": "open", "enrollment_2526": 107.0, "tested_3_8": 63.0, "enrollment_k8": 107.0}}, {"type": "Feature", "geometry": {"type": "Point", "coordinates": [-74.18639, 40.74642]}, "properties": {"id": "NWK-6094968", "name": "Philip'S Academy Charter School", "city": "newark", "county": "Essex", "role": "charter", "school_num": "968", "district_code": "6094", "district_name": "Phillip'S Academy Charter School", "gradespan": "PK-08", "status": "open", "enrollment_2526": 760.0, "tested_3_8": 408.0, "enrollment_k8": 706.0}}, {"type": "Feature", "geometry": {"type": "Point", "coordinates": [-74.17988, 40.90955]}, "properties": {"id": "PAT-6096982", "name": "Paterson Arts And Science Charter School", "city": "paterson", "county": "Passaic", "role": "charter", "school_num": "982", "district_code": "6096", "district_name": "Paterson Arts And Science Charter School", "gradespan": "KG-12", "status": "open", "enrollment_2526": 1410.0, "tested_3_8": 598.0, "enrollment_k8": 1095.0}}, {"type": "Feature", "geometry": {"type": "Point", "coordinates": [-74.18021, 40.72462]}, "properties": {"id": "NWK-6099986", "name": "Link Community Charter School", "city": "newark", "county": "Essex", "role": "charter", "school_num": "986", "district_code": "6099", "district_name": "Link Community Charter School", "gradespan": "KG-08", "status": "open", "enrollment_2526": 394.0, "tested_3_8": 232.0, "enrollment_k8": 394.0}}, {"type": "Feature", "geometry": {"type": "Point", "coordinates": [-74.16169, 40.90849]}, "properties": {"id": "PAT-6106997", "name": "Philip'S Academy Charter School Of Paterson", "city": "paterson", "county": "Passaic", "role": "charter", "school_num": "997", "district_code": "6106", "district_name": "Philip'S Academy Charter School Of Paterson", "gradespan": "KG-07", "status": "open", "enrollment_2526": 697.0, "tested_3_8": 425.0, "enrollment_k8": 697.0}}, {"type": "Feature", "geometry": {"type": "Point", "coordinates": [-75.12489, 39.94384]}, "properties": {"id": "CAM-6107998", "name": "Camden'S Promise Charter School", "city": "camden", "county": "Camden", "role": "charter", "school_num": "998", "district_code": "6107", "district_name": "Camden'S Promise Charter School", "gradespan": "PK-12", "status": "open", "enrollment_2526": 2468.0, "tested_3_8": 1107.0, "enrollment_k8": 1686.0}}, {"type": "Feature", "geometry": {"type": "Point", "coordinates": [-74.19359, 40.73852]}, "properties": {"id": "NWK-6109953", "name": "Lead Charter School", "city": "newark", "county": "Essex", "role": "charter", "school_num": "953", "district_code": "6109", "district_name": null, "gradespan": "09-12", "status": "open", "enrollment_2526": 269.0, "tested_3_8": null, "enrollment_k8": null}}, {"type": "Feature", "geometry": {"type": "Point", "coordinates": [-74.17472, 40.73395]}, "properties": {"id": "NWK-6320920", "name": "Discovery Charter School", "city": "newark", "county": "Essex", "role": "charter", "school_num": "920", "district_code": "6320", "district_name": "Discovery Charter School", "gradespan": "04-08", "status": "open", "enrollment_2526": 106.0, "tested_3_8": 95.0, "enrollment_k8": 106.0}}, {"type": "Feature", "geometry": {"type": "Point", "coordinates": [-74.16912, 40.73082]}, "properties": {"id": "NWK-6665930", "name": "The Gray Charter School", "city": "newark", "county": "Essex", "role": "charter", "school_num": "930", "district_code": "6665", "district_name": "Gray Charter School", "gradespan": "KG-08", "status": "open", "enrollment_2526": 312.0, "tested_3_8": 168.0, "enrollment_k8": 312.0}}, {"type": "Feature", "geometry": {"type": "Point", "coordinates": [-75.11842, 39.94592]}, "properties": {"id": "CAM-7109931", "name": "Leap Academy University Charter School", "city": "camden", "county": "Camden", "role": "charter", "school_num": "931", "district_code": "7109", "district_name": "Leap Academy University Charter School", "gradespan": "KG-12", "status": "open", "enrollment_2526": 1509.0, "tested_3_8": 711.0, "enrollment_k8": 1066.0}}, {"type": "Feature", "geometry": {"type": "Point", "coordinates": [-74.19932, 40.74074]}, "properties": {"id": "NWK-7210940", "name": "Marion P. Thomas Charter School", "city": "newark", "county": "Essex", "role": "charter", "school_num": "940", "district_code": "7210", "district_name": "Marion P. Thomas Charter School", "gradespan": "PK-12", "status": "open", "enrollment_2526": 1270.0, "tested_3_8": 477.0, "enrollment_k8": 660.0}}, {"type": "Feature", "geometry": {"type": "Point", "coordinates": [-74.1893, 40.73609]}, "properties": {"id": "NWK-7290957", "name": "New Horizons Community Charter School", "city": "newark", "county": "Essex", "role": "charter", "school_num": "957", "district_code": "7290", "district_name": "New Horizons Community Charter School", "gradespan": "KG-08", "status": "open", "enrollment_2526": 356.0, "tested_3_8": 249.0, "enrollment_k8": 356.0}}, {"type": "Feature", "geometry": {"type": "Point", "coordinates": [-74.20992, 40.73299]}, "properties": {"id": "NWK-7320960", "name": "North Star Academy Charter School", "city": "newark", "county": "Essex", "role": "charter", "school_num": "960", "district_code": "7320", "district_name": "North Star Academy Charter School", "gradespan": "KG-12", "status": "open", "enrollment_2526": 6812.0, "tested_3_8": 3302.0, "enrollment_k8": 5090.0}}, {"type": "Feature", "geometry": {"type": "Point", "coordinates": [-74.19209, 40.72906]}, "properties": {"id": "NWK-7325965", "name": "Team Academy Charter School", "city": "newark", "county": "Essex", "role": "charter", "school_num": "965", "district_code": "7325", "district_name": "Team Academy Charter School", "gradespan": "KG-12", "status": "open", "enrollment_2526": 6600.0, "tested_3_8": 3351.0, "enrollment_k8": 5213.0}}, {"type": "Feature", "geometry": {"type": "Point", "coordinates": [-74.15525, 40.89562]}, "properties": {"id": "PAT-7503970", "name": "Paterson Charter School For Science And Technology", "city": "paterson", "county": "Passaic", "role": "charter", "school_num": "970", "district_code": "7503", "district_name": "Paterson Charter School For Science And Technology", "gradespan": "KG-12", "status": "open", "enrollment_2526": 1707.0, "tested_3_8": 853.0, "enrollment_k8": 1244.0}}, {"type": "Feature", "geometry": {"type": "Point", "coordinates": [-74.18213, 40.73528]}, "properties": {"id": "NWK-7730970", "name": "Robert Treat Academy Charter School", "city": "newark", "county": "Essex", "role": "charter", "school_num": "970", "district_code": "7730", "district_name": "Robert Treat Academy Charter School", "gradespan": "KG-08", "status": "open", "enrollment_2526": 714.0, "tested_3_8": 459.0, "enrollment_k8": 714.0}}, {"type": "Feature", "geometry": {"type": "Point", "coordinates": [-74.16447, 40.77486]}, "properties": {"id": "NWK-7735975", "name": "Maria Varisco Rogers Charter School", "city": "newark", "county": "Essex", "role": "charter", "school_num": "975", "district_code": "7735", "district_name": "Maria L. Varisco-Rogers Charter School", "gradespan": "KG-08", "status": "open", "enrollment_2526": 565.0, "tested_3_8": 367.0, "enrollment_k8": 565.0}}, {"type": "Feature", "geometry": {"type": "Point", "coordinates": [-74.17826, 40.91502]}, "properties": {"id": "PAT-7892909", "name": "College Achieve Paterson Charter School", "city": "paterson", "county": "Passaic", "role": "charter", "school_num": "909", "district_code": "7892", "district_name": "College Achieve Paterson Charter School", "gradespan": "KG-12", "status": "open", "enrollment_2526": 1805.0, "tested_3_8": 734.0, "enrollment_k8": 1293.0}}]}