{"type": "FeatureCollection", "features": [{"type": "Feature", "geometry": {"type": "Point", "coordinates": [-81.1830197159148, 28.5844198709092]}, "properties": {"id": "ORG-0871", "county": "orange", "name": "BONNEVILLE ELEMENTARY", "school_num": "0871", "school_type": "ES", "role": "district", "address": "14700 Sussex Dr", "city": "Orlando", "sb_district": 1, "enrollment_2526": 369}}, {"type": "Feature", "geometry": {"type": "Point", "coordinates": [-81.2493092087248, 28.5725773557154]}, "properties": {"id": "ORG-0911", "county": "orange", "name": "UNION PARK MIDDLE", "school_num": "0911", "school_type": "MS", "role": "district", "address": "1844 Westfall Dr", "city": "Orlando", "sb_district": 1, "enrollment_2526": 564}}, {"type": "Feature", "geometry": {"type": "Point", "coordinates": [-81.2965504786526, 28.5727689014044]}, "properties": {"id": "ORG-0711", "county": "orange", "name": "CHENEY ELEMENTARY", "school_num": "0711", "school_type": "ES", "role": "district", "address": "2000 N Forsyth Rd", "city": "Orlando", "sb_district": 1, "enrollment_2526": 378}}, {"type": "Feature", "geometry": {"type": "Point", "coordinates": [-81.329735213412, 28.6065847399326]}, "properties": {"id": "ORG-0561", "county": "orange", "name": "LAKEMONT ELEMENTARY", "school_num": "0561", "school_type": "ES", "role": "district", "address": "901 N Lakemont Ave", "city": "Winter Park", "sb_district": 1, "enrollment_2526": 625}}, {"type": "Feature", "geometry": {"type": "Point", "coordinates": [-81.3554045485199, 28.5896686069484]}, "properties": {"id": "ORG-0302", "county": "orange", "name": "Winter Park", "school_num": "0302", "school_type": "9TH", "role": "district", "address": "528 Huntington Ave", "city": "Winter Park", "sb_district": 1, "enrollment_2526": 0}}, {"type": "Feature", "geometry": {"type": "Point", "coordinates": [-81.3086699776197, 28.5984477690509]}, "properties": {"id": "ORG-1401", "county": "orange", "name": "ALOMA ELEMENTARY", "school_num": "1401", "school_type": "ES", "role": "district", "address": "2949 Scarlet Rd", "city": "Winter Park", "sb_district": 1, "enrollment_2526": 533}}, {"type": "Feature", "geometry": {"type": "Point", "coordinates": [-81.3387582908901, 28.5788008459062]}, "properties": {"id": "ORG-0571", "county": "orange", "name": "GLENRIDGE MIDDLE", "school_num": "0571", "school_type": "MS", "role": "district", "address": "2900 Upper Park Rd", "city": "Orlando", "sb_district": 1, "enrollment_2526": 1058}}, {"type": "Feature", "geometry": {"type": "Point", "coordinates": [-81.3326495103064, 28.5665201569876]}, "properties": {"id": "ORG-0531", "county": "orange", "name": "BALDWIN PARK ELEMENTARY", "school_num": "0531", "school_type": "ES", "role": "district", "address": "1750 Common Way Rd", "city": "Orlando", "sb_district": 6, "enrollment_2526": 682}}, {"type": "Feature", "geometry": {"type": "Point", "coordinates": [-81.2170610085044, 28.5777498370768]}, "properties": {"id": "ORG-1001", "county": "orange", "name": "UNIVERSITY HIGH", "school_num": "1001", "school_type": "HS", "role": "district", "address": "2450 Cougar Way", "city": "Orlando", "sb_district": 1, "enrollment_2526": 2472}}, {"type": "Feature", "geometry": {"type": "Point", "coordinates": [-81.1298763414801, 28.5644357138662]}, "properties": {"id": "ORG-1281", "county": "orange", "name": "CORNER LAKE MIDDLE", "school_num": "1281", "school_type": "MS", "role": "district", "address": "1700 Chuluota Rd", "city": "Orlando", "sb_district": 1, "enrollment_2526": 659}}, {"type": "Feature", "geometry": {"type": "Point", "coordinates": [-81.1226497985436, 28.5765108427435]}, "properties": {"id": "ORG-1451", "county": "orange", "name": "COLUMBIA ELEMENTARY", "school_num": "1451", "school_type": "ES", "role": "district", "address": "18501 Cypress Lake Glen Blvd", "city": "Orlando", "sb_district": 1, "enrollment_2526": 468}}, {"type": "Feature", "geometry": {"type": "Point", "coordinates": [-81.3181144488891, 28.5926642834283]}, "properties": {"id": "ORG-0751", "county": "orange", "name": "BROOKSHIRE ELEMENTARY", "school_num": "0751", "school_type": "ES", "role": "district", "address": "2500 Cady Way", "city": "Winter Park", "sb_district": 1, "enrollment_2526": 512}}, {"type": "Feature", "geometry": {"type": "Point", "coordinates": [-81.3202486276667, 28.5859880280158]}, "properties": {"id": "ORG-1411", "county": "orange", "name": "WINTER PARK HIGH", "school_num": "1411", "school_type": "HS", "role": "district", "address": "2100 Summerfield Rd", "city": "Winter Park", "sb_district": 1, "enrollment_2526": 3304}}, {"type": "Feature", "geometry": {"type": "Point", "coordinates": [-81.2181632278806, 28.5849198935073]}, "properties": {"id": "ORG-0261", "county": "orange", "name": "RIVERDALE ELEMENTARY", "school_num": "0261", "school_type": "ES", "role": "district", "address": "11301 Lokanotosa Trl", "city": "Orlando", "sb_district": 1, "enrollment_2526": 530}}, {"type": "Feature", "geometry": {"type": "Point", "coordinates": [-81.2272520888295, 28.5517327921717]}, "properties": {"id": "ORG-0213", "county": "orange", "name": "LAWTON CHILES ELEMENTARY", "school_num": "0213", "school_type": "ES", "role": "district", "address": "11001 Bloomfield Dr", "city": "Orlando", "sb_district": 1, "enrollment_2526": 464}}, {"type": "Feature", "geometry": {"type": "Point", "coordinates": [-81.130805711888, 28.5570127329769]}, "properties": {"id": "ORG-1801", "county": "orange", "name": "EAST RIVER HIGH", "school_num": "1801", "school_type": "HS", "role": "district", "address": "650 East River Falcons Way", "city": "Orlando", "sb_district": 1, "enrollment_2526": 2018}}, {"type": "Feature", "geometry": {"type": "Point", "coordinates": [-81.1758596465326, 28.5350446819362]}, "properties": {"id": "ORG-1371", "county": "orange", "name": "SUNRISE ELEMENTARY", "school_num": "1371", "school_type": "ES", "role": "district", "address": "101 Lone Palm Rd", "city": "Orlando", "sb_district": 2, "enrollment_2526": 427}}, {"type": "Feature", "geometry": {"type": "Point", "coordinates": [-81.2626832794264, 28.4218228414423]}, "properties": {"id": "ORG-0771", "county": "orange", "name": "NORTHLAKE PARK COMMUNITY ELEMENTARY", "school_num": "0771", "school_type": "ES", "role": "district", "address": "9055 NorthLake Pkwy", "city": "Orlando", "sb_district": 2, "enrollment_2526": 563}}, {"type": "Feature", "geometry": {"type": "Point", "coordinates": [-81.1627085235616, 28.5116233360986]}, "properties": {"id": "ORG-1771", "county": "orange", "name": "STONE LAKES ELEMENTARY", "school_num": "1771", "school_type": "ES", "role": "district", "address": "15200 Stoneybrook Blvd", "city": "Orlando", "sb_district": 2, "enrollment_2526": 558}}, {"type": "Feature", "geometry": {"type": "Point", "coordinates": [-81.2354721922766, 28.516542578926]}, "properties": {"id": "ORG-0156", "county": "orange", "name": "CYPRESS SPRINGS ELEMENTARY", "school_num": "0156", "school_type": "ES", "role": "district", "address": "10401 Cypress Pavilion Pkwy", "city": "Orlando", "sb_district": 1, "enrollment_2526": 550}}, {"type": "Feature", "geometry": {"type": "Point", "coordinates": [-81.1609927553754, 28.5516990660043]}, "properties": {"id": "ORG-0217", "county": "orange", "name": "CAMELOT ELEMENTARY", "school_num": "0217", "school_type": "ES", "role": "district", "address": "14501 Waterford Chase Pkwy", "city": "Orlando", "sb_district": 1, "enrollment_2526": 528}}, {"type": "Feature", "geometry": {"type": "Point", "coordinates": [-81.1622777311932, 28.5578129796409]}, "properties": {"id": "ORG-1612", "county": "orange", "name": "CASTLE CREEK ELEMENTARY", "school_num": "1612", "school_type": "ES", "role": "district", "address": "1245 N Avalon Park Blvd", "city": "Orlando", "sb_district": 1, "enrollment_2526": 525}}, {"type": "Feature", "geometry": {"type": "Point", "coordinates": [-81.274163084374, 28.50496933573]}, "properties": {"id": "ORG-1541", "county": "orange", "name": "PINAR ELEMENTARY", "school_num": "1541", "school_type": "ES", "role": "district", "address": "3701 Anthony Ln", "city": "Orlando", "sb_district": 2, "enrollment_2526": 318}}, {"type": "Feature", "geometry": {"type": "Point", "coordinates": [-81.2666306035352, 28.5031207667873]}, "properties": {"id": "ORG-1551", "county": "orange", "name": "LIBERTY MIDDLE", "school_num": "1551", "school_type": "MS", "role": "district", "address": "3405 S Chickasaw Trl", "city": "Orlando", "sb_district": 2, "enrollment_2526": 818}}, {"type": "Feature", "geometry": {"type": "Point", "coordinates": [-81.3019274120285, 28.5523030224396]}, "properties": {"id": "ORG-0661", "county": "orange", "name": "COLONIAL HIGH", "school_num": "0661", "school_type": "HS", "role": "district", "address": "6100 Oleander Dr", "city": "Orlando", "sb_district": 2, "enrollment_2526": 2938}}, {"type": "Feature", "geometry": {"type": "Point", "coordinates": [-81.1925123764898, 28.5415692034728]}, "properties": {"id": "ORG-1121", "county": "orange", "name": "DISCOVERY MIDDLE", "school_num": "1121", "school_type": "MS", "role": "district", "address": "601 Woodbury Rd", "city": "Orlando", "sb_district": 2, "enrollment_2526": 753}}, {"type": "Feature", "geometry": {"type": "Point", "coordinates": [-81.2187739136715, 28.5448291253377]}, "properties": {"id": "ORG-0242", "county": "orange", "name": "LEGACY MIDDLE", "school_num": "0242", "school_type": "MS", "role": "district", "address": "11398 Lake Underhill Rd", "city": "Orlando", "sb_district": 1, "enrollment_2526": 692}}, {"type": "Feature", "geometry": {"type": "Point", "coordinates": [-81.2226402690501, 28.5083995535657]}, "properties": {"id": "ORG-0321", "county": "orange", "name": "ANDOVER ELEMENTARY", "school_num": "0321", "school_type": "ES", "role": "district", "address": "3100 Sanctuary Point Blvd", "city": "Orlando", "sb_district": 2, "enrollment_2526": 590}}, {"type": "Feature", "geometry": {"type": "Point", "coordinates": [-81.145252734754, 28.527919509324]}, "properties": {"id": "ORG-1631", "county": "orange", "name": "TIMBER CREEK HIGH", "school_num": "1631", "school_type": "HS", "role": "district", "address": "1001 S Avalon Park Blvd", "city": "Orlando", "sb_district": 2, "enrollment_2526": 3266}}, {"type": "Feature", "geometry": {"type": "Point", "coordinates": [-81.2835496599519, 28.5555998233608]}, "properties": {"id": "ORG-0951", "county": "orange", "name": "Colonial", "school_num": "0951", "school_type": "9TH", "role": "district", "address": "7775 Valencia College Ln", "city": "Orlando", "sb_district": 2, "enrollment_2526": 0}}, {"type": "Feature", "geometry": {"type": "Point", "coordinates": [-81.1489326275668, 28.4988556753353]}, "properties": {"id": "ORG-1763", "county": "orange", "name": "AVALON MIDDLE", "school_num": "1763", "school_type": "MS", "role": "district", "address": "13914 Mailer Blvd", "city": "Orlando", "sb_district": 2, "enrollment_2526": 792}}, {"type": "Feature", "geometry": {"type": "Point", "coordinates": [-81.3031776068671, 28.5290284319229]}, "properties": {"id": "ORG-0681", "county": "orange", "name": "ENGELWOOD ELEMENTARY", "school_num": "0681", "school_type": "ES", "role": "district", "address": "5985 La Costa Dr", "city": "Orlando", "sb_district": 2, "enrollment_2526": 546}}, {"type": "Feature", "geometry": {"type": "Point", "coordinates": [-81.2950265169456, 28.525445410423]}, "properties": {"id": "ORG-0831", "county": "orange", "name": "CHICKASAW ELEMENTARY", "school_num": "0831", "school_type": "ES", "role": "district", "address": "6900 Autumnvale Dr", "city": "Orlando", "sb_district": 2, "enrollment_2526": 503}}, {"type": "Feature", "geometry": {"type": "Point", "coordinates": [-81.298030505652, 28.5025473524435]}, "properties": {"id": "ORG-0971", "county": "orange", "name": "VENTURA ELEMENTARY", "school_num": "0971", "school_type": "ES", "role": "district", "address": "4400 Woodgate Blvd", "city": "Orlando", "sb_district": 2, "enrollment_2526": 519}}, {"type": "Feature", "geometry": {"type": "Point", "coordinates": [-81.2715813952916, 28.4744674480743]}, "properties": {"id": "ORG-1752", "county": "orange", "name": "VISTA LAKES ELEMENTARY", "school_num": "1752", "school_type": "ES", "role": "district", "address": "6050 Lake Champlain Dr", "city": "Orlando", "sb_district": 2, "enrollment_2526": 464}}, {"type": "Feature", "geometry": {"type": "Point", "coordinates": [-81.2831003115897, 28.4911064779958]}, "properties": {"id": "ORG-0215", "county": "orange", "name": "THREE POINTS ELEMENTARY", "school_num": "0215", "school_type": "ES", "role": "district", "address": "4001 S Goldenrod Rd", "city": "Orlando", "sb_district": 2, "enrollment_2526": 410}}, {"type": "Feature", "geometry": {"type": "Point", "coordinates": [-81.2172980811593, 28.4096922695189]}, "properties": {"id": "ORG-1582", "county": "orange", "name": "MOSS PARK ELEMENTARY", "school_num": "1582", "school_type": "ES", "role": "district", "address": "9301 North Shore Golf Club Blvd", "city": "Orlando", "sb_district": 2, "enrollment_2526": 780}}, {"type": "Feature", "geometry": {"type": "Point", "coordinates": [-81.1974445676437, 28.5430530307692]}, "properties": {"id": "ORG-1091", "county": "orange", "name": "WATERFORD ELEMENTARY", "school_num": "1091", "school_type": "ES", "role": "district", "address": "12950 Lake Underhill Rd", "city": "Orlando", "sb_district": 2, "enrollment_2526": 506}}, {"type": "Feature", "geometry": {"type": "Point", "coordinates": [-81.254574545459, 28.525075316983]}, "properties": {"id": "ORG-1601", "county": "orange", "name": "DEERWOOD ELEMENTARY", "school_num": "1601", "school_type": "ES", "role": "district", "address": "1356 S Econlockhatchee Trl", "city": "Orlando", "sb_district": 2, "enrollment_2526": 491}}, {"type": "Feature", "geometry": {"type": "Point", "coordinates": [-81.2462271404005, 28.5668279252707]}, "properties": {"id": "ORG-0431", "county": "orange", "name": "UNION PARK ELEMENTARY", "school_num": "0431", "school_type": "ES", "role": "district", "address": "1600 N Dean Rd", "city": "Orlando", "sb_district": 1, "enrollment_2526": 424}}, {"type": "Feature", "geometry": {"type": "Point", "coordinates": [-81.2571299824512, 28.4745734144795]}, "properties": {"id": "ORG-1682", "county": "orange", "name": "ODYSSEY MIDDLE", "school_num": "1682", "school_type": "MS", "role": "district", "address": "9290 Lee Vista Blvd", "city": "Orlando", "sb_district": 2, "enrollment_2526": 875}}, {"type": "Feature", "geometry": {"type": "Point", "coordinates": [-81.2596022121361, 28.4898054067466]}, "properties": {"id": "ORG-1461", "county": "orange", "name": "HIDDEN OAKS ELEMENTARY", "school_num": "1461", "school_type": "ES", "role": "district", "address": "9051 Suburban Dr", "city": "Orlando", "sb_district": 2, "enrollment_2526": 418}}, {"type": "Feature", "geometry": {"type": "Point", "coordinates": [-81.308466811104, 28.4865393050369]}, "properties": {"id": "ORG-0891", "county": "orange", "name": "MICHAEL MCCOY ELEMENTARY", "school_num": "0891", "school_type": "ES", "role": "district", "address": "5225 S Semoran Blvd", "city": "Orlando", "sb_district": 3, "enrollment_2526": 464}}, {"type": "Feature", "geometry": {"type": "Point", "coordinates": [-81.148491755816, 28.5108135902719]}, "properties": {"id": "ORG-0222", "county": "orange", "name": "AVALON ELEMENTARY", "school_num": "0222", "school_type": "ES", "role": "district", "address": "13500 Tanja King Blvd", "city": "Orlando", "sb_district": 2, "enrollment_2526": 532}}, {"type": "Feature", "geometry": {"type": "Point", "coordinates": [-81.1531603695136, 28.5270468266402]}, "properties": {"id": "ORG-1991", "county": "orange", "name": "TIMBER LAKES ELEMENTARY", "school_num": "1991", "school_type": "ES", "role": "district", "address": "2149 Crown Hill Blvd", "city": "Orlando", "sb_district": 2, "enrollment_2526": 596}}, {"type": "Feature", "geometry": {"type": "Point", "coordinates": [-81.2472614766652, 28.3808473660482]}, "properties": {"id": "ORG-1951", "county": "orange", "name": "LAKE NONA HIGH", "school_num": "1951", "school_type": "HS", "role": "district", "address": "12500 Narcoossee Rd", "city": "Orlando", "sb_district": 2, "enrollment_2526": 2479}}, {"type": "Feature", "geometry": {"type": "Point", "coordinates": [-81.5578875980642, 28.6022984753108]}, "properties": {"id": "ORG-0252", "county": "orange", "name": "OCOEE HIGH", "school_num": "0252", "school_type": "HS", "role": "district", "address": "1925 Ocoee Crown Point Pkwy", "city": "Ocoee", "sb_district": 7, "enrollment_2526": 2666}}, {"type": "Feature", "geometry": {"type": "Point", "coordinates": [-81.5814366833001, 28.5706973478068]}, "properties": {"id": "ORG-0511", "county": "orange", "name": "DILLARD STREET ELEMENTARY", "school_num": "0511", "school_type": "ES", "role": "district", "address": "311 N Dillard St", "city": "Winter Garden", "sb_district": 7, "enrollment_2526": 432}}, {"type": "Feature", "geometry": {"type": "Point", "coordinates": [-81.5152158539393, 28.5708502250108]}, "properties": {"id": "ORG-0216", "county": "orange", "name": "CITRUS ELEMENTARY", "school_num": "0216", "school_type": "ES", "role": "district", "address": "87 N Clarke Rd", "city": "Ocoee", "sb_district": 7, "enrollment_2526": 494}}, {"type": "Feature", "geometry": {"type": "Point", "coordinates": [-81.5072602421053, 28.6856768794985]}, "properties": {"id": "ORG-0282", "county": "orange", "name": "APOPKA MIDDLE", "school_num": "0282", "school_type": "MS", "role": "district", "address": "425 N Park Ave", "city": "Apopka", "sb_district": 7, "enrollment_2526": 824}}, {"type": "Feature", "geometry": {"type": "Point", "coordinates": [-81.5111776977829, 28.720015634835]}, "properties": {"id": "ORG-1011", "county": "orange", "name": "ROCK SPRINGS ELEMENTARY", "school_num": "1011", "school_type": "ES", "role": "district", "address": "2400 N Rock Springs Rd", "city": "Apopka", "sb_district": 7, "enrollment_2526": 631}}, {"type": "Feature", "geometry": {"type": "Point", "coordinates": [-81.5461733304471, 28.7297962176249]}, "properties": {"id": "ORG-1751", "county": "orange", "name": "WOLF LAKE ELEMENTARY", "school_num": "1751", "school_type": "ES", "role": "district", "address": "1771 W Ponkan Rd", "city": "Apopka", "sb_district": 7, "enrollment_2526": 742}}, {"type": "Feature", "geometry": {"type": "Point", "coordinates": [-81.5408081422054, 28.7296131214123]}, "properties": {"id": "ORG-1702", "county": "orange", "name": "WOLF LAKE MIDDLE", "school_num": "1702", "school_type": "MS", "role": "district", "address": "1725 W Ponkan Rd", "city": "Apopka", "sb_district": 7, "enrollment_2526": 1205}}, {"type": "Feature", "geometry": {"type": "Point", "coordinates": [-81.4875996814221, 28.6049730219662]}, "properties": {"id": "ORG-0241", "county": "orange", "name": "LAKE GEM ELEMENTARY", "school_num": "0241", "school_type": "ES", "role": "district", "address": "4801 Bloodhound St", "city": "Orlando", "sb_district": 6, "enrollment_2526": 537}}, {"type": "Feature", "geometry": {"type": "Point", "coordinates": [-81.5759985388408, 28.5577571759758]}, "properties": {"id": "ORG-1321", "county": "orange", "name": "WILLIAM S MAXEY ELEMENTARY", "school_num": "1321", "school_type": "ES", "role": "district", "address": "602 E. Storey Rd", "city": "Winter Garden", "sb_district": 7, "enrollment_2526": 495}}, {"type": "Feature", "geometry": {"type": "Point", "coordinates": [-81.6066181693331, 28.5579249383479]}, "properties": {"id": "ORG-0361", "county": "orange", "name": "TILDENVILLE ELEMENTARY", "school_num": "0361", "school_type": "ES", "role": "district", "address": "1221 Brick Rd", "city": "Winter Garden", "sb_district": 7, "enrollment_2526": 693}}, {"type": "Feature", "geometry": {"type": "Point", "coordinates": [-81.4911337518767, 28.5836220101075]}, "properties": {"id": "ORG-0401", "county": "orange", "name": "PINEWOOD ELEMENTARY", "school_num": "0401", "school_type": "ES", "role": "district", "address": "3005 N Apopka Vineland Rd", "city": "Orlando", "sb_district": 6, "enrollment_2526": 505}}, {"type": "Feature", "geometry": {"type": "Point", "coordinates": [-81.473339705382, 28.6381634794842]}, "properties": {"id": "ORG-1542", "county": "orange", "name": "WEKIVA HIGH", "school_num": "1542", "school_type": "HS", "role": "district", "address": "2501 N Hiawassee Rd", "city": "Apopka", "sb_district": 7, "enrollment_2526": 2007}}, {"type": "Feature", "geometry": {"type": "Point", "coordinates": [-81.4783002853402, 28.6384705383985]}, "properties": {"id": "ORG-1671", "county": "orange", "name": "PIEDMONT LAKES MIDDLE", "school_num": "1671", "school_type": "MS", "role": "district", "address": "2601 Lakeville Rd", "city": "Apopka", "sb_district": 7, "enrollment_2526": 836}}, {"type": "Feature", "geometry": {"type": "Point", "coordinates": [-81.5124207480554, 28.656081394256]}, "properties": {"id": "ORG-1361", "county": "orange", "name": "PHILLIS WHEATLEY ELEMENTARY", "school_num": "1361", "school_type": "ES", "role": "district", "address": "1475 Marvin C Zander Ave", "city": "Apopka", "sb_district": 7, "enrollment_2526": 381}}, {"type": "Feature", "geometry": {"type": "Point", "coordinates": [-81.5239131405361, 28.5878447607407]}, "properties": {"id": "ORG-0841", "county": "orange", "name": "SPRING LAKE ELEMENTARY", "school_num": "0841", "school_type": "ES", "role": "district", "address": "1105 Sarah Lee Ln", "city": "Ocoee", "sb_district": 7, "enrollment_2526": 458}}, {"type": "Feature", "geometry": {"type": "Point", "coordinates": [-81.5413321271398, 28.5636720436187]}, "properties": {"id": "ORG-1531", "county": "orange", "name": "OCOEE ELEMENTARY", "school_num": "1531", "school_type": "ES", "role": "district", "address": "400 S Lakewood Ave", "city": "Ocoee", "sb_district": 7, "enrollment_2526": 721}}, {"type": "Feature", "geometry": {"type": "Point", "coordinates": [-81.6020257352197, 28.5649009112443]}, "properties": {"id": "ORG-0352", "county": "orange", "name": "LAKEVIEW MIDDLE", "school_num": "0352", "school_type": "MS", "role": "district", "address": "1200 W Bay St", "city": "Winter Garden", "sb_district": 7, "enrollment_2526": 729}}, {"type": "Feature", "geometry": {"type": "Point", "coordinates": [-81.6007590185801, 28.7353503490644]}, "properties": {"id": "ORG-0461", "county": "orange", "name": "ZELLWOOD ELEMENTARY", "school_num": "0461", "school_type": "ES", "role": "district", "address": "3551 Washington Ave", "city": "Zellwood", "sb_district": 7, "enrollment_2526": 644}}, {"type": "Feature", "geometry": {"type": "Point", "coordinates": [-81.4836009041971, 28.6684655567206]}, "properties": {"id": "ORG-0821", "county": "orange", "name": "LOVELL ELEMENTARY", "school_num": "0821", "school_type": "ES", "role": "district", "address": "815 Roger Williams Rd", "city": "Apopka", "sb_district": 7, "enrollment_2526": 628}}, {"type": "Feature", "geometry": {"type": "Point", "coordinates": [-81.465790605572, 28.6891565926629]}, "properties": {"id": "ORG-0991", "county": "orange", "name": "CLAY SPRINGS ELEMENTARY", "school_num": "0991", "school_type": "ES", "role": "district", "address": "555 N Wekiva Springs Rd", "city": "Apopka", "sb_district": 7, "enrollment_2526": 610}}, {"type": "Feature", "geometry": {"type": "Point", "coordinates": [-81.5243063727161, 28.6923050916276]}, "properties": {"id": "ORG-1521", "county": "orange", "name": "APOPKA HIGH", "school_num": "1521", "school_type": "HS", "role": "district", "address": "555 W Martin St", "city": "Apopka", "sb_district": 7, "enrollment_2526": 3412}}, {"type": "Feature", "geometry": {"type": "Point", "coordinates": [-81.5104325341283, 28.6894256928814]}, "properties": {"id": "ORG-0541", "county": "orange", "name": "DREAM LAKE ELEMENTARY", "school_num": "0541", "school_type": "ES", "role": "district", "address": "500 N Park Ave", "city": "Apopka", "sb_district": 7, "enrollment_2526": 681}}, {"type": "Feature", "geometry": {"type": "Point", "coordinates": [-81.5247184105839, 28.6843013746851]}, "properties": {"id": "ORG-1282", "county": "orange", "name": "APOPKA ELEMENTARY", "school_num": "1282", "school_type": "ES", "role": "district", "address": "311 Vick Rd", "city": "Apopka", "sb_district": 7, "enrollment_2526": 883}}, {"type": "Feature", "geometry": {"type": "Point", "coordinates": [-81.4423377201377, 28.6234501709076]}, "properties": {"id": "ORG-0421", "county": "orange", "name": "LOCKHART ELEMENTARY", "school_num": "0421", "school_type": "ES", "role": "district", "address": "7500 Edgewater Dr", "city": "Orlando", "sb_district": 7, "enrollment_2526": 454}}, {"type": "Feature", "geometry": {"type": "Point", "coordinates": [-81.5428465551385, 28.5670808426328]}, "properties": {"id": "ORG-0342", "county": "orange", "name": "OCOEE MIDDLE", "school_num": "0342", "school_type": "MS", "role": "district", "address": "300 S Bluford Ave", "city": "Ocoee", "sb_district": 7, "enrollment_2526": 1153}}, {"type": "Feature", "geometry": {"type": "Point", "coordinates": [-81.4783296325948, 28.6460464379658]}, "properties": {"id": "ORG-0141", "county": "orange", "name": "LAKEVILLE ELEMENTARY", "school_num": "0141", "school_type": "ES", "role": "district", "address": "2015 Lakeville Rd", "city": "Apopka", "sb_district": 7, "enrollment_2526": 579}}, {"type": "Feature", "geometry": {"type": "Point", "coordinates": [-81.3398530036411, 28.6317682077482]}, "properties": {"id": "ORG-1181", "county": "orange", "name": "DOMMERICH ELEMENTARY", "school_num": "1181", "school_type": "ES", "role": "district", "address": "601 N. Thistle Ln", "city": "Maitland", "sb_district": 6, "enrollment_2526": 597}}, {"type": "Feature", "geometry": {"type": "Point", "coordinates": [-81.3440559746634, 28.6343508540826]}, "properties": {"id": "ORG-0731", "county": "orange", "name": "MAITLAND MIDDLE", "school_num": "0731", "school_type": "MS", "role": "district", "address": "701 Thistle Ln", "city": "Maitland", "sb_district": 6, "enrollment_2526": 708}}, {"type": "Feature", "geometry": {"type": "Point", "coordinates": [-81.4470490908214, 28.5906280017568]}, "properties": {"id": "ORG-0861", "county": "orange", "name": "ROLLING HILLS ELEMENTARY", "school_num": "0861", "school_type": "ES", "role": "district", "address": "4903 Donovan St", "city": "Orlando", "sb_district": 6, "enrollment_2526": 456}}, {"type": "Feature", "geometry": {"type": "Point", "coordinates": [-81.4494122623591, 28.5807994159817]}, "properties": {"id": "ORG-0671", "county": "orange", "name": "MAYNARD EVANS HIGH", "school_num": "0671", "school_type": "HS", "role": "district", "address": "4949 Silver Star Rd", "city": "Orlando", "sb_district": 6, "enrollment_2526": 2284}}, {"type": "Feature", "geometry": {"type": "Point", "coordinates": [-81.4205952497473, 28.6338168492504]}, "properties": {"id": "ORG-1251", "county": "orange", "name": "RIVERSIDE ELEMENTARY", "school_num": "1251", "school_type": "ES", "role": "district", "address": "3125 Pembrook Ave", "city": "Orlando", "sb_district": 6, "enrollment_2526": 487}}, {"type": "Feature", "geometry": {"type": "Point", "coordinates": [-81.4731783272935, 28.5673534252588]}, "properties": {"id": "ORG-0881", "county": "orange", "name": "HIAWASSEE ELEMENTARY", "school_num": "0881", "school_type": "ES", "role": "district", "address": "6800 Hennepin Blvd", "city": "Orlando", "sb_district": 5, "enrollment_2526": 572}}, {"type": "Feature", "geometry": {"type": "Point", "coordinates": [-81.3591450141333, 28.5611689042]}, "properties": {"id": "ORG-0181", "county": "orange", "name": "Fern Creek", "school_num": "0181", "school_type": "ES", "role": "district", "address": "1121 N Fern Creek Ave", "city": "Orlando", "sb_district": 6, "enrollment_2526": 0}}, {"type": "Feature", "geometry": {"type": "Point", "coordinates": [-81.3141005314463, 28.5441630139149]}, "properties": {"id": "ORG-0611", "county": "orange", "name": "AZALEA PARK ELEMENTARY", "school_num": "0611", "school_type": "ES", "role": "district", "address": "1 Carol Ave", "city": "Orlando", "sb_district": 6, "enrollment_2526": 401}}, {"type": "Feature", "geometry": {"type": "Point", "coordinates": [-81.4631543351532, 28.5951339432984]}, "properties": {"id": "ORG-1241", "county": "orange", "name": "MEADOWBROOK MIDDLE", "school_num": "1241", "school_type": "MS", "role": "district", "address": "6000 North Ln", "city": "Orlando", "sb_district": 6, "enrollment_2526": 745}}, {"type": "Feature", "geometry": {"type": "Point", "coordinates": [-81.4616617929495, 28.5857124643537]}, "properties": {"id": "ORG-1431", "county": "orange", "name": "RIDGEWOOD PARK ELEMENTARY", "school_num": "1431", "school_type": "ES", "role": "district", "address": "3401 Pioneer Rd", "city": "Orlando", "sb_district": 6, "enrollment_2526": 461}}, {"type": "Feature", "geometry": {"type": "Point", "coordinates": [-81.3832809900647, 28.6145295547248]}, "properties": {"id": "ORG-1351", "county": "orange", "name": "HUNGERFORD ELEMENTARY", "school_num": "1351", "school_type": "ES", "role": "district", "address": "230 College Ave", "city": "Maitland", "sb_district": 6, "enrollment_2526": 295}}, {"type": "Feature", "geometry": {"type": "Point", "coordinates": [-81.3826198415686, 28.5958325340185]}, "properties": {"id": "ORG-0311", "county": "orange", "name": "KILLARNEY ELEMENTARY", "school_num": "0311", "school_type": "ES", "role": "district", "address": "2401 Wellington Blvd", "city": "Winter Park", "sb_district": 6, "enrollment_2526": 308}}, {"type": "Feature", "geometry": {"type": "Point", "coordinates": [-81.4212281206601, 28.6231409028471]}, "properties": {"id": "ORG-0721", "county": "orange", "name": "LOCKHART MIDDLE", "school_num": "0721", "school_type": "MS", "role": "district", "address": "3411 Doctor Love Rd", "city": "Orlando", "sb_district": 6, "enrollment_2526": 654}}, {"type": "Feature", "geometry": {"type": "Point", "coordinates": [-81.4117116740655, 28.6121321967664]}, "properties": {"id": "ORG-0651", "county": "orange", "name": "LAKE WESTON ELEMENTARY", "school_num": "0651", "school_type": "ES", "role": "district", "address": "5500 Milan Dr", "city": "Orlando", "sb_district": 6, "enrollment_2526": 374}}, {"type": "Feature", "geometry": {"type": "Point", "coordinates": [-81.3654670983671, 28.5508417273236]}, "properties": {"id": "ORG-0201", "county": "orange", "name": "HILLCREST ELEMENTARY", "school_num": "0201", "school_type": "ES", "role": "district", "address": "1010 E Concord St", "city": "Orlando", "sb_district": 6, "enrollment_2526": 490}}, {"type": "Feature", "geometry": {"type": "Point", "coordinates": [-81.3677079810373, 28.54548131683]}, "properties": {"id": "ORG-0131", "county": "orange", "name": "HOWARD MIDDLE", "school_num": "0131", "school_type": "MS", "role": "district", "address": "800 E Robinson St", "city": "Orlando", "sb_district": 6, "enrollment_2526": 1204}}, {"type": "Feature", "geometry": {"type": "Point", "coordinates": [-81.4710337296151, 28.5603890177134]}, "properties": {"id": "ORG-0921", "county": "orange", "name": "ROBINSWOOD MIDDLE", "school_num": "0921", "school_type": "MS", "role": "district", "address": "6305 Balboa Dr", "city": "Orlando", "sb_district": 5, "enrollment_2526": 836}}, {"type": "Feature", "geometry": {"type": "Point", "coordinates": [-81.400772858545, 28.5737833755534]}, "properties": {"id": "ORG-0521", "county": "orange", "name": "LAKE SILVER ELEMENTARY", "school_num": "0521", "school_type": "ES", "role": "district", "address": "2401 N Rio Grande Ave", "city": "Orlando", "sb_district": 6, "enrollment_2526": 411}}, {"type": "Feature", "geometry": {"type": "Point", "coordinates": [-81.4401676013643, 28.6036788608251]}, "properties": {"id": "ORG-1271", "county": "orange", "name": "ROSEMONT ELEMENTARY", "school_num": "1271", "school_type": "ES", "role": "district", "address": "4650 Point Look Out Rd", "city": "Orlando", "sb_district": 6, "enrollment_2526": 654}}, {"type": "Feature", "geometry": {"type": "Point", "coordinates": [-81.3970232944187, 28.5842141651997]}, "properties": {"id": "ORG-0581", "county": "orange", "name": "COLLEGE PARK MIDDLE", "school_num": "0581", "school_type": "MS", "role": "district", "address": "1201 Maury Rd", "city": "Orlando", "sb_district": 6, "enrollment_2526": 591}}, {"type": "Feature", "geometry": {"type": "Point", "coordinates": [-81.371228652175, 28.6314133017983]}, "properties": {"id": "ORG-1221", "county": "orange", "name": "LAKE SYBELIA ELEMENTARY", "school_num": "1221", "school_type": "ES", "role": "district", "address": "600 Sandspur Rd", "city": "Maitland", "sb_district": 6, "enrollment_2526": 382}}, {"type": "Feature", "geometry": {"type": "Point", "coordinates": [-81.3937522622656, 28.5790785181051]}, "properties": {"id": "ORG-0121", "county": "orange", "name": "EDGEWATER HIGH", "school_num": "0121", "school_type": "HS", "role": "district", "address": "3100 Edgewater Dr", "city": "Orlando", "sb_district": 6, "enrollment_2526": 2013}}, {"type": "Feature", "geometry": {"type": "Point", "coordinates": [-81.3840345084399, 28.5720541308838]}, "properties": {"id": "ORG-0251", "county": "orange", "name": "PRINCETON ELEMENTARY", "school_num": "0251", "school_type": "ES", "role": "district", "address": "311 W Princeton St", "city": "Orlando", "sb_district": 6, "enrollment_2526": 486}}, {"type": "Feature", "geometry": {"type": "Point", "coordinates": [-81.449700085769, 28.5708606778386]}, "properties": {"id": "ORG-0791", "county": "orange", "name": "MOLLIE RAY ELEMENTARY", "school_num": "0791", "school_type": "ES", "role": "district", "address": "2000 Beecher St", "city": "Orlando", "sb_district": 5, "enrollment_2526": 371}}, {"type": "Feature", "geometry": {"type": "Point", "coordinates": [-81.4210492171642, 28.4710482254404]}, "properties": {"id": "ORG-1133", "county": "orange", "name": "WESTRIDGE MIDDLE", "school_num": "1133", "school_type": "MS", "role": "district", "address": "3800 W Oak Ridge Rd", "city": "Orlando", "sb_district": 5, "enrollment_2526": 1088}}, {"type": "Feature", "geometry": {"type": "Point", "coordinates": [-81.4530996661654, 28.5169422094998]}, "properties": {"id": "ORG-0236", "county": "orange", "name": "EAGLES NEST ELEMENTARY", "school_num": "0236", "school_type": "ES", "role": "district", "address": "5353 Metrowest Blvd", "city": "Orlando", "sb_district": 5, "enrollment_2526": 560}}, {"type": "Feature", "geometry": {"type": "Point", "coordinates": [-81.4070287685732, 28.4804896195201]}, "properties": {"id": "ORG-1491", "county": "orange", "name": "PALMETTO ELEMENTARY", "school_num": "1491", "school_type": "ES", "role": "district", "address": "2015 Duskin Ave", "city": "Orlando", "sb_district": 5, "enrollment_2526": 930}}, {"type": "Feature", "geometry": {"type": "Point", "coordinates": [-81.3859974901006, 28.4700574492062]}, "properties": {"id": "ORG-0691", "county": "orange", "name": "OAK RIDGE HIGH", "school_num": "0691", "school_type": "HS", "role": "district", "address": "700 W Oak Ridge Rd", "city": "Orlando", "sb_district": 5, "enrollment_2526": 2418}}, {"type": "Feature", "geometry": {"type": "Point", "coordinates": [-81.4574137086578, 28.5603367607367]}, "properties": {"id": "ORG-0621", "county": "orange", "name": "PINE HILLS ELEMENTARY", "school_num": "0621", "school_type": "ES", "role": "district", "address": "1006 Ferndell Rd", "city": "Orlando", "sb_district": 5, "enrollment_2526": 640}}, {"type": "Feature", "geometry": {"type": "Point", "coordinates": [-81.4381954681839, 28.5251385270674]}, "properties": {"id": "ORG-5871", "county": "orange", "name": "CARVER MIDDLE", "school_num": "5871", "school_type": "MS", "role": "district", "address": "4500 W Columbia St", "city": "Orlando", "sb_district": 5, "enrollment_2526": 541}}, {"type": "Feature", "geometry": {"type": "Point", "coordinates": [-81.4325867499317, 28.5246633713951]}, "properties": {"id": "ORG-5841", "county": "orange", "name": "ECCLESTON ELEMENTARY", "school_num": "5841", "school_type": "ES", "role": "district", "address": "1500 Aaron Ave", "city": "Orlando", "sb_district": 5, "enrollment_2526": 333}}, {"type": "Feature", "geometry": {"type": "Point", "coordinates": [-81.4266709639018, 28.4708310153713]}, "properties": {"id": "ORG-1261", "county": "orange", "name": "SADLER ELEMENTARY", "school_num": "1261", "school_type": "ES", "role": "district", "address": "4000 W Oak Ridge Rd", "city": "Orlando", "sb_district": 5, "enrollment_2526": 645}}, {"type": "Feature", "geometry": {"type": "Point", "coordinates": [-81.4092135473745, 28.5122605543184]}, "properties": {"id": "ORG-0701", "county": "orange", "name": "CATALINA ELEMENTARY", "school_num": "0701", "school_type": "ES", "role": "district", "address": "2448 29th St", "city": "Orlando", "sb_district": 5, "enrollment_2526": 551}}, {"type": "Feature", "geometry": {"type": "Point", "coordinates": [-81.4229879737739, 28.5292732942984]}, "properties": {"id": "ORG-5891", "county": "orange", "name": "Washington Shores", "school_num": "5891", "school_type": "EL", "role": "district", "address": "2500 Bruton Blvd", "city": "Orlando", "sb_district": 5, "enrollment_2526": 0}}, {"type": "Feature", "geometry": {"type": "Point", "coordinates": [-81.40688480837, 28.5483119798669]}, "properties": {"id": "ORG-0641", "county": "orange", "name": "ROCK LAKE ELEMENTARY", "school_num": "0641", "school_type": "ES", "role": "district", "address": "408 N Tampa Ave", "city": "Orlando", "sb_district": 5, "enrollment_2526": 319}}, {"type": "Feature", "geometry": {"type": "Point", "coordinates": [-81.4493291041287, 28.4572805654847]}, "properties": {"id": "ORG-0811", "county": "orange", "name": "TANGELO PARK ELEMENTARY", "school_num": "0811", "school_type": "ES", "role": "district", "address": "5115 Anzio St", "city": "Orlando", "sb_district": 5, "enrollment_2526": 439}}, {"type": "Feature", "geometry": {"type": "Point", "coordinates": [-81.4440184099307, 28.4860654720884]}, "properties": {"id": "ORG-1553", "county": "orange", "name": "MILLENNIA ELEMENTARY", "school_num": "1553", "school_type": "ES", "role": "district", "address": "5301 Cypress Creek Blvd", "city": "Orlando", "sb_district": 5, "enrollment_2526": 742}}, {"type": "Feature", "geometry": {"type": "Point", "coordinates": [-81.4341879726825, 28.4804069933562]}, "properties": {"id": "ORG-1621", "county": "orange", "name": "SHINGLE CREEK ELEMENTARY", "school_num": "1621", "school_type": "ES", "role": "district", "address": "5620 Harcourt Ave", "city": "Orlando", "sb_district": 5, "enrollment_2526": 566}}, {"type": "Feature", "geometry": {"type": "Point", "coordinates": [-81.4369958756944, 28.5443913405647]}, "properties": {"id": "ORG-1421", "county": "orange", "name": "IVEY LANE ELEMENTARY", "school_num": "1421", "school_type": "ES", "role": "district", "address": "209 Silverton St", "city": "Orlando", "sb_district": 5, "enrollment_2526": 273}}, {"type": "Feature", "geometry": {"type": "Point", "coordinates": [-81.40431311632, 28.510709544198]}, "properties": {"id": "ORG-0151", "county": "orange", "name": "MEMORIAL MIDDLE", "school_num": "0151", "school_type": "MS", "role": "district", "address": "2220 29th St", "city": "Orlando", "sb_district": 5, "enrollment_2526": 680}}, {"type": "Feature", "geometry": {"type": "Point", "coordinates": [-81.393866945808, 28.509580411597]}, "properties": {"id": "ORG-0231", "county": "orange", "name": "PINELOCH ELEMENTARY", "school_num": "0231", "school_type": "ES", "role": "district", "address": "3101 Woods Ave", "city": "Orlando", "sb_district": 5, "enrollment_2526": 616}}, {"type": "Feature", "geometry": {"type": "Point", "coordinates": [-81.4079716573077, 28.5342106467439]}, "properties": {"id": "ORG-1331", "county": "orange", "name": "ORANGE CENTER ELEMENTARY", "school_num": "1331", "school_type": "ES", "role": "district", "address": "621 Texas Ave", "city": "Orlando", "sb_district": 5, "enrollment_2526": 439}}, {"type": "Feature", "geometry": {"type": "Point", "coordinates": [-81.3992065993493, 28.5329531990266]}, "properties": {"id": "ORG-5711", "county": "orange", "name": "JONES HIGH", "school_num": "5711", "school_type": "HS", "role": "district", "address": "801 S Rio Grande Ave", "city": "Orlando", "sb_district": 5, "enrollment_2526": 1606}}, {"type": "Feature", "geometry": {"type": "Point", "coordinates": [-81.4568097647933, 28.3580102447575]}, "properties": {"id": "ORG-0232", "county": "orange", "name": "WEST CREEK ELEMENTARY", "school_num": "0232", "school_type": "ES", "role": "district", "address": "5119 Tacon Dr", "city": "Orlando", "sb_district": 4, "enrollment_2526": 546}}, {"type": "Feature", "geometry": {"type": "Point", "coordinates": [-81.5059924532676, 28.4343958579986]}, "properties": {"id": "ORG-1071", "county": "orange", "name": "BAY MEADOWS ELEMENTARY", "school_num": "1071", "school_type": "ES", "role": "district", "address": "9150 Apopka Vineland Rd", "city": "Orlando", "sb_district": 4, "enrollment_2526": 767}}, {"type": "Feature", "geometry": {"type": "Point", "coordinates": [-81.4316978119316, 28.3589322217499]}, "properties": {"id": "ORG-1191", "county": "orange", "name": "HUNTERS CREEK ELEMENTARY", "school_num": "1191", "school_type": "ES", "role": "district", "address": "4650 Town Center Blvd", "city": "Orlando", "sb_district": 3, "enrollment_2526": 709}}, {"type": "Feature", "geometry": {"type": "Point", "coordinates": [-81.5063749240158, 28.4986441328872]}, "properties": {"id": "ORG-1632", "county": "orange", "name": "OLYMPIA HIGH", "school_num": "1632", "school_type": "HS", "role": "district", "address": "4301 S Apopka Vineland Rd", "city": "Orlando", "sb_district": 4, "enrollment_2526": 2825}}, {"type": "Feature", "geometry": {"type": "Point", "coordinates": [-81.6137887789103, 28.4802358174023]}, "properties": {"id": "ORG-1762", "county": "orange", "name": "BRIDGEWATER MIDDLE", "school_num": "1762", "school_type": "MS", "role": "district", "address": "5600 Tiny Rd", "city": "Winter Garden", "sb_district": 4, "enrollment_2526": 1098}}, {"type": "Feature", "geometry": {"type": "Point", "coordinates": [-81.4927820459519, 28.411697612566]}, "properties": {"id": "ORG-1731", "county": "orange", "name": "SAND LAKE ELEMENTARY", "school_num": "1731", "school_type": "ES", "role": "district", "address": "8301 Buena Vista Woods Blvd", "city": "Orlando", "sb_district": 4, "enrollment_2526": 617}}, {"type": "Feature", "geometry": {"type": "Point", "coordinates": [-81.5566835515061, 28.5260274060512]}, "properties": {"id": "ORG-1571", "county": "orange", "name": "LAKE WHITNEY ELEMENTARY", "school_num": "1571", "school_type": "ES", "role": "district", "address": "1351 Windermere Rd", "city": "Winter Garden", "sb_district": 4, "enrollment_2526": 553}}, {"type": "Feature", "geometry": {"type": "Point", "coordinates": [-81.4826564978632, 28.5567167939763]}, "properties": {"id": "ORG-0253", "county": "orange", "name": "WEST OAKS ELEMENTARY", "school_num": "0253", "school_type": "ES", "role": "district", "address": "905 Dorscher Rd", "city": "Orlando", "sb_district": 5, "enrollment_2526": 499}}, {"type": "Feature", "geometry": {"type": "Point", "coordinates": [-81.4954757929544, 28.54559301761]}, "properties": {"id": "ORG-1611", "county": "orange", "name": "WILLIAM FRANGUS ELEMENTARY", "school_num": "1611", "school_type": "ES", "role": "district", "address": "380 Killington Way", "city": "Orlando", "sb_district": 4, "enrollment_2526": 342}}, {"type": "Feature", "geometry": {"type": "Point", "coordinates": [-81.5443555145789, 28.508510895456]}, "properties": {"id": "ORG-1231", "county": "orange", "name": "WINDERMERE ELEMENTARY", "school_num": "1231", "school_type": "ES", "role": "district", "address": "11125 Park Ave", "city": "Windermere", "sb_district": 4, "enrollment_2526": 510}}, {"type": "Feature", "geometry": {"type": "Point", "coordinates": [-81.6120266577502, 28.5138295647748]}, "properties": {"id": "ORG-0322", "county": "orange", "name": "WHISPERING OAK ELEMENTARY", "school_num": "0322", "school_type": "ES", "role": "district", "address": "15300 Stoneybrook West Pkwy", "city": "Winter Garden", "sb_district": 4, "enrollment_2526": 702}}, {"type": "Feature", "geometry": {"type": "Point", "coordinates": [-81.4937334394296, 28.4690580392466]}, "properties": {"id": "ORG-1031", "county": "orange", "name": "SOUTHWEST MIDDLE", "school_num": "1031", "school_type": "MS", "role": "district", "address": "6450 Dr Phillips Blvd", "city": "Orlando", "sb_district": 4, "enrollment_2526": 1201}}, {"type": "Feature", "geometry": {"type": "Point", "coordinates": [-81.4780097791103, 28.471195217043]}, "properties": {"id": "ORG-0931", "county": "orange", "name": "DR. PHILLIPS HIGH", "school_num": "0931", "school_type": "HS", "role": "district", "address": "6500 Turkey Lake Rd", "city": "Orlando", "sb_district": 4, "enrollment_2526": 2903}}, {"type": "Feature", "geometry": {"type": "Point", "coordinates": [-81.5590644203708, 28.4595264857808]}, "properties": {"id": "ORG-1776", "county": "orange", "name": "SUNSET PARK ELEMENTARY", "school_num": "1776", "school_type": "ES", "role": "district", "address": "12050 Overstreet Rd", "city": "Windermere", "sb_district": 4, "enrollment_2526": 639}}, {"type": "Feature", "geometry": {"type": "Point", "coordinates": [-81.5043268997127, 28.4925118657082]}, "properties": {"id": "ORG-1291", "county": "orange", "name": "CHAIN OF LAKES MIDDLE", "school_num": "1291", "school_type": "MS", "role": "district", "address": "8700 Conroy Windermere Rd", "city": "Orlando", "sb_district": 4, "enrollment_2526": 830}}, {"type": "Feature", "geometry": {"type": "Point", "coordinates": [-81.4940313181058, 28.4836870784035]}, "properties": {"id": "ORG-0961", "county": "orange", "name": "PALM LAKE ELEMENTARY", "school_num": "0961", "school_type": "ES", "role": "district", "address": "8000 Pin Oak Dr", "city": "Orlando", "sb_district": 4, "enrollment_2526": 558}}, {"type": "Feature", "geometry": {"type": "Point", "coordinates": [-81.4350568618324, 28.367846791045]}, "properties": {"id": "ORG-0381", "county": "orange", "name": "HUNTERS CREEK MIDDLE", "school_num": "0381", "school_type": "MS", "role": "district", "address": "13400 Town Loop Blvd", "city": "Orlando", "sb_district": 4, "enrollment_2526": 999}}, {"type": "Feature", "geometry": {"type": "Point", "coordinates": [-81.4897574665863, 28.4616912137853]}, "properties": {"id": "ORG-1591", "county": "orange", "name": "DR. PHILLIPS ELEMENTARY", "school_num": "1591", "school_type": "ES", "role": "district", "address": "6909 Dr Phillips Blvd", "city": "Orlando", "sb_district": 4, "enrollment_2526": 579}}, {"type": "Feature", "geometry": {"type": "Point", "coordinates": [-81.5671795079108, 28.5422109170379]}, "properties": {"id": "ORG-1511", "county": "orange", "name": "WEST ORANGE HIGH", "school_num": "1511", "school_type": "HS", "role": "district", "address": "1625 S Beulah Rd", "city": "Winter Garden", "sb_district": 4, "enrollment_2526": 2804}}, {"type": "Feature", "geometry": {"type": "Point", "coordinates": [-81.5109534423621, 28.5293967845599]}, "properties": {"id": "ORG-1681", "county": "orange", "name": "GOTHA MIDDLE", "school_num": "1681", "school_type": "MS", "role": "district", "address": "9155 Gotha Rd", "city": "Windermere", "sb_district": 4, "enrollment_2526": 1029}}, {"type": "Feature", "geometry": {"type": "Point", "coordinates": [-81.4728300718409, 28.5408052281563]}, "properties": {"id": "ORG-1501", "county": "orange", "name": "OAK HILL ELEMENTARY", "school_num": "1501", "school_type": "ES", "role": "district", "address": "11 S Hiawassee Rd", "city": "Orlando", "sb_district": 5, "enrollment_2526": 456}}, {"type": "Feature", "geometry": {"type": "Point", "coordinates": [-81.5348289107703, 28.5250523109178]}, "properties": {"id": "ORG-0235", "county": "orange", "name": "THORNEBROOKE ELEMENTARY", "school_num": "0235", "school_type": "ES", "role": "district", "address": "601Thornebrooke Rd", "city": "Ocoee", "sb_district": 4, "enrollment_2526": 572}}, {"type": "Feature", "geometry": {"type": "Point", "coordinates": [-81.4588417019865, 28.5415841706986]}, "properties": {"id": "ORG-0271", "county": "orange", "name": "ORLO VISTA ELEMENTARY", "school_num": "0271", "school_type": "ES", "role": "district", "address": "3 N Hastings St", "city": "Orlando", "sb_district": 5, "enrollment_2526": 438}}, {"type": "Feature", "geometry": {"type": "Point", "coordinates": [-81.536208103249, 28.5397460541339]}, "properties": {"id": "ORG-1562", "county": "orange", "name": "WESTBROOKE ELEMENTARY", "school_num": "1562", "school_type": "ES", "role": "district", "address": "500 Tomyn Blvd", "city": "Ocoee", "sb_district": 4, "enrollment_2526": 492}}, {"type": "Feature", "geometry": {"type": "Point", "coordinates": [-81.3033010092771, 28.5308920285942]}, "properties": {"id": "ORG-1111", "county": "orange", "name": "ROBERTO CLEMENTE MIDDLE", "school_num": "1111", "school_type": "MS", "role": "district", "address": "6000 Stonewall Jackson Rd", "city": "Orlando", "sb_district": 2, "enrollment_2526": 644}}, {"type": "Feature", "geometry": {"type": "Point", "coordinates": [-81.4932842044381, 28.5221761036639]}, "properties": {"id": "ORG-1021", "county": "orange", "name": "METROWEST ELEMENTARY", "school_num": "1021", "school_type": "ES", "role": "district", "address": "1801 Lake Vilma Dr", "city": "Orlando", "sb_district": 4, "enrollment_2526": 443}}, {"type": "Feature", "geometry": {"type": "Point", "coordinates": [-81.6006119726091, 28.4880772334593]}, "properties": {"id": "ORG-1791", "county": "orange", "name": "KEENES CROSSING ELEMENTARY", "school_num": "1791", "school_type": "ES", "role": "district", "address": "5240 Keene's Pheasant Dr", "city": "Windermere", "sb_district": 4, "enrollment_2526": 907}}, {"type": "Feature", "geometry": {"type": "Point", "coordinates": [-81.4230883867441, 28.3839007636463]}, "properties": {"id": "ORG-1081", "county": "orange", "name": "JOHN YOUNG ELEMENTARY", "school_num": "1081", "school_type": "ES", "role": "district", "address": "12550 Marsfield Ave", "city": "Orlando", "sb_district": 3, "enrollment_2526": 541}}, {"type": "Feature", "geometry": {"type": "Point", "coordinates": [-81.349042130197, 28.3551332340309]}, "properties": {"id": "ORG-1741", "county": "orange", "name": "WYNDHAM LAKES ELEMENTARY", "school_num": "1741", "school_type": "ES", "role": "district", "address": "14360 Wyndham Lakes Blvd", "city": "Orlando", "sb_district": 3, "enrollment_2526": 587}}, {"type": "Feature", "geometry": {"type": "Point", "coordinates": [-81.3162325440645, 28.4960956528539]}, "properties": {"id": "ORG-0301", "county": "orange", "name": "LAKE GEORGE ELEMENTARY", "school_num": "0301", "school_type": "ES", "role": "district", "address": "4101 Gatlin Ave", "city": "Orlando", "sb_district": 3, "enrollment_2526": 402}}, {"type": "Feature", "geometry": {"type": "Point", "coordinates": [-81.3981728414507, 28.3684141585955]}, "properties": {"id": "ORG-0214", "county": "orange", "name": "ENDEAVOR ELEMENTARY", "school_num": "0214", "school_type": "ES", "role": "district", "address": "13501 Balcombe Rd", "city": "Orlando", "sb_district": 3, "enrollment_2526": 561}}, {"type": "Feature", "geometry": {"type": "Point", "coordinates": [-81.3834350577522, 28.3846776664042]}, "properties": {"id": "ORG-1341", "county": "orange", "name": "SOUTHWOOD ELEMENTARY", "school_num": "1341", "school_type": "ES", "role": "district", "address": "12600 Bisted Dr", "city": "Orlando", "sb_district": 3, "enrollment_2526": 435}}, {"type": "Feature", "geometry": {"type": "Point", "coordinates": [-81.3792056924461, 28.3812664010554]}, "properties": {"id": "ORG-1651", "county": "orange", "name": "CYPRESS CREEK HIGH", "school_num": "1651", "school_type": "HS", "role": "district", "address": "1101 Bear Crossing Dr", "city": "Orlando", "sb_district": 3, "enrollment_2526": 3061}}, {"type": "Feature", "geometry": {"type": "Point", "coordinates": [-81.3447141293399, 28.3712928078782]}, "properties": {"id": "ORG-1381", "county": "orange", "name": "MEADOW WOODS MIDDLE", "school_num": "1381", "school_type": "MS", "role": "district", "address": "1800 Rhode Island Wood Cir", "city": "Orlando", "sb_district": 3, "enrollment_2526": 735}}, {"type": "Feature", "geometry": {"type": "Point", "coordinates": [-81.3286563432472, 28.4837147538618]}, "properties": {"id": "ORG-1441", "county": "orange", "name": "SHENANDOAH ELEMENTARY", "school_num": "1441", "school_type": "ES", "role": "district", "address": "4827 Conway Rd", "city": "Orlando", "sb_district": 3, "enrollment_2526": 399}}, {"type": "Feature", "geometry": {"type": "Point", "coordinates": [-81.3588362655373, 28.5195401457766]}, "properties": {"id": "ORG-0211", "county": "orange", "name": "Kaley", "school_num": "0211", "school_type": "ES", "role": "district", "address": "1600 E Kaley St", "city": "Orlando", "sb_district": 3, "enrollment_2526": 0}}, {"type": "Feature", "geometry": {"type": "Point", "coordinates": [-81.3259816838212, 28.5270475232657]}, "properties": {"id": "ORG-0781", "county": "orange", "name": "DOVER SHORES ELEMENTARY", "school_num": "0781", "school_type": "ES", "role": "district", "address": "1200 Gaston Foster Rd", "city": "Orlando", "sb_district": 6, "enrollment_2526": 373}}, {"type": "Feature", "geometry": {"type": "Point", "coordinates": [-81.3587718459618, 28.4252747842828]}, "properties": {"id": "ORG-0741", "county": "orange", "name": "SALLY RIDE ELEMENTARY", "school_num": "0741", "school_type": "ES", "role": "district", "address": "9601 11th Ave", "city": "Taft", "sb_district": 3, "enrollment_2526": 353}}, {"type": "Feature", "geometry": {"type": "Point", "coordinates": [-81.3795360700247, 28.462421233175]}, "properties": {"id": "ORG-0851", "county": "orange", "name": "LANCASTER ELEMENTARY", "school_num": "0851", "school_type": "ES", "role": "district", "address": "6700 Sheryl Ann Dr", "city": "Orlando", "sb_district": 3, "enrollment_2526": 626}}, {"type": "Feature", "geometry": {"type": "Point", "coordinates": [-81.3744672040434, 28.4599891001081]}, "properties": {"id": "ORG-1151", "county": "orange", "name": "JUDSON B WALKER MIDDLE", "school_num": "1151", "school_type": "MS", "role": "district", "address": "150 Amidon Ln", "city": "Orlando", "sb_district": 3, "enrollment_2526": 757}}, {"type": "Feature", "geometry": {"type": "Point", "coordinates": [-81.3820480623825, 28.4537719402703]}, "properties": {"id": "ORG-1171", "county": "orange", "name": "WINEGARD ELEMENTARY", "school_num": "1171", "school_type": "ES", "role": "district", "address": "7055 Winegard Rd", "city": "Orlando", "sb_district": 3, "enrollment_2526": 607}}, {"type": "Feature", "geometry": {"type": "Point", "coordinates": [-81.4128614679002, 28.416396775974]}, "properties": {"id": "ORG-1662", "county": "orange", "name": "FREEDOM HIGH", "school_num": "1662", "school_type": "HS", "role": "district", "address": "2500 Taft Vineland Rd", "city": "Orlando", "sb_district": 3, "enrollment_2526": 2487}}, {"type": "Feature", "geometry": {"type": "Point", "coordinates": [-81.4179511112126, 28.4159166359173]}, "properties": {"id": "ORG-0245", "county": "orange", "name": "FREEDOM MIDDLE", "school_num": "0245", "school_type": "MS", "role": "district", "address": "2850 Taft Vineland Rd", "city": "Orlando", "sb_district": 3, "enrollment_2526": 1079}}, {"type": "Feature", "geometry": {"type": "Point", "coordinates": [-81.4188429463124, 28.4075980887969]}, "properties": {"id": "ORG-1051", "county": "orange", "name": "WATERBRIDGE ELEMENTARY", "school_num": "1051", "school_type": "ES", "role": "district", "address": "11100 Galvin Dr", "city": "Orlando", "sb_district": 3, "enrollment_2526": 527}}, {"type": "Feature", "geometry": {"type": "Point", "coordinates": [-81.3441553242306, 28.448689156435]}, "properties": {"id": "ORG-0801", "county": "orange", "name": "Durrance", "school_num": "0801", "school_type": "ES", "role": "district", "address": "8101 Benrus St", "city": "Orlando", "sb_district": 3, "enrollment_2526": 0}}, {"type": "Feature", "geometry": {"type": "Point", "coordinates": [-81.3339383639542, 28.5050633392239]}, "properties": {"id": "ORG-0551", "county": "orange", "name": "CONWAY ELEMENTARY", "school_num": "0551", "school_type": "ES", "role": "district", "address": "4100 Lake Margaret Dr", "city": "Orlando", "sb_district": 3, "enrollment_2526": 363}}, {"type": "Feature", "geometry": {"type": "Point", "coordinates": [-81.3280312708903, 28.5005420980302]}, "properties": {"id": "ORG-1391", "county": "orange", "name": "CONWAY MIDDLE", "school_num": "1391", "school_type": "MS", "role": "district", "address": "4600 Anderson Rd", "city": "Orlando", "sb_district": 3, "enrollment_2526": 659}}, {"type": "Feature", "geometry": {"type": "Point", "coordinates": [-81.3669770299365, 28.4740983974448]}, "properties": {"id": "ORG-0411", "county": "orange", "name": "Pine Castle", "school_num": "0411", "school_type": "ES", "role": "district", "address": "905 Waltham Ave", "city": "Orlando", "sb_district": 3, "enrollment_2526": 0}}, {"type": "Feature", "geometry": {"type": "Point", "coordinates": [-81.3640140598138, 28.5140051536123]}, "properties": {"id": "ORG-0631", "county": "orange", "name": "BLANKNER K-8", "school_num": "0631", "school_type": "K8", "role": "district", "address": "2500 S Mills Ave", "city": "Orlando", "sb_district": 3, "enrollment_2526": 828}}, {"type": "Feature", "geometry": {"type": "Point", "coordinates": [-81.3680812959508, 28.5177086945583]}, "properties": {"id": "ORG-0111", "county": "orange", "name": "WILLIAM R BOONE HIGH", "school_num": "0111", "school_type": "HS", "role": "district", "address": "1000 E Kaley St", "city": "Orlando", "sb_district": 3, "enrollment_2526": 2689}}, {"type": "Feature", "geometry": {"type": "Point", "coordinates": [-81.3445217783972, 28.3946936052561]}, "properties": {"id": "ORG-1703", "county": "orange", "name": "SOUTH CREEK MIDDLE", "school_num": "1703", "school_type": "MS", "role": "district", "address": "3801 E Wetherbee Rd", "city": "Orlando", "sb_district": 3, "enrollment_2526": 938}}, {"type": "Feature", "geometry": {"type": "Point", "coordinates": [-81.3629706362445, 28.3714256570906]}, "properties": {"id": "ORG-1041", "county": "orange", "name": "MEADOW WOODS ELEMENTARY", "school_num": "1041", "school_type": "ES", "role": "district", "address": "500 Rhode Island Woods Cir", "city": "Orlando", "sb_district": 3, "enrollment_2526": 517}}, {"type": "Feature", "geometry": {"type": "Point", "coordinates": [-81.35066550119, 28.530437831366]}, "properties": {"id": "ORG-0221", "county": "orange", "name": "LAKE COMO SCHOOL", "school_num": "0221", "school_type": "K8", "role": "district", "address": "2450 E Gore St", "city": "Orlando", "sb_district": 6, "enrollment_2526": 949}}, {"type": "Feature", "geometry": {"type": "Point", "coordinates": [-81.3738140777713, 28.3545330547101]}, "properties": {"id": "ORG-0212", "county": "orange", "name": "OAKSHIRE ELEMENTARY", "school_num": "0212", "school_type": "ES", "role": "district", "address": "14501 Oakshire Rd", "city": "Orlando", "sb_district": 3, "enrollment_2526": 428}}, {"type": "Feature", "geometry": {"type": "Point", "coordinates": [-81.3545677606563, 28.4975720016151]}, "properties": {"id": "ORG-0901", "county": "orange", "name": "PERSHING SCHOOL", "school_num": "0901", "school_type": "K8", "role": "district", "address": "1800 Pershing Ave", "city": "Orlando", "sb_district": 3, "enrollment_2526": 1059}}, {"type": "Feature", "geometry": {"type": "Point", "coordinates": [-81.2461431612995, 28.3665212784809]}, "properties": {"id": "ORG-1931", "county": "orange", "name": "LAKE NONA MIDDLE", "school_num": "1931", "school_type": "MS", "role": "district", "address": "13700 Narcoossee Rd", "city": "Orlando", "sb_district": 2, "enrollment_2526": 1023}}, {"type": "Feature", "geometry": {"type": "Point", "coordinates": [-81.2961531429679, 28.5606829284318]}, "properties": {"id": "ORG-1971", "county": "orange", "name": "FORSYTH WOODS ELEMENTARY", "school_num": "1971", "school_type": "ES", "role": "district", "address": "6651 Curtis St", "city": "Orlando", "sb_district": 2, "enrollment_2526": 430}}, {"type": "Feature", "geometry": {"type": "Point", "coordinates": [-81.3621976368167, 28.3936841143731]}, "properties": {"id": "ORG-1941", "county": "orange", "name": "WETHERBEE ELEMENTARY", "school_num": "1941", "school_type": "ES", "role": "district", "address": "701 Wetherbee Rd", "city": "Orlando", "sb_district": 3, "enrollment_2526": 854}}, {"type": "Feature", "geometry": {"type": "Point", "coordinates": [-81.5992045126257, 28.5362534869675]}, "properties": {"id": "ORG-1821", "county": "orange", "name": "SUNRIDGE ELEMENTARY", "school_num": "1821", "school_type": "ES", "role": "district", "address": "14455 SunRidge Blvd", "city": "Winter Garden", "sb_district": 7, "enrollment_2526": 559}}, {"type": "Feature", "geometry": {"type": "Point", "coordinates": [-81.6043315370375, 28.5364623581195]}, "properties": {"id": "ORG-1911", "county": "orange", "name": "SUNRIDGE MIDDLE", "school_num": "1911", "school_type": "MS", "role": "district", "address": "14955 SunRidge Blvd", "city": "Winter Garden", "sb_district": 7, "enrollment_2526": 1115}}, {"type": "Feature", "geometry": {"type": "Point", "coordinates": [-81.2344469567117, 28.4345476202193]}, "properties": {"id": "ORG-1831", "county": "orange", "name": "SUN BLAZE ELEMENTARY", "school_num": "1831", "school_type": "ES", "role": "district", "address": "9101 Randal Park Blvd", "city": "Orlando", "sb_district": 2, "enrollment_2526": 1021}}, {"type": "Feature", "geometry": {"type": "Point", "coordinates": [-81.50432355782, 28.5999359695253]}, "properties": {"id": "ORG-0941", "county": "orange", "name": "PRAIRIE LAKE ELEMENTARY", "school_num": "0941", "school_type": "ES", "role": "district", "address": "8723 Hackney Prairie Rd", "city": "Orlando", "sb_district": 7, "enrollment_2526": 734}}, {"type": "Feature", "geometry": {"type": "Point", "coordinates": [-81.6071531089182, 28.4670824063134]}, "properties": {"id": "ORG-1482", "county": "orange", "name": "INDEPENDENCE ELEMENTARY", "school_num": "1482", "school_type": "ES", "role": "district", "address": "6255 New Independence Parkway", "city": "Winter Garden", "sb_district": 4, "enrollment_2526": 829}}, {"type": "Feature", "geometry": {"type": "Point", "coordinates": [-81.2387154922329, 28.3610211191534]}, "properties": {"id": "ORG-1921", "county": "orange", "name": "EAGLE CREEK ELEMENTARY", "school_num": "1921", "school_type": "ES", "role": "district", "address": "10025 Eagle Creek Santuary Blvd", "city": "Orlando", "sb_district": 2, "enrollment_2526": 834}}, {"type": "Feature", "geometry": {"type": "Point", "coordinates": [-81.5641779301969, 28.4426660363868]}, "properties": {"id": "ORG-1392", "county": "orange", "name": "BAY LAKE ELEMENTARY", "school_num": "1392", "school_type": "ES", "role": "district", "address": "12005 Silverlake Park Dr", "city": "Windermere", "sb_district": 4, "enrollment_2526": 596}}, {"type": "Feature", "geometry": {"type": "Point", "coordinates": [-81.0742922584613, 28.4904743266764]}, "properties": {"id": "ORG-1861", "county": "orange", "name": "WEDGEFIELD SCHOOL", "school_num": "1861", "school_type": "K8", "role": "district", "address": "3835 Bancroft Blvd", "city": "Orlando", "sb_district": 1, "enrollment_2526": 906}}, {"type": "Feature", "geometry": {"type": "Point", "coordinates": [-81.420931853288, 28.4960610336461]}, "properties": {"id": "ORG-1492", "county": "orange", "name": "MILLENNIA GARDENS ELEMENTARY", "school_num": "1492", "school_type": "ES", "role": "district", "address": "3515 Gardens Ridge Way", "city": "Orlando", "sb_district": 5, "enrollment_2526": 680}}, {"type": "Feature", "geometry": {"type": "Point", "coordinates": [-81.2707521617108, 28.5458151344128]}, "properties": {"id": "ORG-1141", "county": "orange", "name": "LITTLE RIVER ELEMENTARY", "school_num": "1141", "school_type": "ES", "role": "district", "address": "100 Caswell Dr", "city": "Orlando", "sb_district": 2, "enrollment_2526": 371}}, {"type": "Feature", "geometry": {"type": "Point", "coordinates": [-81.3917481049872, 28.5491576823359]}, "properties": {"id": "ORG-1014", "county": "orange", "name": "OCPS ACADEMIC CENTER FOR EXCELLENCE", "school_num": "1014", "school_type": "K8", "role": "district", "address": "701 W Livingston St", "city": "Orlando", "sb_district": 5, "enrollment_2526": 740}}, {"type": "Feature", "geometry": {"type": "Point", "coordinates": [-81.5806439204082, 28.4826934794514]}, "properties": {"id": "ORG-1908", "county": "orange", "name": "WINDERMERE HIGH", "school_num": "1908", "school_type": "HS", "role": "district", "address": "5523 Winter Garden Vineland Rd", "city": "Windermere", "sb_district": 4, "enrollment_2526": 3183}}, {"type": "Feature", "geometry": {"type": "Point", "coordinates": [-81.1378805301761, 28.534238493335]}, "properties": {"id": "ORG-1852", "county": "orange", "name": "TIMBER SPRINGS MIDDLE", "school_num": "1852", "school_type": "MS", "role": "district", "address": "16001 Timber Park Lane", "city": "Orlando", "sb_district": 2, "enrollment_2526": 1035}}, {"type": "Feature", "geometry": {"type": "Point", "coordinates": [-81.2693233466708, 28.3651005026507]}, "properties": {"id": "ORG-0331", "county": "orange", "name": "LAUREATE PARK ELEMENTARY", "school_num": "0331", "school_type": "ES", "role": "district", "address": "7800 Laureate Blvd", "city": "Orlando", "sb_district": 2, "enrollment_2526": 778}}, {"type": "Feature", "geometry": {"type": "Point", "coordinates": [-81.2110825554451, 28.4223065957127]}, "properties": {"id": "ORG-1871", "county": "orange", "name": "INNOVATION MIDDLE", "school_num": "1871", "school_type": "MS", "role": "district", "address": "13950 Storey Park Blvd", "city": "Orlando", "sb_district": 2, "enrollment_2526": 1183}}, {"type": "Feature", "geometry": {"type": "Point", "coordinates": [-81.4936841944366, 28.5202175191299]}, "properties": {"id": "ORG-1201", "county": "orange", "name": "WESTPOINTE ELEMENTARY", "school_num": "1201", "school_type": "ES", "role": "district", "address": "7525 Westpointe Blvd", "city": "Orlando", "sb_district": 4, "enrollment_2526": 691}}, {"type": "Feature", "geometry": {"type": "Point", "coordinates": [-81.2534799053844, 28.587633474266]}, "properties": {"id": "ORG-0981", "county": "orange", "name": "ARBOR RIDGE K-8", "school_num": "0981", "school_type": "K8", "role": "district", "address": "2900 Logandale Dr", "city": "Orlando", "sb_district": 1, "enrollment_2526": 735}}, {"type": "Feature", "geometry": {"type": "Point", "coordinates": [-81.4229879737739, 28.5292732942984]}, "properties": {"id": "ORG-5861", "county": "orange", "name": "WASHINGTON SHORES ELEMENTARY", "school_num": "5861", "school_type": "ES", "role": "district", "address": "944 W Lake Mann Dr", "city": "Orlando", "sb_district": 5, "enrollment_2526": 269}}, {"type": "Feature", "geometry": {"type": "Point", "coordinates": [-81.4986698128316, 28.502715318791]}, "properties": {"id": "ORG-1061", "county": "orange", "name": "WINDY RIDGE K-8", "school_num": "1061", "school_type": "K8", "role": "district", "address": "3900 Beech Tree Dr", "city": "Orlando", "sb_district": 4, "enrollment_2526": 1019}}, {"type": "Feature", "geometry": {"type": "Point", "coordinates": [-81.4939024400579, 28.6740757587371]}, "properties": {"id": "ORG-0084", "county": "orange", "name": "Sheeler Charter High School", "school_num": "0084", "school_type": "HS", "role": "district", "address": "871 E Semoran Blvd", "city": "Apopka", "sb_district": 7, "enrollment_2526": 225}}, {"type": "Feature", "geometry": {"type": "Point", "coordinates": [-81.3985913148992, 28.6049880116981]}, "properties": {"id": "ORG-0055", "county": "orange", "name": "Princeton House Charter School", "school_num": "0055", "school_type": "K5", "role": "district", "address": "1166 Lee Road", "city": "Orlando", "sb_district": 6, "enrollment_2526": 118}}, {"type": "Feature", "geometry": {"type": "Point", "coordinates": [-81.4128405009984, 28.573938592456]}, "properties": {"id": "ORG-0089", "county": "orange", "name": "ORLANDO SCIENCE MIDDLE HIGH CHARTER", "school_num": "0089", "school_type": "MSHS", "role": "charter", "address": "2427 Lynx Lane", "city": "Orlando", "sb_district": 6, "enrollment_2526": 1621}}, {"type": "Feature", "geometry": {"type": "Point", "coordinates": [-81.4567847856107, 28.5770116550776]}, "properties": {"id": "ORG-0070", "county": "orange", "name": "UCP Pine Hills", "school_num": "0070", "school_type": "IFKG", "role": "district", "address": "5800 Golf Club Pkwy", "city": "Orlando", "sb_district": 5, "enrollment_2526": 218}}, {"type": "Feature", "geometry": {"type": "Point", "coordinates": [-81.3882175757349, 28.5464635676411]}, "properties": {"id": "ORG-0062", "county": "orange", "name": "Nap Ford Community Charter", "school_num": "0062", "school_type": "PK5", "role": "district", "address": "648 W Livingston St", "city": "Orlando", "sb_district": 5, "enrollment_2526": 0}}, {"type": "Feature", "geometry": {"type": "Point", "coordinates": [-81.3770965749481, 28.5442697470935]}, "properties": {"id": "ORG-0056", "county": "orange", "name": "LAKE EOLA CHARTER", "school_num": "0056", "school_type": "K8", "role": "charter", "address": "135 N Magnolia Ave", "city": "Orlando", "sb_district": 6, "enrollment_2526": 183}}, {"type": "Feature", "geometry": {"type": "Point", "coordinates": [-81.2006279678879, 28.5803574578788]}, "properties": {"id": "ORG-0090", "county": "orange", "name": "UCP East Orange", "school_num": "0090", "school_type": "IF-5", "role": "district", "address": "12702 Science Dr", "city": "Orlando", "sb_district": 1, "enrollment_2526": 102}}, {"type": "Feature", "geometry": {"type": "Point", "coordinates": [-81.4774553523054, 28.5801593456812]}, "properties": {"id": "ORG-0152", "county": "orange", "name": "Innovations Middle School", "school_num": "0152", "school_type": "MS", "role": "district", "address": "2768 North Hiawassee Rd", "city": "Orlando", "sb_district": 6, "enrollment_2526": 100}}, {"type": "Feature", "geometry": {"type": "Point", "coordinates": [-81.3061223237396, 28.6040664054256]}, "properties": {"id": "ORG-0120", "county": "orange", "name": "Aloma Charter High School", "school_num": "0120", "school_type": "HS", "role": "district", "address": "495 N Semoran Blvd", "city": "Winter Park", "sb_district": 1, "enrollment_2526": 370}}, {"type": "Feature", "geometry": {"type": "Point", "coordinates": [-81.353922986174, 28.539629631366]}, "properties": {"id": "ORG-0074", "county": "orange", "name": "Workforce Advantage Academy", "school_num": "0074", "school_type": "HS", "role": "district", "address": "2113 E South St", "city": "Orlando", "sb_district": 6, "enrollment_2526": 226}}, {"type": "Feature", "geometry": {"type": "Point", "coordinates": [-81.3204925763041, 28.5251208899006]}, "properties": {"id": "ORG-0053", "county": "orange", "name": "PASSPORT CHARTER", "school_num": "0053", "school_type": "K8", "role": "charter", "address": "5221 Curry Ford Rd", "city": "Orlando", "sb_district": 6, "enrollment_2526": 178}}, {"type": "Feature", "geometry": {"type": "Point", "coordinates": [-81.3471778669177, 28.5489426461509]}, "properties": {"id": "ORG-0149", "county": "orange", "name": "CENTRAL FLORIDA LEADERSHIP ACADEMY CHARTER", "school_num": "0149", "school_type": "MSHS", "role": "charter", "address": "427 N Primrose", "city": "Orlando", "sb_district": 6, "enrollment_2526": 109}}, {"type": "Feature", "geometry": {"type": "Point", "coordinates": [-81.3267142109635, 28.5380364047046]}, "properties": {"id": "ORG-0065", "county": "orange", "name": "UCP DOWNTOWN CHARTER", "school_num": "0065", "school_type": "IF-3", "role": "charter", "address": "4690 Lake Underhill Rd", "city": "Orlando", "sb_district": 3, "enrollment_2526": 233}}, {"type": "Feature", "geometry": {"type": "Point", "coordinates": [-81.5605623008867, 28.591725888243]}, "properties": {"id": "ORG-0061", "county": "orange", "name": "HOPE CHARTER", "school_num": "0061", "school_type": "K8", "role": "charter", "address": "1550 E Crown Point Rd", "city": "Ocoee", "sb_district": 7, "enrollment_2526": 429}}, {"type": "Feature", "geometry": {"type": "Point", "coordinates": [-81.3383515909168, 28.4422907346029]}, "properties": {"id": "ORG-0155", "county": "orange", "name": "PINECREST PREPARATORY CHARTER", "school_num": "0155", "school_type": "K8", "role": "charter", "address": "8503 Daetwyler Dr", "city": "Orlando", "sb_district": 3, "enrollment_2526": 291}}, {"type": "Feature", "geometry": {"type": "Point", "coordinates": [-81.4270815421585, 28.3620230406374]}, "properties": {"id": "ORG-0204", "county": "orange", "name": "RENAISSANCE CHARTER SCHOOL AT HUNTERS CREEK", "school_num": "0204", "school_type": " ", "role": "charter", "address": "4140 Town Center Blvd", "city": "Orlando", "sb_district": 3, "enrollment_2526": 1500}}, {"type": "Feature", "geometry": {"type": "Point", "coordinates": [-81.2394669221571, 28.5968582828762]}, "properties": {"id": "ORG-0000", "county": "orange", "name": "Orange County Preparatory", "school_num": "0000", "school_type": "K8", "role": "district", "address": "10250 University Blvd", "city": "Orlando", "sb_district": 1, "enrollment_2526": 0}}, {"type": "Feature", "geometry": {"type": "Point", "coordinates": [-81.5605623008867, 28.591725888243]}, "properties": {"id": "ORG-0119", "county": "orange", "name": "LEGACY HIGH CHARTER", "school_num": "0119", "school_type": "HS", "role": "charter", "address": "1550 E Crown Point Rd", "city": "Ocoee", "sb_district": 7, "enrollment_2526": 225}}, {"type": "Feature", "geometry": {"type": "Point", "coordinates": [-81.3957968187032, 28.4640248771388]}, "properties": {"id": "ORG-0085", "county": "orange", "name": "Chancery Charter High School", "school_num": "0085", "school_type": "HS", "role": "district", "address": "7001 S Orange Blossom Trl", "city": "Orlando", "sb_district": 3, "enrollment_2526": 358}}, {"type": "Feature", "geometry": {"type": "Point", "coordinates": [-81.3984462430877, 28.496296175309]}, "properties": {"id": "ORG-0040", "county": "orange", "name": "Properitas Leadership Academy", "school_num": "0040", "school_type": "HS", "role": "district", "address": "4504 S Orange Blossom Trl", "city": "Orlando", "sb_district": 5, "enrollment_2526": 0}}, {"type": "Feature", "geometry": {"type": "Point", "coordinates": [-81.3755630952352, 28.5065467523198]}, "properties": {"id": "ORG-0034", "county": "orange", "name": "UCP Transitional Learning Academy", "school_num": "0034", "school_type": "MS", "role": "district", "address": "3305 S. Orange Avenue", "city": "Orlando", "sb_district": 2, "enrollment_2526": 0}}, {"type": "Feature", "geometry": {"type": "Point", "coordinates": [-81.3657644900395, 28.4725002381911]}, "properties": {"id": "ORG-0133", "county": "orange", "name": "CORNERSTONE ACADEMY CHARTER", "school_num": "0133", "school_type": "K8", "role": "charter", "address": "5903 Randolph Ave", "city": "Belle Isle", "sb_district": 3, "enrollment_2526": 1312}}, {"type": "Feature", "geometry": {"type": "Point", "coordinates": [-81.3657644900395, 28.4725002381911]}, "properties": {"id": "ORG-0146", "county": "orange", "name": "CORNERSTONE CHARTER ACADEMY HIGH", "school_num": "0146", "school_type": "HS", "role": "charter", "address": "5903 Randolph Ave", "city": "Belle Isle", "sb_district": 3, "enrollment_2526": 671}}, {"type": "Feature", "geometry": {"type": "Point", "coordinates": [-81.3070311136872, 28.5586084423147]}, "properties": {"id": "ORG-0177", "county": "orange", "name": "Access Charter", "school_num": "0177", "school_type": "MSHS", "role": "district", "address": "6000 E Colonial Dr", "city": "Orlando", "sb_district": 6, "enrollment_2526": 120}}, {"type": "Feature", "geometry": {"type": "Point", "coordinates": [-81.5758924961312, 28.5678541553611]}, "properties": {"id": "ORG-0172", "county": "orange", "name": "INNOVATION MONTESSORI OCOEE", "school_num": "0172", "school_type": "K5", "role": "charter", "address": "855 E Plant St", "city": "Winter Garden", "sb_district": 7, "enrollment_2526": 917}}, {"type": "Feature", "geometry": {"type": "Point", "coordinates": [-81.3947310031504, 28.6090166636444]}, "properties": {"id": "ORG-0163", "county": "orange", "name": "Aspire Charter Academy", "school_num": "0163", "school_type": "K5", "role": "district", "address": "928 Malone Dr", "city": "Orlando", "sb_district": 6, "enrollment_2526": 87}}, {"type": "Feature", "geometry": {"type": "Point", "coordinates": [-81.6224443793509, 28.554319337832]}, "properties": {"id": "ORG-0072", "county": "orange", "name": "OAKLAND AVENUE CHARTER", "school_num": "0072", "school_type": "K5", "role": "charter", "address": "456 East Oakland Ave", "city": "Oakland", "sb_district": 7, "enrollment_2526": 511}}, {"type": "Feature", "geometry": {"type": "Point", "coordinates": [-81.5189780733518, 28.5721449590428]}, "properties": {"id": "ORG-0182", "county": "orange", "name": "Kids Community College", "school_num": "0182", "school_type": "ES", "role": "district", "address": "1475 E. Silver Star Rd", "city": "Ocoee", "sb_district": 7, "enrollment_2526": 0}}, {"type": "Feature", "geometry": {"type": "Point", "coordinates": [-81.4120971176822, 28.573134840924]}, "properties": {"id": "ORG-0200", "county": "orange", "name": "ORLANDO SCIENCE ELEMENTARY CHARTER", "school_num": "0200", "school_type": "K5", "role": "charter", "address": "2379 Lynx Lane", "city": "Orlando", "sb_district": 6, "enrollment_2526": 722}}, {"type": "Feature", "geometry": {"type": "Point", "coordinates": [-81.2762578328754, 28.5550370308094]}, "properties": {"id": "ORG-0185", "county": "orange", "name": "RENAISSANCE CHARTER SCHOOL AT CHICKASAW TRAIL", "school_num": "0185", "school_type": "K8", "role": "charter", "address": "8203 Valencia College Ln", "city": "Orlando", "sb_district": 2, "enrollment_2526": 889}}, {"type": "Feature", "geometry": {"type": "Point", "coordinates": [-81.4734821412423, 28.5380552567633]}, "properties": {"id": "ORG-0202", "county": "orange", "name": "Sunshine High", "school_num": "0202", "school_type": "HS", "role": "district", "address": "6600 Old Winter Garden Rd", "city": "Orlando", "sb_district": 5, "enrollment_2526": 347}}, {"type": "Feature", "geometry": {"type": "Point", "coordinates": [-81.3986502583942, 28.6040939198384]}, "properties": {"id": "ORG-0203", "county": "orange", "name": "PINECREST CREEK CHARTER", "school_num": "0203", "school_type": "K5", "role": "charter", "address": "1100 Lee Rd", "city": "Orlando", "sb_district": 5, "enrollment_2526": 123}}, {"type": "Feature", "geometry": {"type": "Point", "coordinates": [-81.4156905177631, 28.528286890028]}, "properties": {"id": "ORG-0080", "county": "orange", "name": "LEGENDS ACADEMY CHARTER", "school_num": "0080", "school_type": "K8", "role": "charter", "address": "3032 Monte Carlo Trl", "city": "Orlando", "sb_district": 5, "enrollment_2526": 227}}, {"type": "Feature", "geometry": {"type": "Point", "coordinates": [-81.2917243928983, 28.4740321905679]}, "properties": {"id": "ORG-0033", "county": "orange", "name": "RENAISSANCE CHARTER SCHOOL AT GOLDENROD", "school_num": "0033", "school_type": "K8", "role": "charter", "address": "6112 S Goldenrod Rd", "city": "Orlando", "sb_district": 3, "enrollment_2526": 1036}}, {"type": "Feature", "geometry": {"type": "Point", "coordinates": [-81.5494729226877, 28.6044359369596]}, "properties": {"id": "ORG-1010", "county": "orange", "name": "RENAISSANCE CHARTER AT CROWN POINT", "school_num": "1010", "school_type": "K8", "role": "charter", "address": "281 West Road", "city": "Ocoee", "sb_district": 7, "enrollment_2526": 1226}}, {"type": "Feature", "geometry": {"type": "Point", "coordinates": [-81.4317466632324, 28.5666924655201]}, "properties": {"id": "ORG-1003", "county": "orange", "name": "LUCIOUS AND EMMA NIXON ACADEMY CHARTER", "school_num": "1003", "school_type": "K5", "role": "charter", "address": "1780 Mercy Drive", "city": "Orlando", "sb_district": 5, "enrollment_2526": 53}}, {"type": "Feature", "geometry": {"type": "Point", "coordinates": [-81.1749272553891, 28.5644830606556]}, "properties": {"id": "ORG-1002", "county": "orange", "name": "Econ River Charter High School", "school_num": "1002", "school_type": "HS", "role": "district", "address": "14180 E Colonial Drive", "city": "Orlando", "sb_district": 1, "enrollment_2526": 244}}, {"type": "Feature", "geometry": {"type": "Point", "coordinates": [-81.308959038891, 28.5273631230482]}, "properties": {"id": "ORG-1009", "county": "orange", "name": "BRIDGEPREP ACADEMY CHARTER", "school_num": "1009", "school_type": "K8", "role": "charter", "address": "5710 LaCosta Drive", "city": "Orlando", "sb_district": 2, "enrollment_2526": 335}}, {"type": "Feature", "geometry": {"type": "Point", "coordinates": [-81.1674927496505, 28.5953326631276]}, "properties": {"id": "ORG-0259", "county": "orange", "name": "EAST LAKE ELEMENTARY", "school_num": "0259", "school_type": "ES", "role": "district", "address": "3971 N Tanner Rd", "city": "Orlando", "sb_district": 1, "enrollment_2526": 370}}, {"type": "Feature", "geometry": {"type": "Point", "coordinates": [-81.3471354635298, 28.5660844107665]}, "properties": {"id": "ORG-1851", "county": "orange", "name": "AUDUBON PARK SCHOOL", "school_num": "1851", "school_type": "K8", "role": "district", "address": "1500 Falcon Dr", "city": "Orlando", "sb_district": 6, "enrollment_2526": 1214}}, {"type": "Feature", "geometry": {"type": "Point", "coordinates": [-81.359315824056, 28.5611274742725]}, "properties": {"id": "ORG-0601", "county": "orange", "name": "ORLANDO GIFTED ACADEMY", "school_num": "0601", "school_type": "ES", "role": "district", "address": "1121 N. Fern Creek Ave", "city": "Orlando", "sb_district": 6, "enrollment_2526": 478}}, {"type": "Feature", "geometry": {"type": "Point", "coordinates": [-81.5684585721603, 28.4512939584452]}, "properties": {"id": "ORG-1022", "county": "orange", "name": "HORIZON WEST MIDDLE", "school_num": "1022", "school_type": "MS", "role": "district", "address": "8200 Tattant Blvd", "city": "Windermere", "sb_district": 4, "enrollment_2526": 1230}}, {"type": "Feature", "geometry": {"type": "Point", "coordinates": [-81.556710886828, 28.4326501239387]}, "properties": {"id": "ORG-1012", "county": "orange", "name": "CASTLEVIEW ELEMENTARY", "school_num": "1012", "school_type": "ES", "role": "district", "address": "9131 Taborfield Ave", "city": "Orlando", "sb_district": 4, "enrollment_2526": 647}}, {"type": "Feature", "geometry": {"type": "Point", "coordinates": [-81.6457699407614, 28.4032003700662]}, "properties": {"id": "ORG-1024", "county": "orange", "name": "WATER SPRING ELEMENTARY", "school_num": "1024", "school_type": "ES", "role": "district", "address": "16000 Water Spring Dr", "city": "Winter Garden", "sb_district": 4, "enrollment_2526": 1073}}, {"type": "Feature", "geometry": {"type": "Point", "coordinates": [-81.2867623004447, 28.4711745366036]}, "properties": {"id": "ORG-0510", "county": "orange", "name": "VISTA POINTE ELEMENTARY", "school_num": "0510", "school_type": "ES", "role": "district", "address": "6900 Market Place Dr", "city": "Orlando", "sb_district": 2, "enrollment_2526": 465}}, {"type": "Feature", "geometry": {"type": "Point", "coordinates": [-81.4860858781551, 28.377527488347]}, "properties": {"id": "ORG-1023", "county": "orange", "name": "SUNSHINE ELEMENTARY", "school_num": "1023", "school_type": "ES", "role": "district", "address": "13225 International Dr", "city": "Orlando", "sb_district": 4, "enrollment_2526": 908}}, {"type": "Feature", "geometry": {"type": "Point", "coordinates": [-81.6184448625378, 28.4515231942143]}, "properties": {"id": "ORG-0520", "county": "orange", "name": "SUMMERLAKE ELEMENTARY", "school_num": "0520", "school_type": "ES", "role": "district", "address": "15450 Porter Rd", "city": "Winter Garden", "sb_district": 4, "enrollment_2526": 719}}, {"type": "Feature", "geometry": {"type": "Point", "coordinates": [-81.6260027832456, 28.4160336155814]}, "properties": {"id": "ORG-1471", "county": "orange", "name": "HORIZON HIGH SCHOOL", "school_num": "1471", "school_type": "HS", "role": "district", "address": "10393 Seidel Rd", "city": "Winter Garden", "sb_district": 4, "enrollment_2526": 3046}}, {"type": "Feature", "geometry": {"type": "Point", "coordinates": [-81.2751620201543, 28.3870801116819]}, "properties": {"id": "ORG-1161", "county": "orange", "name": "VILLAGE PARK ELEMENTARY", "school_num": "1161", "school_type": "ES", "role": "district", "address": "12253 Lake Nona Gateway Rd", "city": "Orlando", "sb_district": 2, "enrollment_2526": 572}}, {"type": "Feature", "geometry": {"type": "Point", "coordinates": [-81.4930221638889, 28.4035327719092]}, "properties": {"id": "ORG-0932", "county": "orange", "name": "LAKE BUENA VISTA HIGH SCHOOL", "school_num": "0932", "school_type": "HS", "role": "district", "address": "11305 Daryl Cater Pkwy", "city": "Orlando", "sb_district": 4, "enrollment_2526": 2071}}, {"type": "Feature", "geometry": {"type": "Point", "coordinates": [-81.6508455772402, 28.4018927208762]}, "properties": {"id": "ORG-0482", "county": "orange", "name": "WATER SPRING MIDDLE SCHOOL", "school_num": "0482", "school_type": "MS", "role": "district", "address": "17000 Water Spring Dr", "city": "Winter Garden", "sb_district": 4, "enrollment_2526": 1274}}, {"type": "Feature", "geometry": {"type": "Point", "coordinates": [-81.6256783041804, 28.422542780147]}, "properties": {"id": "ORG-1322", "county": "orange", "name": "PANTHER LAKE ELEMENTARY", "school_num": "1322", "school_type": "ES", "role": "district", "address": "10151 Summerlake Groves St", "city": "Winter Garden", "sb_district": 4, "enrollment_2526": 820}}, {"type": "Feature", "geometry": {"type": "Point", "coordinates": [-81.6495301406469, 28.4666478001267]}, "properties": {"id": "ORG-0472", "county": "orange", "name": "HAMLIN ELEMENTARY", "school_num": "0472", "school_type": "ES", "role": "district", "address": "16145 Silver Grove Blvd", "city": "Winter Garden", "sb_district": 4, "enrollment_2526": 725}}, {"type": "Feature", "geometry": {"type": "Point", "coordinates": [-81.3276294121988, 28.3570112163715]}, "properties": {"id": "ORG-1481", "county": "orange", "name": "STONEWYCK ELEMENTARY", "school_num": "1481", "school_type": "ES", "role": "district", "address": "3001 Stonewyck St", "city": "Orlando", "sb_district": 2, "enrollment_2526": 712}}, {"type": "Feature", "geometry": {"type": "Point", "coordinates": [-81.6447108080867, 28.4652640246293]}, "properties": {"id": "ORG-1015", "county": "orange", "name": "HAMLIN MIDDLE", "school_num": "1015", "school_type": "MS", "role": "district", "address": "16025 Silver Grove Blvd", "city": "Winter Garden", "sb_district": 4, "enrollment_2526": 1034}}, {"type": "Feature", "geometry": {"type": "Point", "coordinates": [-81.5432173583585, 28.7524992978915]}, "properties": {"id": "ORG-1026", "county": "orange", "name": "KELLY PARK SCHOOL", "school_num": "1026", "school_type": "K8", "role": "district", "address": "4700 Jason Dwelley Pkwy", "city": "Apopka", "sb_district": 7, "enrollment_2526": 1090}}, {"type": "Feature", "geometry": {"type": "Point", "coordinates": [-81.2150088564264, 28.4460747267941]}, "properties": {"id": "ORG-1761", "county": "orange", "name": "INNOVATION HIGH", "school_num": "1761", "school_type": "HS", "role": "district", "address": "12401 Dowden Rd", "city": "Orlando", "sb_district": 2, "enrollment_2526": 2584}}, {"type": "Feature", "geometry": {"type": "Point", "coordinates": [-81.2566120181648, 28.3549274986934]}, "properties": {"id": "ORG-0295", "county": "orange", "name": "LUMINARY MIDDLE", "school_num": "0295", "school_type": "MS", "role": "district", "address": "9446 Luminary Blvd", "city": "Orlando", "sb_district": 2, "enrollment_2526": 889}}, {"type": "Feature", "geometry": {"type": "Point", "coordinates": [-81.6504727704874, 28.413782685806]}, "properties": {"id": "ORG-1692", "county": "orange", "name": "ATWATER BAY ELEMENTARY", "school_num": "1692", "school_type": "ES", "role": "district", "address": "11000 Atwater Bay Dr", "city": "Winter Garden", "sb_district": 4, "enrollment_2526": 835}}, {"type": "Feature", "geometry": {"type": "Point", "coordinates": [-81.2597546314228, 28.3552640274136]}, "properties": {"id": "ORG-1444", "county": "orange", "name": "Luminary", "school_num": "1444", "school_type": "ES", "role": "district", "address": "9420 Luminary Blvd", "city": "Orlando", "sb_district": 2, "enrollment_2526": 474}}]}