{"type": "FeatureCollection", "features": [{"type": "Feature", "geometry": {"type": "Point", "coordinates": [-81.4199289480535, 28.5022759233756]}, "properties": {"loc_no": "8009", "name": "Orange Youth Academy (DJJ)", "fac_type": "Alt", "sb_district": "5", "address": "3150 39th St", "city": "Orlando", "zip": "32839"}}, {"type": "Feature", "geometry": {"type": "Point", "coordinates": [-81.3981135592414, 28.4565429764157]}, "properties": {"loc_no": "0113", "name": "Project Compass (Goodwill)", "fac_type": "Alt", "sb_district": "3", "address": "7531 S Orange Blossom Trl", "city": "Orlando", "zip": "32809"}}, {"type": "Feature", "geometry": {"type": "Point", "coordinates": [-81.4696696336017, 28.4776894267757]}, "properties": {"loc_no": "0128", "name": "Universal Education Center", "fac_type": "Alt", "sb_district": "4", "address": "1000 Universal Studios Plaza", "city": "Orlando", "zip": "32819"}}, {"type": "Feature", "geometry": {"type": "Point", "coordinates": [-81.3552739284507, 28.5114099183962]}, "properties": {"loc_no": "0395", "name": "Village School", "fac_type": "Alt", "sb_district": "3", "address": "1718 E Michigan St", "city": "Orlando", "zip": "32805"}}, {"type": "Feature", "geometry": {"type": "Point", "coordinates": [-81.4154186473779, 28.5046069312546]}, "properties": {"loc_no": "0114", "name": "Juvenile Offenders' Program", "fac_type": "Alt", "sb_district": "5", "address": "2400 33rd St", "city": "Orlando", "zip": "32839"}}, {"type": "Feature", "geometry": {"type": "Point", "coordinates": [-81.4653889726563, 28.6048069840908]}, "properties": {"loc_no": "0441", "name": "Devereux", "fac_type": "Alt", "sb_district": "6", "address": "6147 Christian Way", "city": "Orlando", "zip": "32808"}}, {"type": "Feature", "geometry": {"type": "Point", "coordinates": [-81.4757557587549, 28.6564777089607]}, "properties": {"loc_no": "0101", "name": "AMIKids Orlando", "fac_type": "Alt", "sb_district": "7", "address": "1461 S Lake Pleasant Rd", "city": "Apopka", "zip": "32703"}}, {"type": "Feature", "geometry": {"type": "Point", "coordinates": [-81.3856234342489, 28.6015689675107]}, "properties": {"loc_no": "1691", "name": "PACE  (DJJ)", "fac_type": "Alt", "sb_district": "6", "address": "445 N Wymore Rd", "city": "Winter Park", "zip": "32789"}}, {"type": "Feature", "geometry": {"type": "Point", "coordinates": [-81.4285992313282, 28.6116865017594]}, "properties": {"loc_no": "0122", "name": "Positive Pathways", "fac_type": "Alt", "sb_district": "6", "address": "6125 N Orange Blossom Trl", "city": "Orlando", "zip": "32810"}}, {"type": "Feature", "geometry": {"type": "Point", "coordinates": [-81.3134986952026, 28.5185090389511]}, "properties": {"loc_no": "1811", "name": "Acceleration East", "fac_type": "Alt", "sb_district": "3", "address": "2274 S Semoran Blvd", "city": "Orlando", "zip": "32822"}}, {"type": "Feature", "geometry": {"type": "Point", "coordinates": [-81.4867594557684, 28.5671365542752]}, "properties": {"loc_no": "1561", "name": "Magnolia School", "fac_type": "Spec", "sb_district": "5", "address": "1900 Matterhorn Rd", "city": "Orlando", "zip": "32818"}}, {"type": "Feature", "geometry": {"type": "Point", "coordinates": [-81.4290663364837, 28.5155598974355]}, "properties": {"loc_no": "5891", "name": "Washington Shores Primary Learning Ctr", "fac_type": "Spec", "sb_district": "5", "address": " 2500 Bruton Blvd", "city": "Orlando", "zip": "32805"}}, {"type": "Feature", "geometry": {"type": "Point", "coordinates": [-81.5721346644306, 28.5602674643355]}, "properties": {"loc_no": "5783", "name": "Orange Technical College - West Campus", "fac_type": "Tech", "sb_district": "7", "address": "955 E Story Rd", "city": "Winter Garden", "zip": "34787"}}, {"type": "Feature", "geometry": {"type": "Point", "coordinates": [-81.3624401576943, 28.6053579910978]}, "properties": {"loc_no": "5852", "name": "Orange Technical College - East Campus", "fac_type": "Tech", "sb_district": "6", "address": "901 W Webster Ave", "city": "Winter Park", "zip": "32789"}}, {"type": "Feature", "geometry": {"type": "Point", "coordinates": [-81.381443636613, 28.5540033254985]}, "properties": {"loc_no": "1581", "name": "Orange Technical College - Main Campus", "fac_type": "Tech", "sb_district": "5", "address": "301 W Amelia St.", "city": "Orlando", "zip": "32801"}}, {"type": "Feature", "geometry": {"type": "Point", "coordinates": [-81.4155166014057, 28.4708489636289]}, "properties": {"loc_no": "1131", "name": "Orange Technical College - South Campus", "fac_type": "Tech", "sb_district": "5", "address": "2900 W Oak Ridge Rd", "city": "Orlando", "zip": "32801"}}, {"type": "Feature", "geometry": {"type": "Point", "coordinates": [-81.1511262140786, 28.5268340178668]}, "properties": {"loc_no": "5852", "name": "Orange Technical College - Avalon Campus", "fac_type": "Tech", "sb_district": "2", "address": "2201 Crown Hill Blvd", "city": "Orlando", "zip": "32832"}}, {"type": "Feature", "geometry": {"type": "Point", "coordinates": [-81.3239376860595, 28.535192277587]}, "properties": {"loc_no": "0042", "name": "BETA School", "fac_type": "Alt", "sb_district": "6", "address": "4680 Lake Underhill Road", "city": "Orlando", "zip": "32807"}}, {"type": "Feature", "geometry": {"type": "Point", "coordinates": [-81.3530947353542, 28.5100266265316]}, "properties": {"loc_no": "1311", "name": "Orange Reg Juvenile Detention Ctr (DJJ)", "fac_type": "Alt", "sb_district": "3", "address": "2800 S Bumby Avenue", "city": "Orlando", "zip": "32806"}}, {"type": "Feature", "geometry": {"type": "Point", "coordinates": [-81.494753955895, 28.5799515827735]}, "properties": {"loc_no": "1841", "name": "Acceleration Academy West", "fac_type": "Alt", "sb_district": "6", "address": "2751 Lake Stanley Rd", "city": "Orlando", "zip": "32818"}}, {"type": "Feature", "geometry": {"type": "Point", "coordinates": [-81.48702962078, 28.5694301626657]}, "properties": {"loc_no": "0591", "name": "Silver Pines Academy", "fac_type": "Spec", "sb_district": "5", "address": "1906 Matterhorn Rd", "city": "Orlando", "zip": "32818"}}]}