{"type": "FeatureCollection", "features": [{"type": "Feature", "properties": {"loc_no": "0259", "loc_no_raw": "259", "name": "East Lake", "fac_type": "ES", "school_type": " ", "sb_district": "1", "jurisdiction": "Unincorporated", "address": "3971 N Tanner Rd", "city": "Orlando", "zip": "32826", "learn_comm": "East"}, "geometry": {"type": "Point", "coordinates": [-81.1674927496505, 28.5953326631276]}}, {"type": "Feature", "properties": {"loc_no": "0871", "loc_no_raw": "871", "name": "Bonneville", "fac_type": "ES", "school_type": " ", "sb_district": "1", "jurisdiction": "Unincorporated", "address": "14700 Sussex Dr", "city": "Orlando", "zip": "32826", "learn_comm": "East"}, "geometry": {"type": "Point", "coordinates": [-81.1830197159148, 28.5844198709092]}}, {"type": "Feature", "properties": {"loc_no": "0911", "loc_no_raw": "911", "name": "Union Park", "fac_type": "MS", "school_type": " ", "sb_district": "1", "jurisdiction": "Unincorporated", "address": "1844 Westfall Dr", "city": "Orlando", "zip": "32817", "learn_comm": "East"}, "geometry": {"type": "Point", "coordinates": [-81.2493092087248, 28.5725773557154]}}, {"type": "Feature", "properties": {"loc_no": "0711", "loc_no_raw": "711", "name": "Cheney", "fac_type": "ES", "school_type": " ", "sb_district": "1", "jurisdiction": "Unincorporated", "address": "2000 N Forsyth Rd", "city": "Orlando", "zip": "32807", "learn_comm": "East"}, "geometry": {"type": "Point", "coordinates": [-81.2965504786526, 28.5727689014044]}}, {"type": "Feature", "properties": {"loc_no": "0561", "loc_no_raw": "561", "name": "Lakemont", "fac_type": "ES", "school_type": " ", "sb_district": "1", "jurisdiction": "Winter Park", "address": "901 N Lakemont Ave", "city": "Winter Park", "zip": "32792", "learn_comm": "East"}, "geometry": {"type": "Point", "coordinates": [-81.329735213412, 28.6065847399326]}}, {"type": "Feature", "properties": {"loc_no": "0302", "loc_no_raw": "302", "name": "Winter Park", "fac_type": "9TH", "school_type": " ", "sb_district": "1", "jurisdiction": "Winter Park", "address": "528 Huntington Ave", "city": "Winter Park", "zip": "32789", "learn_comm": "East"}, "geometry": {"type": "Point", "coordinates": [-81.3554045485199, 28.5896686069484]}}, {"type": "Feature", "properties": {"loc_no": "1401", "loc_no_raw": "1401", "name": "Aloma", "fac_type": "ES", "school_type": " ", "sb_district": "1", "jurisdiction": "Unincorporated", "address": "2949 Scarlet Rd", "city": "Winter Park", "zip": "32792", "learn_comm": "East"}, "geometry": {"type": "Point", "coordinates": [-81.3086699776197, 28.5984477690509]}}, {"type": "Feature", "properties": {"loc_no": "0571", "loc_no_raw": "571", "name": "Glenridge", "fac_type": "MS", "school_type": " ", "sb_district": "1", "jurisdiction": "Orlando", "address": "2900 Upper Park Rd", "city": "Orlando", "zip": "32814", "learn_comm": "East"}, "geometry": {"type": "Point", "coordinates": [-81.3387582908901, 28.5788008459062]}}, {"type": "Feature", "properties": {"loc_no": "0531", "loc_no_raw": "531", "name": "Baldwin Park", "fac_type": "ES", "school_type": " ", "sb_district": "6", "jurisdiction": "Orlando", "address": "1750 Common Way Rd", "city": "Orlando", "zip": "32814", "learn_comm": "East"}, "geometry": {"type": "Point", "coordinates": [-81.3326495103064, 28.5665201569876]}}, {"type": "Feature", "properties": {"loc_no": "1001", "loc_no_raw": "1001", "name": "University", "fac_type": "HS", "school_type": " ", "sb_district": "1", "jurisdiction": "Unincorporated", "address": "2450 Cougar Way", "city": "Orlando", "zip": "32817", "learn_comm": "East"}, "geometry": {"type": "Point", "coordinates": [-81.2170610085044, 28.5777498370768]}}, {"type": "Feature", "properties": {"loc_no": "1281", "loc_no_raw": "1281", "name": "Corner Lake", "fac_type": "MS", "school_type": " ", "sb_district": "1", "jurisdiction": "Unincorporated", "address": "1700 Chuluota Rd", "city": "Orlando", "zip": "32820", "learn_comm": "East"}, "geometry": {"type": "Point", "coordinates": [-81.1298763414801, 28.5644357138662]}}, {"type": "Feature", "properties": {"loc_no": "1451", "loc_no_raw": "1451", "name": "Columbia", "fac_type": "ES", "school_type": " ", "sb_district": "1", "jurisdiction": "Unincorporated", "address": "18501 Cypress Lake Glen Blvd", "city": "Orlando", "zip": "32820", "learn_comm": "East"}, "geometry": {"type": "Point", "coordinates": [-81.1226497985436, 28.5765108427435]}}, {"type": "Feature", "properties": {"loc_no": "0751", "loc_no_raw": "751", "name": "Brookshire", "fac_type": "ES", "school_type": " ", "sb_district": "1", "jurisdiction": "Winter Park", "address": "2500 Cady Way", "city": "Winter Park", "zip": "32792", "learn_comm": "East"}, "geometry": {"type": "Point", "coordinates": [-81.3181144488891, 28.5926642834283]}}, {"type": "Feature", "properties": {"loc_no": "1411", "loc_no_raw": "1411", "name": "Winter Park", "fac_type": "HS", "school_type": " ", "sb_district": "1", "jurisdiction": "Winter Park", "address": "2100 Summerfield Rd", "city": "Winter Park", "zip": "32792", "learn_comm": "East"}, "geometry": {"type": "Point", "coordinates": [-81.3202486276667, 28.5859880280158]}}, {"type": "Feature", "properties": {"loc_no": "0261", "loc_no_raw": "261", "name": "Riverdale", "fac_type": "ES", "school_type": " ", "sb_district": "1", "jurisdiction": "Unincorporated", "address": "11301 Lokanotosa Trl", "city": "Orlando", "zip": "32817", "learn_comm": "East"}, "geometry": {"type": "Point", "coordinates": [-81.2181632278806, 28.5849198935073]}}, {"type": "Feature", "properties": {"loc_no": "0213", "loc_no_raw": "213", "name": "Lawton Chiles", "fac_type": "ES", "school_type": " ", "sb_district": "1", "jurisdiction": "Unincorporated", "address": "11001 Bloomfield Dr", "city": "Orlando", "zip": "32825", "learn_comm": "East"}, "geometry": {"type": "Point", "coordinates": [-81.2272520888295, 28.5517327921717]}}, {"type": "Feature", "properties": {"loc_no": "1801", "loc_no_raw": "1801", "name": "East River", "fac_type": "HS", "school_type": " ", "sb_district": "1", "jurisdiction": "Unincorporated", "address": "650 East River Falcons Way", "city": "Orlando", "zip": "32833", "learn_comm": "East"}, "geometry": {"type": "Point", "coordinates": [-81.130805711888, 28.5570127329769]}}, {"type": "Feature", "properties": {"loc_no": "1371", "loc_no_raw": "1371", "name": "Sunrise", "fac_type": "ES", "school_type": " ", "sb_district": "2", "jurisdiction": "Unincorporated", "address": "101 Lone Palm Rd", "city": "Orlando", "zip": "32828", "learn_comm": "East"}, "geometry": {"type": "Point", "coordinates": [-81.1758596465326, 28.5350446819362]}}, {"type": "Feature", "properties": {"loc_no": "0771", "loc_no_raw": "771", "name": "NorthLake Park", "fac_type": "ES", "school_type": " ", "sb_district": "2", "jurisdiction": "Orlando", "address": "9055 NorthLake Pkwy", "city": "Orlando", "zip": "32827", "learn_comm": "Southeast"}, "geometry": {"type": "Point", "coordinates": [-81.2626832794264, 28.4218228414423]}}, {"type": "Feature", "properties": {"loc_no": "1771", "loc_no_raw": "1771", "name": "Stone Lakes", "fac_type": "ES", "school_type": " ", "sb_district": "2", "jurisdiction": "Unincorporated", "address": "15200 Stoneybrook Blvd", "city": "Orlando", "zip": "32828", "learn_comm": "East"}, "geometry": {"type": "Point", "coordinates": [-81.1627085235616, 28.5116233360986]}}, {"type": "Feature", "properties": {"loc_no": "0156", "loc_no_raw": "156", "name": "Cypress Springs", "fac_type": "ES", "school_type": " ", "sb_district": "1", "jurisdiction": "Unincorporated", "address": "10401 Cypress Pavilion Pkwy", "city": "Orlando", "zip": "32825", "learn_comm": "East"}, "geometry": {"type": "Point", "coordinates": [-81.2354721922766, 28.516542578926]}}, {"type": "Feature", "properties": {"loc_no": "0217", "loc_no_raw": "217", "name": "Camelot", "fac_type": "ES", "school_type": " ", "sb_district": "1", "jurisdiction": "Unincorporated", "address": "14501 Waterford Chase Pkwy", "city": "Orlando", "zip": "32828", "learn_comm": "East"}, "geometry": {"type": "Point", "coordinates": [-81.1609927553754, 28.5516990660043]}}, {"type": "Feature", "properties": {"loc_no": "1612", "loc_no_raw": "1612", "name": "Castle Creek", "fac_type": "ES", "school_type": " ", "sb_district": "1", "jurisdiction": "Unincorporated", "address": "1245 N Avalon Park Blvd", "city": "Orlando", "zip": "32828", "learn_comm": "East"}, "geometry": {"type": "Point", "coordinates": [-81.1622777311932, 28.5578129796409]}}, {"type": "Feature", "properties": {"loc_no": "1541", "loc_no_raw": "1541", "name": "Pinar", "fac_type": "ES", "school_type": " ", "sb_district": "2", "jurisdiction": "Unincorporated", "address": "3701 Anthony Ln", "city": "Orlando", "zip": "32822", "learn_comm": "Southeast"}, "geometry": {"type": "Point", "coordinates": [-81.274163084374, 28.50496933573]}}, {"type": "Feature", "properties": {"loc_no": "1551", "loc_no_raw": "1551", "name": "Liberty", "fac_type": "MS", "school_type": " ", "sb_district": "2", "jurisdiction": "Unincorporated", "address": "3405 S Chickasaw Trl", "city": "Orlando", "zip": "32829", "learn_comm": "Southeast"}, "geometry": {"type": "Point", "coordinates": [-81.2666306035352, 28.5031207667873]}}, {"type": "Feature", "properties": {"loc_no": "0661", "loc_no_raw": "661", "name": "Colonial", "fac_type": "HS", "school_type": " ", "sb_district": "2", "jurisdiction": "Unincorporated", "address": "6100 Oleander Dr", "city": "Orlando", "zip": "32807", "learn_comm": "Southeast"}, "geometry": {"type": "Point", "coordinates": [-81.3019274120285, 28.5523030224396]}}, {"type": "Feature", "properties": {"loc_no": "1121", "loc_no_raw": "1121", "name": "Discovery", "fac_type": "MS", "school_type": " ", "sb_district": "2", "jurisdiction": "Unincorporated", "address": "601 Woodbury Rd", "city": "Orlando", "zip": "32828", "learn_comm": "East"}, "geometry": {"type": "Point", "coordinates": [-81.1925123764898, 28.5415692034728]}}, {"type": "Feature", "properties": {"loc_no": "0242", "loc_no_raw": "242", "name": "Legacy", "fac_type": "MS", "school_type": " ", "sb_district": "1", "jurisdiction": "Unincorporated", "address": "11398 Lake Underhill Rd", "city": "Orlando", "zip": "32825", "learn_comm": "East"}, "geometry": {"type": "Point", "coordinates": [-81.2187739136715, 28.5448291253377]}}, {"type": "Feature", "properties": {"loc_no": "0321", "loc_no_raw": "321", "name": "Andover", "fac_type": "ES", "school_type": " ", "sb_district": "2", "jurisdiction": "Unincorporated", "address": "3100 Sanctuary Point Blvd", "city": "Orlando", "zip": "32825", "learn_comm": "Southeast"}, "geometry": {"type": "Point", "coordinates": [-81.2226402690501, 28.5083995535657]}}, {"type": "Feature", "properties": {"loc_no": "1631", "loc_no_raw": "1631", "name": "Timber Creek", "fac_type": "HS", "school_type": " ", "sb_district": "2", "jurisdiction": "Unincorporated", "address": "1001 S Avalon Park Blvd", "city": "Orlando", "zip": "32828", "learn_comm": "East"}, "geometry": {"type": "Point", "coordinates": [-81.145252734754, 28.527919509324]}}, {"type": "Feature", "properties": {"loc_no": "0951", "loc_no_raw": "951", "name": "Colonial", "fac_type": "9TH", "school_type": " ", "sb_district": "2", "jurisdiction": "Unincorporated", "address": "7775 Valencia College Ln", "city": "Orlando", "zip": "32807", "learn_comm": "Southeast"}, "geometry": {"type": "Point", "coordinates": [-81.2835496599519, 28.5555998233608]}}, {"type": "Feature", "properties": {"loc_no": "1763", "loc_no_raw": "1763", "name": "Avalon", "fac_type": "MS", "school_type": " ", "sb_district": "2", "jurisdiction": "Unincorporated", "address": "13914 Mailer Blvd", "city": "Orlando", "zip": "32828", "learn_comm": "East"}, "geometry": {"type": "Point", "coordinates": [-81.1489326275668, 28.4988556753353]}}, {"type": "Feature", "properties": {"loc_no": "0681", "loc_no_raw": "681", "name": "Engelwood", "fac_type": "ES", "school_type": " ", "sb_district": "2", "jurisdiction": "Orlando", "address": "5985 La Costa Dr", "city": "Orlando", "zip": "32807", "learn_comm": "East"}, "geometry": {"type": "Point", "coordinates": [-81.3031776068671, 28.5290284319229]}}, {"type": "Feature", "properties": {"loc_no": "0831", "loc_no_raw": "831", "name": "Chickasaw", "fac_type": "ES", "school_type": " ", "sb_district": "2", "jurisdiction": "Unincorporated", "address": "6900 Autumnvale Dr", "city": "Orlando", "zip": "32822", "learn_comm": "East"}, "geometry": {"type": "Point", "coordinates": [-81.2950265169456, 28.525445410423]}}, {"type": "Feature", "properties": {"loc_no": "0971", "loc_no_raw": "971", "name": "Ventura", "fac_type": "ES", "school_type": " ", "sb_district": "2", "jurisdiction": "Orlando", "address": "4400 Woodgate Blvd", "city": "Orlando", "zip": "32822", "learn_comm": "Southeast"}, "geometry": {"type": "Point", "coordinates": [-81.298030505652, 28.5025473524435]}}, {"type": "Feature", "properties": {"loc_no": "1752", "loc_no_raw": "1752", "name": "Vista Lakes", "fac_type": "ES", "school_type": " ", "sb_district": "2", "jurisdiction": "Orlando", "address": "6050 Lake Champlain Dr", "city": "Orlando", "zip": "32829", "learn_comm": "Southeast"}, "geometry": {"type": "Point", "coordinates": [-81.2715813952916, 28.4744674480743]}}, {"type": "Feature", "properties": {"loc_no": "0215", "loc_no_raw": "215", "name": "Three Points", "fac_type": "ES", "school_type": " ", "sb_district": "2", "jurisdiction": "Unincorporated", "address": "4001 S Goldenrod Rd", "city": "Orlando", "zip": "32822", "learn_comm": "Southeast"}, "geometry": {"type": "Point", "coordinates": [-81.2831003115897, 28.4911064779958]}}, {"type": "Feature", "properties": {"loc_no": "1582", "loc_no_raw": "1582", "name": "Moss Park", "fac_type": "ES", "school_type": " ", "sb_district": "2", "jurisdiction": "Unincorporated", "address": "9301 North Shore Golf Club Blvd", "city": "Orlando", "zip": "32832", "learn_comm": "Southeast"}, "geometry": {"type": "Point", "coordinates": [-81.2172980811593, 28.4096922695189]}}, {"type": "Feature", "properties": {"loc_no": "1091", "loc_no_raw": "1091", "name": "Waterford", "fac_type": "ES", "school_type": " ", "sb_district": "2", "jurisdiction": "Unincorporated", "address": "12950 Lake Underhill Rd", "city": "Orlando", "zip": "32828", "learn_comm": "East"}, "geometry": {"type": "Point", "coordinates": [-81.1974445676437, 28.5430530307692]}}, {"type": "Feature", "properties": {"loc_no": "1601", "loc_no_raw": "1601", "name": "Deerwood", "fac_type": "ES", "school_type": " ", "sb_district": "2", "jurisdiction": "Unincorporated", "address": "1356 S Econlockhatchee Trl", "city": "Orlando", "zip": "32825", "learn_comm": "East"}, "geometry": {"type": "Point", "coordinates": [-81.254574545459, 28.525075316983]}}, {"type": "Feature", "properties": {"loc_no": "0431", "loc_no_raw": "431", "name": "Union Park", "fac_type": "ES", "school_type": " ", "sb_district": "1", "jurisdiction": "Unincorporated", "address": "1600 N Dean Rd", "city": "Orlando", "zip": "32825", "learn_comm": "East"}, "geometry": {"type": "Point", "coordinates": [-81.2462271404005, 28.5668279252707]}}, {"type": "Feature", "properties": {"loc_no": "1682", "loc_no_raw": "1682", "name": "Odyssey", "fac_type": "MS", "school_type": " ", "sb_district": "2", "jurisdiction": "Orlando", "address": "9290 Lee Vista Blvd", "city": "Orlando", "zip": "32829", "learn_comm": "Southeast"}, "geometry": {"type": "Point", "coordinates": [-81.2571299824512, 28.4745734144795]}}, {"type": "Feature", "properties": {"loc_no": "1461", "loc_no_raw": "1461", "name": "Hidden Oaks", "fac_type": "ES", "school_type": " ", "sb_district": "2", "jurisdiction": "Unincorporated", "address": "9051 Suburban Dr", "city": "Orlando", "zip": "32829", "learn_comm": "Southeast"}, "geometry": {"type": "Point", "coordinates": [-81.2596022121361, 28.4898054067466]}}, {"type": "Feature", "properties": {"loc_no": "0891", "loc_no_raw": "891", "name": "McCoy", "fac_type": "ES", "school_type": " ", "sb_district": "3", "jurisdiction": "Orlando", "address": "5225 S Semoran Blvd", "city": "Orlando", "zip": "32822", "learn_comm": "Southeast"}, "geometry": {"type": "Point", "coordinates": [-81.308466811104, 28.4865393050369]}}, {"type": "Feature", "properties": {"loc_no": "0222", "loc_no_raw": "222", "name": "Avalon", "fac_type": "ES", "school_type": " ", "sb_district": "2", "jurisdiction": "Unincorporated", "address": "13500 Tanja King Blvd", "city": "Orlando", "zip": "32828", "learn_comm": "East"}, "geometry": {"type": "Point", "coordinates": [-81.148491755816, 28.5108135902719]}}, {"type": "Feature", "properties": {"loc_no": "1991", "loc_no_raw": "1991", "name": "Timber Lakes", "fac_type": "ES", "school_type": " ", "sb_district": "2", "jurisdiction": "Unincorporated", "address": "2149 Crown Hill Blvd", "city": "Orlando", "zip": "32828", "learn_comm": "East"}, "geometry": {"type": "Point", "coordinates": [-81.1531603695136, 28.5270468266402]}}, {"type": "Feature", "properties": {"loc_no": "1951", "loc_no_raw": "1951", "name": "Lake Nona", "fac_type": "HS", "school_type": " ", "sb_district": "2", "jurisdiction": "Orlando", "address": "12500 Narcoossee Rd", "city": "Orlando", "zip": "32827", "learn_comm": "Southeast"}, "geometry": {"type": "Point", "coordinates": [-81.2472614766652, 28.3808473660482]}}, {"type": "Feature", "properties": {"loc_no": "0252", "loc_no_raw": "252", "name": "Ocoee", "fac_type": "HS", "school_type": " ", "sb_district": "7", "jurisdiction": "Ocoee", "address": "1925 Ocoee Crown Point Pkwy", "city": "Ocoee", "zip": "34761", "learn_comm": "West"}, "geometry": {"type": "Point", "coordinates": [-81.5578875980642, 28.6022984753108]}}, {"type": "Feature", "properties": {"loc_no": "0511", "loc_no_raw": "511", "name": "Dillard Street", "fac_type": "ES", "school_type": " ", "sb_district": "7", "jurisdiction": "Winter Garden", "address": "311 N Dillard St", "city": "Winter Garden", "zip": "34787", "learn_comm": "West"}, "geometry": {"type": "Point", "coordinates": [-81.5814366833001, 28.5706973478068]}}, {"type": "Feature", "properties": {"loc_no": "0216", "loc_no_raw": "216", "name": "Citrus", "fac_type": "ES", "school_type": " ", "sb_district": "7", "jurisdiction": "Ocoee", "address": "87 N Clarke Rd", "city": "Ocoee", "zip": "34761", "learn_comm": "West"}, "geometry": {"type": "Point", "coordinates": [-81.5152158539393, 28.5708502250108]}}, {"type": "Feature", "properties": {"loc_no": "0282", "loc_no_raw": "282", "name": "Apopka", "fac_type": "MS", "school_type": " ", "sb_district": "7", "jurisdiction": "Apopka", "address": "425 N Park Ave", "city": "Apopka", "zip": "32712", "learn_comm": "North"}, "geometry": {"type": "Point", "coordinates": [-81.5072602421053, 28.6856768794985]}}, {"type": "Feature", "properties": {"loc_no": "1011", "loc_no_raw": "1011", "name": "Rock Springs", "fac_type": "ES", "school_type": " ", "sb_district": "7", "jurisdiction": "Apopka", "address": "2400 N Rock Springs Rd", "city": "Apopka", "zip": "32712", "learn_comm": "North"}, "geometry": {"type": "Point", "coordinates": [-81.5111776977829, 28.720015634835]}}, {"type": "Feature", "properties": {"loc_no": "1751", "loc_no_raw": "1751", "name": "Wolf Lake", "fac_type": "ES", "school_type": " ", "sb_district": "7", "jurisdiction": "Apopka", "address": "1771 W Ponkan Rd", "city": "Apopka", "zip": "32712", "learn_comm": "North"}, "geometry": {"type": "Point", "coordinates": [-81.5461733304471, 28.7297962176249]}}, {"type": "Feature", "properties": {"loc_no": "1702", "loc_no_raw": "1702", "name": "Wolf Lake", "fac_type": "MS", "school_type": " ", "sb_district": "7", "jurisdiction": "Apopka", "address": "1725 W Ponkan Rd", "city": "Apopka", "zip": "32712", "learn_comm": "North"}, "geometry": {"type": "Point", "coordinates": [-81.5408081422054, 28.7296131214123]}}, {"type": "Feature", "properties": {"loc_no": "0241", "loc_no_raw": "241", "name": "Lake Gem", "fac_type": "ES", "school_type": " ", "sb_district": "6", "jurisdiction": "Unincorporated", "address": "4801 Bloodhound St", "city": "Orlando", "zip": "32818", "learn_comm": "North"}, "geometry": {"type": "Point", "coordinates": [-81.4875996814221, 28.6049730219662]}}, {"type": "Feature", "properties": {"loc_no": "1321", "loc_no_raw": "1321", "name": "Maxey", "fac_type": "ES", "school_type": " ", "sb_district": "7", "jurisdiction": "Unincorporated", "address": "602 E. Storey Rd", "city": "Winter Garden", "zip": "34787", "learn_comm": "West"}, "geometry": {"type": "Point", "coordinates": [-81.5759985388408, 28.5577571759758]}}, {"type": "Feature", "properties": {"loc_no": "0361", "loc_no_raw": "361", "name": "Tildenville", "fac_type": "ES", "school_type": " ", "sb_district": "7", "jurisdiction": "Unincorporated", "address": "1221 Brick Rd", "city": "Winter Garden", "zip": "34787", "learn_comm": "West"}, "geometry": {"type": "Point", "coordinates": [-81.6066181693331, 28.5579249383479]}}, {"type": "Feature", "properties": {"loc_no": "0401", "loc_no_raw": "401", "name": "Pinewood", "fac_type": "ES", "school_type": " ", "sb_district": "6", "jurisdiction": "Unincorporated", "address": "3005 N Apopka Vineland Rd", "city": "Orlando", "zip": "32818", "learn_comm": "North"}, "geometry": {"type": "Point", "coordinates": [-81.4911337518767, 28.5836220101075]}}, {"type": "Feature", "properties": {"loc_no": "1542", "loc_no_raw": "1542", "name": "Wekiva", "fac_type": "HS", "school_type": " ", "sb_district": "7", "jurisdiction": "Unincorporated", "address": "2501 N Hiawassee Rd", "city": "Apopka", "zip": "32703", "learn_comm": "North"}, "geometry": {"type": "Point", "coordinates": [-81.473339705382, 28.6381634794842]}}, {"type": "Feature", "properties": {"loc_no": "1671", "loc_no_raw": "1671", "name": "Piedmont Lakes", "fac_type": "MS", "school_type": " ", "sb_district": "7", "jurisdiction": "Unincorporated", "address": "2601 Lakeville Rd", "city": "Apopka", "zip": "32703", "learn_comm": "North"}, "geometry": {"type": "Point", "coordinates": [-81.4783002853402, 28.6384705383985]}}, {"type": "Feature", "properties": {"loc_no": "1361", "loc_no_raw": "1361", "name": "Wheatley", "fac_type": "ES", "school_type": " ", "sb_district": "7", "jurisdiction": "Unincorporated", "address": "1475 Marvin C Zander Ave", "city": "Apopka", "zip": "32703", "learn_comm": "North"}, "geometry": {"type": "Point", "coordinates": [-81.5124207480554, 28.656081394256]}}, {"type": "Feature", "properties": {"loc_no": "0841", "loc_no_raw": "841", "name": "Spring Lake", "fac_type": "ES", "school_type": " ", "sb_district": "7", "jurisdiction": "Ocoee", "address": "1105 Sarah Lee Ln", "city": "Ocoee", "zip": "34761", "learn_comm": "North"}, "geometry": {"type": "Point", "coordinates": [-81.5239131405361, 28.5878447607407]}}, {"type": "Feature", "properties": {"loc_no": "1531", "loc_no_raw": "1531", "name": "Ocoee", "fac_type": "ES", "school_type": " ", "sb_district": "7", "jurisdiction": "Ocoee", "address": "400 S Lakewood Ave", "city": "Ocoee", "zip": "34761", "learn_comm": "West"}, "geometry": {"type": "Point", "coordinates": [-81.5413321271398, 28.5636720436187]}}, {"type": "Feature", "properties": {"loc_no": "0352", "loc_no_raw": "352", "name": "Lakeview", "fac_type": "MS", "school_type": " ", "sb_district": "7", "jurisdiction": "Winter Garden", "address": "1200 W Bay St", "city": "Winter Garden", "zip": "34787", "learn_comm": "West"}, "geometry": {"type": "Point", "coordinates": [-81.6020257352197, 28.5649009112443]}}, {"type": "Feature", "properties": {"loc_no": "0461", "loc_no_raw": "461", "name": "Zellwood", "fac_type": "ES", "school_type": " ", "sb_district": "7", "jurisdiction": "Unincorporated", "address": "3551 Washington Ave", "city": "Zellwood", "zip": "32798", "learn_comm": "North"}, "geometry": {"type": "Point", "coordinates": [-81.6007590185801, 28.7353503490644]}}, {"type": "Feature", "properties": {"loc_no": "0821", "loc_no_raw": "821", "name": "Lovell", "fac_type": "ES", "school_type": " ", "sb_district": "7", "jurisdiction": "Unincorporated", "address": "815 Roger Williams Rd", "city": "Apopka", "zip": "32703", "learn_comm": "North"}, "geometry": {"type": "Point", "coordinates": [-81.4836009041971, 28.6684655567206]}}, {"type": "Feature", "properties": {"loc_no": "0991", "loc_no_raw": "991", "name": "Clay Springs", "fac_type": "ES", "school_type": " ", "sb_district": "7", "jurisdiction": "Unincorporated", "address": "555 N Wekiva Springs Rd", "city": "Apopka", "zip": "32712", "learn_comm": "North"}, "geometry": {"type": "Point", "coordinates": [-81.465790605572, 28.6891565926629]}}, {"type": "Feature", "properties": {"loc_no": "1521", "loc_no_raw": "1521", "name": "Apopka", "fac_type": "HS", "school_type": " ", "sb_district": "7", "jurisdiction": "Apopka", "address": "555 W Martin St", "city": "Apopka", "zip": "32712", "learn_comm": "North"}, "geometry": {"type": "Point", "coordinates": [-81.5243063727161, 28.6923050916276]}}, {"type": "Feature", "properties": {"loc_no": "0541", "loc_no_raw": "541", "name": "Dream Lake", "fac_type": "ES", "school_type": " ", "sb_district": "7", "jurisdiction": "Apopka", "address": "500 N Park Ave", "city": "Apopka", "zip": "32712", "learn_comm": "North"}, "geometry": {"type": "Point", "coordinates": [-81.5104325341283, 28.6894256928814]}}, {"type": "Feature", "properties": {"loc_no": "1282", "loc_no_raw": "1282", "name": "Apopka", "fac_type": "ES", "school_type": " ", "sb_district": "7", "jurisdiction": "Apopka", "address": "311 Vick Rd", "city": "Apopka", "zip": "32713", "learn_comm": "North"}, "geometry": {"type": "Point", "coordinates": [-81.5247184105839, 28.6843013746851]}}, {"type": "Feature", "properties": {"loc_no": "0421", "loc_no_raw": "421", "name": "Lockhart", "fac_type": "ES", "school_type": " ", "sb_district": "7", "jurisdiction": "Unincorporated", "address": "7500 Edgewater Dr", "city": "Orlando", "zip": "32810", "learn_comm": "North"}, "geometry": {"type": "Point", "coordinates": [-81.4423377201377, 28.6234501709076]}}, {"type": "Feature", "properties": {"loc_no": "0342", "loc_no_raw": "342", "name": "Ocoee", "fac_type": "MS", "school_type": " ", "sb_district": "7", "jurisdiction": "Ocoee", "address": "300 S Bluford Ave", "city": "Ocoee", "zip": "34761", "learn_comm": "West"}, "geometry": {"type": "Point", "coordinates": [-81.5428465551385, 28.5670808426328]}}, {"type": "Feature", "properties": {"loc_no": "0141", "loc_no_raw": "141", "name": "Lakeville", "fac_type": "ES", "school_type": " ", "sb_district": "7", "jurisdiction": "Apopka", "address": "2015 Lakeville Rd", "city": "Apopka", "zip": "32703", "learn_comm": "North"}, "geometry": {"type": "Point", "coordinates": [-81.4783296325948, 28.6460464379658]}}, {"type": "Feature", "properties": {"loc_no": "1181", "loc_no_raw": "1181", "name": "Dommerich", "fac_type": "ES", "school_type": " ", "sb_district": "6", "jurisdiction": "Maitland", "address": "601 N. Thistle Ln", "city": "Maitland", "zip": "32751", "learn_comm": "East"}, "geometry": {"type": "Point", "coordinates": [-81.3398530036411, 28.6317682077482]}}, {"type": "Feature", "properties": {"loc_no": "0731", "loc_no_raw": "731", "name": "Maitland", "fac_type": "MS", "school_type": " ", "sb_district": "6", "jurisdiction": "Maitland", "address": "701 Thistle Ln", "city": "Maitland", "zip": "32751", "learn_comm": "East"}, "geometry": {"type": "Point", "coordinates": [-81.3440559746634, 28.6343508540826]}}, {"type": "Feature", "properties": {"loc_no": "0861", "loc_no_raw": "861", "name": "Rolling Hills", "fac_type": "ES", "school_type": " ", "sb_district": "6", "jurisdiction": "Unincorporated", "address": "4903 Donovan St", "city": "Orlando", "zip": "32808", "learn_comm": "North"}, "geometry": {"type": "Point", "coordinates": [-81.4470490908214, 28.5906280017568]}}, {"type": "Feature", "properties": {"loc_no": "0671", "loc_no_raw": "671", "name": "Evans", "fac_type": "HS", "school_type": " ", "sb_district": "6", "jurisdiction": "Unincorporated", "address": "4949 Silver Star Rd", "city": "Orlando", "zip": "32808", "learn_comm": "North"}, "geometry": {"type": "Point", "coordinates": [-81.4494122623591, 28.5807994159817]}}, {"type": "Feature", "properties": {"loc_no": "1251", "loc_no_raw": "1251", "name": "Riverside", "fac_type": "ES", "school_type": " ", "sb_district": "6", "jurisdiction": "Unincorporated", "address": "3125 Pembrook Ave", "city": "Orlando", "zip": "32810", "learn_comm": "North"}, "geometry": {"type": "Point", "coordinates": [-81.4205952497473, 28.6338168492504]}}, {"type": "Feature", "properties": {"loc_no": "0881", "loc_no_raw": "881", "name": "Hiawassee", "fac_type": "ES", "school_type": " ", "sb_district": "5", "jurisdiction": "Unincorporated", "address": "6800 Hennepin Blvd", "city": "Orlando", "zip": "32818", "learn_comm": "West"}, "geometry": {"type": "Point", "coordinates": [-81.4731783272935, 28.5673534252588]}}, {"type": "Feature", "properties": {"loc_no": "0611", "loc_no_raw": "611", "name": "Azalea Park", "fac_type": "ES", "school_type": " ", "sb_district": "6", "jurisdiction": "Orlando", "address": "1 Carol Ave", "city": "Orlando", "zip": "32807", "learn_comm": "East"}, "geometry": {"type": "Point", "coordinates": [-81.3141005314463, 28.5441630139149]}}, {"type": "Feature", "properties": {"loc_no": "1241", "loc_no_raw": "1241", "name": "Meadowbrook", "fac_type": "MS", "school_type": " ", "sb_district": "6", "jurisdiction": "Unincorporated", "address": "6000 North Ln", "city": "Orlando", "zip": "32808", "learn_comm": "North"}, "geometry": {"type": "Point", "coordinates": [-81.4631543351532, 28.5951339432984]}}, {"type": "Feature", "properties": {"loc_no": "1431", "loc_no_raw": "1431", "name": "Ridgewood Park", "fac_type": "ES", "school_type": " ", "sb_district": "6", "jurisdiction": "Unincorporated", "address": "3401 Pioneer Rd", "city": "Orlando", "zip": "32808", "learn_comm": "North"}, "geometry": {"type": "Point", "coordinates": [-81.4616617929495, 28.5857124643537]}}, {"type": "Feature", "properties": {"loc_no": "1351", "loc_no_raw": "1351", "name": "Hungerford", "fac_type": "ES", "school_type": " ", "sb_district": "6", "jurisdiction": "Eatonville", "address": "230 College Ave", "city": "Maitland", "zip": "32751", "learn_comm": "North"}, "geometry": {"type": "Point", "coordinates": [-81.3832809900647, 28.6145295547248]}}, {"type": "Feature", "properties": {"loc_no": "0311", "loc_no_raw": "311", "name": "Killarney", "fac_type": "ES", "school_type": " ", "sb_district": "6", "jurisdiction": "Unincorporated", "address": "2401 Wellington Blvd", "city": "Winter Park", "zip": "32789", "learn_comm": "North"}, "geometry": {"type": "Point", "coordinates": [-81.3826198415686, 28.5958325340185]}}, {"type": "Feature", "properties": {"loc_no": "0721", "loc_no_raw": "721", "name": "Lockhart", "fac_type": "MS", "school_type": " ", "sb_district": "6", "jurisdiction": "Unincorporated", "address": "3411 Doctor Love Rd", "city": "Orlando", "zip": "32810", "learn_comm": "North"}, "geometry": {"type": "Point", "coordinates": [-81.4212281206601, 28.6231409028471]}}, {"type": "Feature", "properties": {"loc_no": "0651", "loc_no_raw": "651", "name": "Lake Weston", "fac_type": "ES", "school_type": " ", "sb_district": "6", "jurisdiction": "Unincorporated", "address": "5500 Milan Dr", "city": "Orlando", "zip": "32810", "learn_comm": "North"}, "geometry": {"type": "Point", "coordinates": [-81.4117116740655, 28.6121321967664]}}, {"type": "Feature", "properties": {"loc_no": "0201", "loc_no_raw": "201", "name": "Hillcrest Magnet", "fac_type": "ES", "school_type": " ", "sb_district": "6", "jurisdiction": "Orlando", "address": "1010 E Concord St", "city": "Orlando", "zip": "32803", "learn_comm": "Southwest"}, "geometry": {"type": "Point", "coordinates": [-81.3654670983671, 28.5508417273236]}}, {"type": "Feature", "properties": {"loc_no": "0131", "loc_no_raw": "131", "name": "Howard Magnet", "fac_type": "MS", "school_type": " ", "sb_district": "6", "jurisdiction": "Orlando", "address": "800 E Robinson St", "city": "Orlando", "zip": "32801", "learn_comm": "Southwest"}, "geometry": {"type": "Point", "coordinates": [-81.3677079810373, 28.54548131683]}}, {"type": "Feature", "properties": {"loc_no": "0921", "loc_no_raw": "921", "name": "Robinswood", "fac_type": "MS", "school_type": " ", "sb_district": "5", "jurisdiction": "Unincorporated", "address": "6305 Balboa Dr", "city": "Orlando", "zip": "32818", "learn_comm": "West"}, "geometry": {"type": "Point", "coordinates": [-81.4710337296151, 28.5603890177134]}}, {"type": "Feature", "properties": {"loc_no": "0521", "loc_no_raw": "521", "name": "Lake Silver", "fac_type": "ES", "school_type": " ", "sb_district": "6", "jurisdiction": "Orlando", "address": "2401 N Rio Grande Ave", "city": "Orlando", "zip": "32804", "learn_comm": "North"}, "geometry": {"type": "Point", "coordinates": [-81.400772858545, 28.5737833755534]}}, {"type": "Feature", "properties": {"loc_no": "1271", "loc_no_raw": "1271", "name": "Rosemont", "fac_type": "ES", "school_type": " ", "sb_district": "6", "jurisdiction": "Orlando", "address": "4650 Point Look Out Rd", "city": "Orlando", "zip": "32808", "learn_comm": "North"}, "geometry": {"type": "Point", "coordinates": [-81.4401676013643, 28.6036788608251]}}, {"type": "Feature", "properties": {"loc_no": "0581", "loc_no_raw": "581", "name": "College Park", "fac_type": "MS", "school_type": " ", "sb_district": "6", "jurisdiction": "Orlando", "address": "1201 Maury Rd", "city": "Orlando", "zip": "32804", "learn_comm": "North"}, "geometry": {"type": "Point", "coordinates": [-81.3970232944187, 28.5842141651997]}}, {"type": "Feature", "properties": {"loc_no": "1221", "loc_no_raw": "1221", "name": "Lake Sybelia", "fac_type": "ES", "school_type": " ", "sb_district": "6", "jurisdiction": "Maitland", "address": "600 Sandspur Rd", "city": "Maitland", "zip": "32751", "learn_comm": "North"}, "geometry": {"type": "Point", "coordinates": [-81.371228652175, 28.6314133017983]}}, {"type": "Feature", "properties": {"loc_no": "0121", "loc_no_raw": "121", "name": "Edgewater", "fac_type": "HS", "school_type": " ", "sb_district": "6", "jurisdiction": "Orlando", "address": "3100 Edgewater Dr", "city": "Orlando", "zip": "32804", "learn_comm": "North"}, "geometry": {"type": "Point", "coordinates": [-81.3937522622656, 28.5790785181051]}}, {"type": "Feature", "properties": {"loc_no": "0251", "loc_no_raw": "251", "name": "Princeton", "fac_type": "ES", "school_type": " ", "sb_district": "6", "jurisdiction": "Orlando", "address": "311 W Princeton St", "city": "Orlando", "zip": "32804", "learn_comm": "North"}, "geometry": {"type": "Point", "coordinates": [-81.3840345084399, 28.5720541308838]}}, {"type": "Feature", "properties": {"loc_no": "0791", "loc_no_raw": "791", "name": "Mollie Ray", "fac_type": "ES", "school_type": " ", "sb_district": "5", "jurisdiction": "Unincorporated", "address": "2000 Beecher St", "city": "Orlando", "zip": "32808", "learn_comm": "West"}, "geometry": {"type": "Point", "coordinates": [-81.449700085769, 28.5708606778386]}}, {"type": "Feature", "properties": {"loc_no": "1133", "loc_no_raw": "1133", "name": "Westridge", "fac_type": "MS", "school_type": " ", "sb_district": "5", "jurisdiction": "Unincorporated", "address": "3800 W Oak Ridge Rd", "city": "Orlando", "zip": "32809", "learn_comm": "Southwest"}, "geometry": {"type": "Point", "coordinates": [-81.4210492171642, 28.4710482254404]}}, {"type": "Feature", "properties": {"loc_no": "0236", "loc_no_raw": "236", "name": "Eagle's Nest", "fac_type": "ES", "school_type": " ", "sb_district": "5", "jurisdiction": "Orlando", "address": "5353 Metrowest Blvd", "city": "Orlando", "zip": "32811", "learn_comm": "Southwest"}, "geometry": {"type": "Point", "coordinates": [-81.4530996661654, 28.5169422094998]}}, {"type": "Feature", "properties": {"loc_no": "1491", "loc_no_raw": "1491", "name": "Palmetto", "fac_type": "ES", "school_type": " ", "sb_district": "5", "jurisdiction": "Unincorporated", "address": "2015 Duskin Ave", "city": "Orlando", "zip": "32839", "learn_comm": "Southwest"}, "geometry": {"type": "Point", "coordinates": [-81.4070287685732, 28.4804896195201]}}, {"type": "Feature", "properties": {"loc_no": "0691", "loc_no_raw": "691", "name": "Oak Ridge", "fac_type": "HS", "school_type": " ", "sb_district": "5", "jurisdiction": "Unincorporated", "address": "700 W Oak Ridge Rd", "city": "Orlando", "zip": "32809", "learn_comm": "Southeast"}, "geometry": {"type": "Point", "coordinates": [-81.3859974901006, 28.4700574492062]}}, {"type": "Feature", "properties": {"loc_no": "0621", "loc_no_raw": "621", "name": "Pine Hills", "fac_type": "ES", "school_type": " ", "sb_district": "5", "jurisdiction": "Unincorporated", "address": "1006 Ferndell Rd", "city": "Orlando", "zip": "32808", "learn_comm": "West"}, "geometry": {"type": "Point", "coordinates": [-81.4574137086578, 28.5603367607367]}}, {"type": "Feature", "properties": {"loc_no": "5871", "loc_no_raw": "5871", "name": "Carver", "fac_type": "MS", "school_type": " ", "sb_district": "5", "jurisdiction": "Orlando", "address": "4500 W Columbia St", "city": "Orlando", "zip": "32811", "learn_comm": "West"}, "geometry": {"type": "Point", "coordinates": [-81.4381954681839, 28.5251385270674]}}, {"type": "Feature", "properties": {"loc_no": "5841", "loc_no_raw": "5841", "name": "Eccleston", "fac_type": "ES", "school_type": " ", "sb_district": "5", "jurisdiction": "Orlando", "address": "1500 Aaron Ave", "city": "Orlando", "zip": "32811", "learn_comm": "Southwest"}, "geometry": {"type": "Point", "coordinates": [-81.4325867499317, 28.5246633713951]}}, {"type": "Feature", "properties": {"loc_no": "1261", "loc_no_raw": "1261", "name": "Sadler", "fac_type": "ES", "school_type": " ", "sb_district": "5", "jurisdiction": "Unincorporated", "address": "4000 W Oak Ridge Rd", "city": "Orlando", "zip": "32809", "learn_comm": "Southwest"}, "geometry": {"type": "Point", "coordinates": [-81.4266709639018, 28.4708310153713]}}, {"type": "Feature", "properties": {"loc_no": "0701", "loc_no_raw": "701", "name": "Catalina", "fac_type": "ES", "school_type": " ", "sb_district": "5", "jurisdiction": "Orlando", "address": "2448 29th St", "city": "Orlando", "zip": "32805", "learn_comm": "Southwest"}, "geometry": {"type": "Point", "coordinates": [-81.4092135473745, 28.5122605543184]}}, {"type": "Feature", "properties": {"loc_no": "0641", "loc_no_raw": "641", "name": "Rock Lake", "fac_type": "ES", "school_type": " ", "sb_district": "5", "jurisdiction": "Orlando", "address": "408 N Tampa Ave", "city": "Orlando", "zip": "32805", "learn_comm": "West"}, "geometry": {"type": "Point", "coordinates": [-81.40688480837, 28.5483119798669]}}, {"type": "Feature", "properties": {"loc_no": "0811", "loc_no_raw": "811", "name": "Tangelo Park", "fac_type": "ES", "school_type": " ", "sb_district": "5", "jurisdiction": "Unincorporated", "address": "5115 Anzio St", "city": "Orlando", "zip": "32819", "learn_comm": "Southwest"}, "geometry": {"type": "Point", "coordinates": [-81.4493291041287, 28.4572805654847]}}, {"type": "Feature", "properties": {"loc_no": "1553", "loc_no_raw": "1553", "name": "Millennia", "fac_type": "ES", "school_type": " ", "sb_district": "5", "jurisdiction": "Orlando", "address": "5301 Cypress Creek Blvd", "city": "Orlando", "zip": "32811", "learn_comm": "Southwest"}, "geometry": {"type": "Point", "coordinates": [-81.4440184099307, 28.4860654720884]}}, {"type": "Feature", "properties": {"loc_no": "1621", "loc_no_raw": "1621", "name": "Shingle Creek", "fac_type": "ES", "school_type": " ", "sb_district": "5", "jurisdiction": "Orlando", "address": "5620 Harcourt Ave", "city": "Orlando", "zip": "32839", "learn_comm": "Southwest"}, "geometry": {"type": "Point", "coordinates": [-81.4341879726825, 28.4804069933562]}}, {"type": "Feature", "properties": {"loc_no": "1421", "loc_no_raw": "1421", "name": "Ivey Lane", "fac_type": "ES", "school_type": " ", "sb_district": "5", "jurisdiction": "Orlando", "address": "209 Silverton St", "city": "Orlando", "zip": "32811", "learn_comm": "West"}, "geometry": {"type": "Point", "coordinates": [-81.4369958756944, 28.5443913405647]}}, {"type": "Feature", "properties": {"loc_no": "0151", "loc_no_raw": "151", "name": "Memorial", "fac_type": "MS", "school_type": " ", "sb_district": "5", "jurisdiction": "Orlando", "address": "2220 29th St", "city": "Orlando", "zip": "32805", "learn_comm": "Southwest"}, "geometry": {"type": "Point", "coordinates": [-81.40431311632, 28.510709544198]}}, {"type": "Feature", "properties": {"loc_no": "0231", "loc_no_raw": "231", "name": "Pineloch", "fac_type": "ES", "school_type": " ", "sb_district": "5", "jurisdiction": "Unincorporated", "address": "3101 Woods Ave", "city": "Orlando", "zip": "32805", "learn_comm": "Southwest"}, "geometry": {"type": "Point", "coordinates": [-81.393866945808, 28.509580411597]}}, {"type": "Feature", "properties": {"loc_no": "1331", "loc_no_raw": "1331", "name": "Orange Center", "fac_type": "ES", "school_type": " ", "sb_district": "5", "jurisdiction": "Orlando", "address": "621 Texas Ave", "city": "Orlando", "zip": "32805", "learn_comm": "West"}, "geometry": {"type": "Point", "coordinates": [-81.4079716573077, 28.5342106467439]}}, {"type": "Feature", "properties": {"loc_no": "5711", "loc_no_raw": "5711", "name": "Jones", "fac_type": "HS", "school_type": " ", "sb_district": "5", "jurisdiction": "Orlando", "address": "801 S Rio Grande Ave", "city": "Orlando", "zip": "32805", "learn_comm": "Southwest"}, "geometry": {"type": "Point", "coordinates": [-81.3992065993493, 28.5329531990266]}}, {"type": "Feature", "properties": {"loc_no": "0232", "loc_no_raw": "232", "name": "West Creek", "fac_type": "ES", "school_type": " ", "sb_district": "4", "jurisdiction": "Unincorporated", "address": "5119 Tacon Dr", "city": "Orlando", "zip": "32837", "learn_comm": "Southwest"}, "geometry": {"type": "Point", "coordinates": [-81.4568097647933, 28.3580102447575]}}, {"type": "Feature", "properties": {"loc_no": "1071", "loc_no_raw": "1071", "name": "Bay Meadows", "fac_type": "ES", "school_type": " ", "sb_district": "4", "jurisdiction": "Unincorporated", "address": "9150 Apopka Vineland Rd", "city": "Orlando", "zip": "32836", "learn_comm": "Southwest"}, "geometry": {"type": "Point", "coordinates": [-81.5059924532676, 28.4343958579986]}}, {"type": "Feature", "properties": {"loc_no": "1191", "loc_no_raw": "1191", "name": "Hunter\u2019s Creek", "fac_type": "ES", "school_type": " ", "sb_district": "3", "jurisdiction": "Unincorporated", "address": "4650 Town Center Blvd", "city": "Orlando", "zip": "32837", "learn_comm": "Southwest"}, "geometry": {"type": "Point", "coordinates": [-81.4316978119316, 28.3589322217499]}}, {"type": "Feature", "properties": {"loc_no": "1632", "loc_no_raw": "1632", "name": "Olympia", "fac_type": "HS", "school_type": " ", "sb_district": "4", "jurisdiction": "Unincorporated", "address": "4301 S Apopka Vineland Rd", "city": "Orlando", "zip": "32835", "learn_comm": "West"}, "geometry": {"type": "Point", "coordinates": [-81.5063749240158, 28.4986441328872]}}, {"type": "Feature", "properties": {"loc_no": "1762", "loc_no_raw": "1762", "name": "Bridgewater", "fac_type": "MS", "school_type": " ", "sb_district": "4", "jurisdiction": "Unincorporated", "address": "5600 Tiny Rd", "city": "Winter Garden", "zip": "34787", "learn_comm": "West"}, "geometry": {"type": "Point", "coordinates": [-81.6137887789103, 28.4802358174023]}}, {"type": "Feature", "properties": {"loc_no": "1731", "loc_no_raw": "1731", "name": "Sand Lake", "fac_type": "ES", "school_type": " ", "sb_district": "4", "jurisdiction": "Unincorporated", "address": "8301 Buena Vista Woods Blvd", "city": "Orlando", "zip": "32836", "learn_comm": "Southwest"}, "geometry": {"type": "Point", "coordinates": [-81.4927820459519, 28.411697612566]}}, {"type": "Feature", "properties": {"loc_no": "1571", "loc_no_raw": "1571", "name": "Lake Whitney", "fac_type": "ES", "school_type": " ", "sb_district": "4", "jurisdiction": "Unincorporated", "address": "1351 Windermere Rd", "city": "Winter Garden", "zip": "34787", "learn_comm": "West"}, "geometry": {"type": "Point", "coordinates": [-81.5566835515061, 28.5260274060512]}}, {"type": "Feature", "properties": {"loc_no": "0253", "loc_no_raw": "253", "name": "West Oaks", "fac_type": "ES", "school_type": " ", "sb_district": "5", "jurisdiction": "Unincorporated", "address": "905 Dorscher Rd", "city": "Orlando", "zip": "32818", "learn_comm": "West"}, "geometry": {"type": "Point", "coordinates": [-81.4826564978632, 28.5567167939763]}}, {"type": "Feature", "properties": {"loc_no": "1611", "loc_no_raw": "1611", "name": "Frangus", "fac_type": "ES", "school_type": " ", "sb_district": "4", "jurisdiction": "Unincorporated", "address": "380 Killington Way", "city": "Orlando", "zip": "32835", "learn_comm": "West"}, "geometry": {"type": "Point", "coordinates": [-81.4954757929544, 28.54559301761]}}, {"type": "Feature", "properties": {"loc_no": "1231", "loc_no_raw": "1231", "name": "Windermere", "fac_type": "ES", "school_type": " ", "sb_district": "4", "jurisdiction": "Windermere", "address": "11125 Park Ave", "city": "Windermere", "zip": "34786", "learn_comm": "West"}, "geometry": {"type": "Point", "coordinates": [-81.5443555145789, 28.508510895456]}}, {"type": "Feature", "properties": {"loc_no": "0322", "loc_no_raw": "322", "name": "Whispering Oak", "fac_type": "ES", "school_type": " ", "sb_district": "4", "jurisdiction": "Winter Garden", "address": "15300 Stoneybrook West Pkwy", "city": "Winter Garden", "zip": "34787", "learn_comm": "West"}, "geometry": {"type": "Point", "coordinates": [-81.6120266577502, 28.5138295647748]}}, {"type": "Feature", "properties": {"loc_no": "1031", "loc_no_raw": "1031", "name": "Southwest", "fac_type": "MS", "school_type": " ", "sb_district": "4", "jurisdiction": "Unincorporated", "address": "6450 Dr Phillips Blvd", "city": "Orlando", "zip": "32819", "learn_comm": "Southwest"}, "geometry": {"type": "Point", "coordinates": [-81.4937334394296, 28.4690580392466]}}, {"type": "Feature", "properties": {"loc_no": "0931", "loc_no_raw": "931", "name": "Dr Phillips", "fac_type": "HS", "school_type": " ", "sb_district": "4", "jurisdiction": "Orlando", "address": "6500 Turkey Lake Rd", "city": "Orlando", "zip": "32819", "learn_comm": "Southwest"}, "geometry": {"type": "Point", "coordinates": [-81.4780097791103, 28.471195217043]}}, {"type": "Feature", "properties": {"loc_no": "1776", "loc_no_raw": "1776", "name": "Sunset Park", "fac_type": "ES", "school_type": " ", "sb_district": "4", "jurisdiction": "Unincorporated", "address": "12050 Overstreet Rd", "city": "Windermere", "zip": "34786", "learn_comm": "Southwest"}, "geometry": {"type": "Point", "coordinates": [-81.5590644203708, 28.4595264857808]}}, {"type": "Feature", "properties": {"loc_no": "1291", "loc_no_raw": "1291", "name": "Chain of Lakes", "fac_type": "MS", "school_type": " ", "sb_district": "4", "jurisdiction": "Unincorporated", "address": "8700 Conroy Windermere Rd", "city": "Orlando", "zip": "32835", "learn_comm": "Southwest"}, "geometry": {"type": "Point", "coordinates": [-81.5043268997127, 28.4925118657082]}}, {"type": "Feature", "properties": {"loc_no": "0961", "loc_no_raw": "961", "name": "Palm Lake", "fac_type": "ES", "school_type": " ", "sb_district": "4", "jurisdiction": "Unincorporated", "address": "8000 Pin Oak Dr", "city": "Orlando", "zip": "32819", "learn_comm": "Southwest"}, "geometry": {"type": "Point", "coordinates": [-81.4940313181058, 28.4836870784035]}}, {"type": "Feature", "properties": {"loc_no": "0381", "loc_no_raw": "381", "name": "Hunter's Creek", "fac_type": "MS", "school_type": " ", "sb_district": "4", "jurisdiction": "Unincorporated", "address": "13400 Town Loop Blvd", "city": "Orlando", "zip": "32837", "learn_comm": "Southwest"}, "geometry": {"type": "Point", "coordinates": [-81.4350568618324, 28.367846791045]}}, {"type": "Feature", "properties": {"loc_no": "1591", "loc_no_raw": "1591", "name": "Dr Phillips", "fac_type": "ES", "school_type": " ", "sb_district": "4", "jurisdiction": "Unincorporated", "address": "6909 Dr Phillips Blvd", "city": "Orlando", "zip": "32819", "learn_comm": "Southwest"}, "geometry": {"type": "Point", "coordinates": [-81.4897574665863, 28.4616912137853]}}, {"type": "Feature", "properties": {"loc_no": "1511", "loc_no_raw": "1511", "name": "West Orange", "fac_type": "HS", "school_type": " ", "sb_district": "4", "jurisdiction": "Unincorporated", "address": "1625 S Beulah Rd", "city": "Winter Garden", "zip": "34787", "learn_comm": "West"}, "geometry": {"type": "Point", "coordinates": [-81.5671795079108, 28.5422109170379]}}, {"type": "Feature", "properties": {"loc_no": "1681", "loc_no_raw": "1681", "name": "Gotha", "fac_type": "MS", "school_type": " ", "sb_district": "4", "jurisdiction": "Unincorporated", "address": "9155 Gotha Rd", "city": "Windermere", "zip": "34786", "learn_comm": "West"}, "geometry": {"type": "Point", "coordinates": [-81.5109534423621, 28.5293967845599]}}, {"type": "Feature", "properties": {"loc_no": "1501", "loc_no_raw": "1501", "name": "Oak Hill", "fac_type": "ES", "school_type": " ", "sb_district": "5", "jurisdiction": "Unincorporated", "address": "11 S Hiawassee Rd", "city": "Orlando", "zip": "32835", "learn_comm": "West"}, "geometry": {"type": "Point", "coordinates": [-81.4728300718409, 28.5408052281563]}}, {"type": "Feature", "properties": {"loc_no": "0235", "loc_no_raw": "235", "name": "Thornebrooke", "fac_type": "ES", "school_type": " ", "sb_district": "4", "jurisdiction": "Ocoee", "address": "601Thornebrooke Rd", "city": "Ocoee", "zip": "34761", "learn_comm": "West"}, "geometry": {"type": "Point", "coordinates": [-81.5348289107703, 28.5250523109178]}}, {"type": "Feature", "properties": {"loc_no": "0271", "loc_no_raw": "271", "name": "Orlo Vista", "fac_type": "ES", "school_type": " ", "sb_district": "5", "jurisdiction": "Unincorporated", "address": "3 N Hastings St", "city": "Orlando", "zip": "32835", "learn_comm": "West"}, "geometry": {"type": "Point", "coordinates": [-81.4588417019865, 28.5415841706986]}}, {"type": "Feature", "properties": {"loc_no": "1562", "loc_no_raw": "1562", "name": "Westbrooke", "fac_type": "ES", "school_type": " ", "sb_district": "4", "jurisdiction": "Ocoee", "address": "500 Tomyn Blvd", "city": "Ocoee", "zip": "34761", "learn_comm": "West"}, "geometry": {"type": "Point", "coordinates": [-81.536208103249, 28.5397460541339]}}, {"type": "Feature", "properties": {"loc_no": "1111", "loc_no_raw": "1111", "name": "Roberto Clemente", "fac_type": "MS", "school_type": " ", "sb_district": "2", "jurisdiction": "Orlando", "address": "6000 Stonewall Jackson Rd", "city": "Orlando", "zip": "32807", "learn_comm": "Southeast"}, "geometry": {"type": "Point", "coordinates": [-81.3033010092771, 28.5308920285942]}}, {"type": "Feature", "properties": {"loc_no": "1021", "loc_no_raw": "1021", "name": "Metrowest", "fac_type": "ES", "school_type": " ", "sb_district": "4", "jurisdiction": "Orlando", "address": "1801 Lake Vilma Dr", "city": "Orlando", "zip": "32835", "learn_comm": "West"}, "geometry": {"type": "Point", "coordinates": [-81.4932842044381, 28.5221761036639]}}, {"type": "Feature", "properties": {"loc_no": "1791", "loc_no_raw": "1791", "name": "Keene's Crossing", "fac_type": "ES", "school_type": " ", "sb_district": "4", "jurisdiction": "Unincorporated", "address": "5240 Keene's Pheasant Dr", "city": "Windermere", "zip": "34786", "learn_comm": "West"}, "geometry": {"type": "Point", "coordinates": [-81.6006119726091, 28.4880772334593]}}, {"type": "Feature", "properties": {"loc_no": "1081", "loc_no_raw": "1081", "name": "John Young", "fac_type": "ES", "school_type": " ", "sb_district": "3", "jurisdiction": "Unincorporated", "address": "12550 Marsfield Ave", "city": "Orlando", "zip": "32837", "learn_comm": "Southwest"}, "geometry": {"type": "Point", "coordinates": [-81.4230883867441, 28.3839007636463]}}, {"type": "Feature", "properties": {"loc_no": "1741", "loc_no_raw": "1741", "name": "Wyndham Lakes", "fac_type": "ES", "school_type": " ", "sb_district": "3", "jurisdiction": "Unincorporated", "address": "14360 Wyndham Lakes Blvd", "city": "Orlando", "zip": "32824", "learn_comm": "Southeast"}, "geometry": {"type": "Point", "coordinates": [-81.349042130197, 28.3551332340309]}}, {"type": "Feature", "properties": {"loc_no": "0301", "loc_no_raw": "301", "name": "Lake George", "fac_type": "ES", "school_type": " ", "sb_district": "3", "jurisdiction": "Unincorporated", "address": "4101 Gatlin Ave", "city": "Orlando", "zip": "32812", "learn_comm": "Southeast"}, "geometry": {"type": "Point", "coordinates": [-81.3162325440645, 28.4960956528539]}}, {"type": "Feature", "properties": {"loc_no": "0214", "loc_no_raw": "214", "name": "Endeavor", "fac_type": "ES", "school_type": " ", "sb_district": "3", "jurisdiction": "Unincorporated", "address": "13501 Balcombe Rd", "city": "Orlando", "zip": "32837", "learn_comm": "Southwest"}, "geometry": {"type": "Point", "coordinates": [-81.3981728414507, 28.3684141585955]}}, {"type": "Feature", "properties": {"loc_no": "1341", "loc_no_raw": "1341", "name": "Southwood", "fac_type": "ES", "school_type": " ", "sb_district": "3", "jurisdiction": "Unincorporated", "address": "12600 Bisted Dr", "city": "Orlando", "zip": "32824", "learn_comm": "Southeast"}, "geometry": {"type": "Point", "coordinates": [-81.3834350577522, 28.3846776664042]}}, {"type": "Feature", "properties": {"loc_no": "1651", "loc_no_raw": "1651", "name": "Cypress Creek", "fac_type": "HS", "school_type": " ", "sb_district": "3", "jurisdiction": "Unincorporated", "address": "1101 Bear Crossing Dr", "city": "Orlando", "zip": "32824", "learn_comm": "Southeast"}, "geometry": {"type": "Point", "coordinates": [-81.3792056924461, 28.3812664010554]}}, {"type": "Feature", "properties": {"loc_no": "1381", "loc_no_raw": "1381", "name": "Meadow Woods", "fac_type": "MS", "school_type": " ", "sb_district": "3", "jurisdiction": "Unincorporated", "address": "1800 Rhode Island Wood Cir", "city": "Orlando", "zip": "32824", "learn_comm": "Southeast"}, "geometry": {"type": "Point", "coordinates": [-81.3447141293399, 28.3712928078782]}}, {"type": "Feature", "properties": {"loc_no": "1441", "loc_no_raw": "1441", "name": "Shenandoah", "fac_type": "ES", "school_type": " ", "sb_district": "3", "jurisdiction": "Unincorporated", "address": "4827 Conway Rd", "city": "Orlando", "zip": "32812", "learn_comm": "Southeast"}, "geometry": {"type": "Point", "coordinates": [-81.3286563432472, 28.4837147538618]}}, {"type": "Feature", "properties": {"loc_no": "0781", "loc_no_raw": "781", "name": "Dover Shores", "fac_type": "ES", "school_type": " ", "sb_district": "6", "jurisdiction": "Orlando", "address": "1200 Gaston Foster Rd", "city": "Orlando", "zip": "32812", "learn_comm": "Southwest"}, "geometry": {"type": "Point", "coordinates": [-81.3259816838212, 28.5270475232657]}}, {"type": "Feature", "properties": {"loc_no": "0741", "loc_no_raw": "741", "name": "Sally Ride", "fac_type": "ES", "school_type": " ", "sb_district": "3", "jurisdiction": "Unincorporated", "address": "9601 11th Ave", "city": "Taft", "zip": "32824", "learn_comm": "Southeast"}, "geometry": {"type": "Point", "coordinates": [-81.3587718459618, 28.4252747842828]}}, {"type": "Feature", "properties": {"loc_no": "0851", "loc_no_raw": "851", "name": "Lancaster", "fac_type": "ES", "school_type": " ", "sb_district": "3", "jurisdiction": "Unincorporated", "address": "6700 Sheryl Ann Dr", "city": "Orlando", "zip": "32809", "learn_comm": "Southeast"}, "geometry": {"type": "Point", "coordinates": [-81.3795360700247, 28.462421233175]}}, {"type": "Feature", "properties": {"loc_no": "1151", "loc_no_raw": "1151", "name": "Walker", "fac_type": "MS", "school_type": " ", "sb_district": "3", "jurisdiction": "Unincorporated", "address": "150 Amidon Ln", "city": "Orlando", "zip": "32809", "learn_comm": "Southeast"}, "geometry": {"type": "Point", "coordinates": [-81.3744672040434, 28.4599891001081]}}, {"type": "Feature", "properties": {"loc_no": "1171", "loc_no_raw": "1171", "name": "Winegard", "fac_type": "ES", "school_type": " ", "sb_district": "3", "jurisdiction": "Unincorporated", "address": "7055 Winegard Rd", "city": "Orlando", "zip": "32809", "learn_comm": "Southeast"}, "geometry": {"type": "Point", "coordinates": [-81.3820480623825, 28.4537719402703]}}, {"type": "Feature", "properties": {"loc_no": "1662", "loc_no_raw": "1662", "name": "Freedom", "fac_type": "HS", "school_type": " ", "sb_district": "3", "jurisdiction": "Unincorporated", "address": "2500 Taft Vineland Rd", "city": "Orlando", "zip": "32837", "learn_comm": "Southwest"}, "geometry": {"type": "Point", "coordinates": [-81.4128614679002, 28.416396775974]}}, {"type": "Feature", "properties": {"loc_no": "0245", "loc_no_raw": "245", "name": "Freedom", "fac_type": "MS", "school_type": " ", "sb_district": "3", "jurisdiction": "Unincorporated", "address": "2850 Taft Vineland Rd", "city": "Orlando", "zip": "32837", "learn_comm": "Southwest"}, "geometry": {"type": "Point", "coordinates": [-81.4179511112126, 28.4159166359173]}}, {"type": "Feature", "properties": {"loc_no": "1051", "loc_no_raw": "1051", "name": "Waterbridge", "fac_type": "ES", "school_type": " ", "sb_district": "3", "jurisdiction": "Unincorporated", "address": "11100 Galvin Dr", "city": "Orlando", "zip": "32837", "learn_comm": "Southwest"}, "geometry": {"type": "Point", "coordinates": [-81.4188429463124, 28.4075980887969]}}, {"type": "Feature", "properties": {"loc_no": "0551", "loc_no_raw": "551", "name": "Conway", "fac_type": "ES", "school_type": " ", "sb_district": "3", "jurisdiction": "Unincorporated", "address": "4100 Lake Margaret Dr", "city": "Orlando", "zip": "32812", "learn_comm": "Southeast"}, "geometry": {"type": "Point", "coordinates": [-81.3339383639542, 28.5050633392239]}}, {"type": "Feature", "properties": {"loc_no": "1391", "loc_no_raw": "1391", "name": "Conway", "fac_type": "MS", "school_type": " ", "sb_district": "3", "jurisdiction": "Unincorporated", "address": "4600 Anderson Rd", "city": "Orlando", "zip": "32812", "learn_comm": "Southeast"}, "geometry": {"type": "Point", "coordinates": [-81.3280312708903, 28.5005420980302]}}, {"type": "Feature", "properties": {"loc_no": "0631", "loc_no_raw": "631", "name": "Blankner School", "fac_type": "K8", "school_type": " ", "sb_district": "3", "jurisdiction": "Orlando", "address": "2500 S Mills Ave", "city": "Orlando", "zip": "32806", "learn_comm": "Southwest"}, "geometry": {"type": "Point", "coordinates": [-81.3640140598138, 28.5140051536123]}}, {"type": "Feature", "properties": {"loc_no": "0111", "loc_no_raw": "111", "name": "Boone", "fac_type": "HS", "school_type": " ", "sb_district": "3", "jurisdiction": "Orlando", "address": "1000 E Kaley St", "city": "Orlando", "zip": "32806", "learn_comm": "Southwest"}, "geometry": {"type": "Point", "coordinates": [-81.3680812959508, 28.5177086945583]}}, {"type": "Feature", "properties": {"loc_no": "1703", "loc_no_raw": "1703", "name": "South Creek", "fac_type": "MS", "school_type": " ", "sb_district": "3", "jurisdiction": "Unincorporated", "address": "3801 E Wetherbee Rd", "city": "Orlando", "zip": "32824", "learn_comm": "Southeast"}, "geometry": {"type": "Point", "coordinates": [-81.3445217783972, 28.3946936052561]}}, {"type": "Feature", "properties": {"loc_no": "1041", "loc_no_raw": "1041", "name": "Meadow Woods", "fac_type": "ES", "school_type": " ", "sb_district": "3", "jurisdiction": "Unincorporated", "address": "500 Rhode Island Woods Cir", "city": "Orlando", "zip": "32824", "learn_comm": "Southeast"}, "geometry": {"type": "Point", "coordinates": [-81.3629706362445, 28.3714256570906]}}, {"type": "Feature", "properties": {"loc_no": "0221", "loc_no_raw": "221", "name": "Lake Como School", "fac_type": "K8", "school_type": " ", "sb_district": "6", "jurisdiction": "Orlando", "address": "2450 E Gore St", "city": "Orlando", "zip": "32806", "learn_comm": "Southwest"}, "geometry": {"type": "Point", "coordinates": [-81.35066550119, 28.530437831366]}}, {"type": "Feature", "properties": {"loc_no": "0212", "loc_no_raw": "212", "name": "Oakshire", "fac_type": "ES", "school_type": " ", "sb_district": "3", "jurisdiction": "Unincorporated", "address": "14501 Oakshire Rd", "city": "Orlando", "zip": "32824", "learn_comm": "Southeast"}, "geometry": {"type": "Point", "coordinates": [-81.3738140777713, 28.3545330547101]}}, {"type": "Feature", "properties": {"loc_no": "0901", "loc_no_raw": "901", "name": "Pershing School", "fac_type": "K8", "school_type": " ", "sb_district": "3", "jurisdiction": "Unincorporated", "address": "1800 Pershing Ave", "city": "Orlando", "zip": "32806", "learn_comm": "Southeast"}, "geometry": {"type": "Point", "coordinates": [-81.3545677606563, 28.4975720016151]}}, {"type": "Feature", "properties": {"loc_no": "1931", "loc_no_raw": "1931", "name": "Lake Nona", "fac_type": "MS", "school_type": " ", "sb_district": "2", "jurisdiction": "Orlando", "address": "13700 Narcoossee Rd", "city": "Orlando", "zip": "32827", "learn_comm": "Southeast"}, "geometry": {"type": "Point", "coordinates": [-81.2461431612995, 28.3665212784809]}}, {"type": "Feature", "properties": {"loc_no": "1971", "loc_no_raw": "1971", "name": "Forsyth Woods", "fac_type": "ES", "school_type": " ", "sb_district": "2", "jurisdiction": "Unincorporated", "address": "6651 Curtis St", "city": "Orlando", "zip": "32807", "learn_comm": "East"}, "geometry": {"type": "Point", "coordinates": [-81.2961531429679, 28.5606829284318]}}, {"type": "Feature", "properties": {"loc_no": "1941", "loc_no_raw": "1941", "name": "Wetherbee", "fac_type": "ES", "school_type": " ", "sb_district": "3", "jurisdiction": "Unincorporated", "address": "701 Wetherbee Rd", "city": "Orlando", "zip": "32824", "learn_comm": "Southeast"}, "geometry": {"type": "Point", "coordinates": [-81.3621976368167, 28.3936841143731]}}, {"type": "Feature", "properties": {"loc_no": "1821", "loc_no_raw": "1821", "name": "SunRidge", "fac_type": "ES", "school_type": " ", "sb_district": "7", "jurisdiction": "Winter Garden", "address": "14455 SunRidge Blvd", "city": "Winter Garden", "zip": "34787", "learn_comm": "West"}, "geometry": {"type": "Point", "coordinates": [-81.5992045126257, 28.5362534869675]}}, {"type": "Feature", "properties": {"loc_no": "1911", "loc_no_raw": "1911", "name": "SunRidge", "fac_type": "MS", "school_type": " ", "sb_district": "7", "jurisdiction": "Winter Garden", "address": "14955 SunRidge Blvd", "city": "Winter Garden", "zip": "34787", "learn_comm": "West"}, "geometry": {"type": "Point", "coordinates": [-81.6043315370375, 28.5364623581195]}}, {"type": "Feature", "properties": {"loc_no": "1831", "loc_no_raw": "1831", "name": "Sun Blaze", "fac_type": "ES", "school_type": " ", "sb_district": "2", "jurisdiction": "Orlando", "address": "9101 Randal Park Blvd", "city": "Orlando", "zip": "32832", "learn_comm": "East"}, "geometry": {"type": "Point", "coordinates": [-81.2344469567117, 28.4345476202193]}}, {"type": "Feature", "properties": {"loc_no": "0941", "loc_no_raw": "941", "name": "Prairie Lake", "fac_type": "ES", "school_type": " ", "sb_district": "7", "jurisdiction": "Unincorporated", "address": "8723 Hackney Prairie Rd", "city": "Orlando", "zip": "32818", "learn_comm": "North"}, "geometry": {"type": "Point", "coordinates": [-81.50432355782, 28.5999359695253]}}, {"type": "Feature", "properties": {"loc_no": "1482", "loc_no_raw": "1482", "name": "Independence", "fac_type": "ES", "school_type": " ", "sb_district": "4", "jurisdiction": "Unicorporated", "address": "6255 New Independence Parkway", "city": "Winter Garden", "zip": "34787", "learn_comm": "West"}, "geometry": {"type": "Point", "coordinates": [-81.6071531089182, 28.4670824063134]}}, {"type": "Feature", "properties": {"loc_no": "1921", "loc_no_raw": "1921", "name": "Eagle Creek", "fac_type": "ES", "school_type": " ", "sb_district": "2", "jurisdiction": "Unicorporated", "address": "10025 Eagle Creek Santuary Blvd", "city": "Orlando", "zip": "32832", "learn_comm": "Southeast"}, "geometry": {"type": "Point", "coordinates": [-81.2387154922329, 28.3610211191534]}}, {"type": "Feature", "properties": {"loc_no": "1392", "loc_no_raw": "1392", "name": "Bay Lake", "fac_type": "ES", "school_type": " ", "sb_district": "4", "jurisdiction": "Unicorporated", "address": "12005 Silverlake Park Dr", "city": "Windermere", "zip": "34786", "learn_comm": "Southwest"}, "geometry": {"type": "Point", "coordinates": [-81.5641779301969, 28.4426660363868]}}, {"type": "Feature", "properties": {"loc_no": "1861", "loc_no_raw": "1861", "name": "Wedgefield School", "fac_type": "K8", "school_type": " ", "sb_district": "1", "jurisdiction": "Unicorporated", "address": "3835 Bancroft Blvd", "city": "Orlando", "zip": "32833", "learn_comm": "East"}, "geometry": {"type": "Point", "coordinates": [-81.0742922584613, 28.4904743266764]}}, {"type": "Feature", "properties": {"loc_no": "1492", "loc_no_raw": "1492", "name": "Millennia Gardens", "fac_type": "ES", "school_type": " ", "sb_district": "5", "jurisdiction": "Orlando", "address": "3515 Gardens Ridge Way", "city": "Orlando", "zip": "32811", "learn_comm": "Southwest"}, "geometry": {"type": "Point", "coordinates": [-81.420931853288, 28.4960610336461]}}, {"type": "Feature", "properties": {"loc_no": "1141", "loc_no_raw": "1141", "name": "Little River", "fac_type": "ES", "school_type": " ", "sb_district": "2", "jurisdiction": "Unincorporated", "address": "100 Caswell Dr", "city": "Orlando", "zip": "32825", "learn_comm": "East"}, "geometry": {"type": "Point", "coordinates": [-81.2707521617108, 28.5458151344128]}}, {"type": "Feature", "properties": {"loc_no": "1014", "loc_no_raw": "1014", "name": "OCPS ACE", "fac_type": "K8", "school_type": " ", "sb_district": "5", "jurisdiction": "Orlando", "address": "701 W Livingston St", "city": "Orlando", "zip": "32805", "learn_comm": "West"}, "geometry": {"type": "Point", "coordinates": [-81.3917481049872, 28.5491576823359]}}, {"type": "Feature", "properties": {"loc_no": "1908", "loc_no_raw": "1908", "name": "Windermere", "fac_type": "HS", "school_type": " ", "sb_district": "4", "jurisdiction": "Unincorporated", "address": "5523 Winter Garden Vineland Rd", "city": "Windermere", "zip": "34786", "learn_comm": "West"}, "geometry": {"type": "Point", "coordinates": [-81.5806439204082, 28.4826934794514]}}, {"type": "Feature", "properties": {"loc_no": "1852", "loc_no_raw": "1852", "name": "Timber Springs", "fac_type": "MS", "school_type": " ", "sb_district": "2", "jurisdiction": "Unincorporated", "address": "16001 Timber Park Lane", "city": "Orlando", "zip": "32828", "learn_comm": "East"}, "geometry": {"type": "Point", "coordinates": [-81.1378805301761, 28.534238493335]}}, {"type": "Feature", "properties": {"loc_no": "0331", "loc_no_raw": "331", "name": "Laureate Park", "fac_type": "ES", "school_type": " ", "sb_district": "2", "jurisdiction": "Orlando", "address": "7800 Laureate Blvd", "city": "Orlando", "zip": "32827", "learn_comm": "Southeast"}, "geometry": {"type": "Point", "coordinates": [-81.2693233466708, 28.3651005026507]}}, {"type": "Feature", "properties": {"loc_no": "1871", "loc_no_raw": "1871", "name": "Innovation", "fac_type": "MS", "school_type": " ", "sb_district": "2", "jurisdiction": "Orlando", "address": "13950 Storey Park Blvd", "city": "Orlando", "zip": "32832", "learn_comm": "Southeast"}, "geometry": {"type": "Point", "coordinates": [-81.2110825554451, 28.4223065957127]}}, {"type": "Feature", "properties": {"loc_no": "1201", "loc_no_raw": "1201", "name": "Westpointe", "fac_type": "ES", "school_type": " ", "sb_district": "4", "jurisdiction": "Orlando", "address": "7525 Westpointe Blvd", "city": "Orlando", "zip": "32835", "learn_comm": "West"}, "geometry": {"type": "Point", "coordinates": [-81.4936841944366, 28.5202175191299]}}, {"type": "Feature", "properties": {"loc_no": "0981", "loc_no_raw": "981", "name": "Arbor Ridge", "fac_type": "K8", "school_type": " ", "sb_district": "1", "jurisdiction": "Unincorporated", "address": "2900 Logandale Dr", "city": "Orlando", "zip": "32817", "learn_comm": "East"}, "geometry": {"type": "Point", "coordinates": [-81.2534799053844, 28.587633474266]}}, {"type": "Feature", "properties": {"loc_no": "5861", "loc_no_raw": "5861", "name": "Washington Shores", "fac_type": "ES", "school_type": " ", "sb_district": "5", "jurisdiction": "Orlando", "address": "944 W Lake Mann Dr", "city": "Orlando", "zip": "32805", "learn_comm": "West"}, "geometry": {"type": "Point", "coordinates": [-81.4229879737739, 28.5292732942984]}}, {"type": "Feature", "properties": {"loc_no": "1061", "loc_no_raw": "1061", "name": "Windy Ridge", "fac_type": "K8", "school_type": " ", "sb_district": "4", "jurisdiction": "Unincorporated", "address": "3900 Beech Tree Dr", "city": "Orlando", "zip": "32835", "learn_comm": "West"}, "geometry": {"type": "Point", "coordinates": [-81.4986698128316, 28.502715318791]}}, {"type": "Feature", "properties": {"loc_no": "1851", "loc_no_raw": "1851", "name": "Audubon Park School", "fac_type": "K8", "school_type": " ", "sb_district": "6", "jurisdiction": "Orlando", "address": "1500 Falcon Dr", "city": "Orlando", "zip": "32803", "learn_comm": "East"}, "geometry": {"type": "Point", "coordinates": [-81.3471354635298, 28.5660844107665]}}, {"type": "Feature", "properties": {"loc_no": "0601", "loc_no_raw": "601", "name": "Orlando Gifted Academy", "fac_type": "ES", "school_type": " ", "sb_district": "6", "jurisdiction": "Orlando", "address": "1121 N. Fern Creek Ave", "city": "Orlando", "zip": "32803", "learn_comm": "East"}, "geometry": {"type": "Point", "coordinates": [-81.359315824056, 28.5611274742725]}}, {"type": "Feature", "properties": {"loc_no": "1022", "loc_no_raw": "1022", "name": "Horizon West", "fac_type": "MS", "school_type": " ", "sb_district": "4", "jurisdiction": "Unicorporated", "address": "8200 Tattant Blvd", "city": "Windermere", "zip": "34786", "learn_comm": "Southwest"}, "geometry": {"type": "Point", "coordinates": [-81.5684585721603, 28.4512939584452]}}, {"type": "Feature", "properties": {"loc_no": "1012", "loc_no_raw": "1012", "name": "Castleview", "fac_type": "ES", "school_type": " ", "sb_district": "4", "jurisdiction": "Unicorporated", "address": "9131 Taborfield Ave", "city": "Orlando", "zip": "32836", "learn_comm": "Southwest"}, "geometry": {"type": "Point", "coordinates": [-81.556710886828, 28.4326501239387]}}, {"type": "Feature", "properties": {"loc_no": "1024", "loc_no_raw": "1024", "name": "Water Spring", "fac_type": "ES", "school_type": " ", "sb_district": "4", "jurisdiction": "Unincorporated", "address": "16000 Water Spring Dr", "city": "Winter Garden", "zip": "34787", "learn_comm": "West"}, "geometry": {"type": "Point", "coordinates": [-81.6457699407614, 28.4032003700662]}}, {"type": "Feature", "properties": {"loc_no": "0510", "loc_no_raw": "510", "name": "Vista Pointe", "fac_type": "ES", "school_type": " ", "sb_district": "2", "jurisdiction": "Orlando", "address": "6900 Market Place Dr", "city": "Orlando", "zip": "32822", "learn_comm": "Southeast"}, "geometry": {"type": "Point", "coordinates": [-81.2867623004447, 28.4711745366036]}}, {"type": "Feature", "properties": {"loc_no": "1023", "loc_no_raw": "1023", "name": "Sunshine", "fac_type": "ES", "school_type": " ", "sb_district": "4", "jurisdiction": "Unincorporated", "address": "13225 International Dr", "city": "Orlando", "zip": "32821", "learn_comm": "Southwest"}, "geometry": {"type": "Point", "coordinates": [-81.4860858781551, 28.377527488347]}}, {"type": "Feature", "properties": {"loc_no": "0520", "loc_no_raw": "520", "name": "Summerlake", "fac_type": "ES", "school_type": " ", "sb_district": "4", "jurisdiction": "Unincorporated", "address": "15450 Porter Rd", "city": "Winter Garden", "zip": "34787", "learn_comm": "West"}, "geometry": {"type": "Point", "coordinates": [-81.6184448625378, 28.4515231942143]}}, {"type": "Feature", "properties": {"loc_no": "1471", "loc_no_raw": "1471", "name": "Horizon", "fac_type": "HS", "school_type": " ", "sb_district": "4", "jurisdiction": "Unicorporated", "address": "10393 Seidel Rd", "city": "Winter Garden", "zip": "34787", "learn_comm": "West"}, "geometry": {"type": "Point", "coordinates": [-81.6260027832456, 28.4160336155814]}}, {"type": "Feature", "properties": {"loc_no": "1161", "loc_no_raw": "1161", "name": "Village Park", "fac_type": "ES", "school_type": " ", "sb_district": "2", "jurisdiction": "Orlando", "address": "12253 Lake Nona Gateway Rd", "city": "Orlando", "zip": "32827", "learn_comm": "Southeast"}, "geometry": {"type": "Point", "coordinates": [-81.2751620201543, 28.3870801116819]}}, {"type": "Feature", "properties": {"loc_no": "0932", "loc_no_raw": "932", "name": "Lake Buena Vista", "fac_type": "HS", "school_type": " ", "sb_district": "4", "jurisdiction": "Unicorporated", "address": "11305 Daryl Cater Pkwy", "city": "Orlando", "zip": "32836", "learn_comm": "Southwest"}, "geometry": {"type": "Point", "coordinates": [-81.4930221638889, 28.4035327719092]}}, {"type": "Feature", "properties": {"loc_no": "0482", "loc_no_raw": "482", "name": "Water Spring", "fac_type": "MS", "school_type": " ", "sb_district": "4", "jurisdiction": "Unicorporated", "address": "17000 Water Spring Dr", "city": "Winter Garden", "zip": "34787", "learn_comm": "West"}, "geometry": {"type": "Point", "coordinates": [-81.6508455772402, 28.4018927208762]}}, {"type": "Feature", "properties": {"loc_no": "1322", "loc_no_raw": "1322", "name": "Panther Lake", "fac_type": "ES", "school_type": " ", "sb_district": "4", "jurisdiction": "Unicorporated", "address": "10151 Summerlake Groves St", "city": "Winter Garden", "zip": "34787", "learn_comm": "West"}, "geometry": {"type": "Point", "coordinates": [-81.6256783041804, 28.422542780147]}}, {"type": "Feature", "properties": {"loc_no": "0472", "loc_no_raw": "472", "name": "Hamlin", "fac_type": "ES", "school_type": " ", "sb_district": "4", "jurisdiction": "Unicorporated", "address": "16145 Silver Grove Blvd", "city": "Winter Garden", "zip": "34787", "learn_comm": "West"}, "geometry": {"type": "Point", "coordinates": [-81.6495301406469, 28.4666478001267]}}, {"type": "Feature", "properties": {"loc_no": "1481", "loc_no_raw": "1481", "name": "Stonewyck", "fac_type": "ES", "school_type": " ", "sb_district": "2", "jurisdiction": "Orlando", "address": "3001 Stonewyck St", "city": "Orlando", "zip": "32824", "learn_comm": "Southeast"}, "geometry": {"type": "Point", "coordinates": [-81.3276294121988, 28.3570112163715]}}, {"type": "Feature", "properties": {"loc_no": "1015", "loc_no_raw": "1015", "name": "Hamlin", "fac_type": "MS", "school_type": " ", "sb_district": "4", "jurisdiction": "Unincorporated", "address": "16025 Silver Grove Blvd", "city": "Winter Garden", "zip": "34787", "learn_comm": "West"}, "geometry": {"type": "Point", "coordinates": [-81.6447108080867, 28.4652640246293]}}, {"type": "Feature", "properties": {"loc_no": "1026", "loc_no_raw": "1026", "name": "Kelly Park School", "fac_type": "K8", "school_type": " ", "sb_district": "7", "jurisdiction": "Apopka", "address": "4700 Jason Dwelley Pkwy", "city": "Apopka", "zip": "32712", "learn_comm": "North"}, "geometry": {"type": "Point", "coordinates": [-81.5432173583585, 28.7524992978915]}}, {"type": "Feature", "properties": {"loc_no": "1761", "loc_no_raw": "1761", "name": "Innovation", "fac_type": "HS", "school_type": "HS", "sb_district": "2", "jurisdiction": "Orlando", "address": "12401 Dowden Rd", "city": "Orlando", "zip": "32832", "learn_comm": null}, "geometry": {"type": "Point", "coordinates": [-81.2150088564264, 28.4460747267941]}}, {"type": "Feature", "properties": {"loc_no": "0295", "loc_no_raw": "295", "name": "Luminary", "fac_type": "MS", "school_type": "MS", "sb_district": "2", "jurisdiction": "Orlando", "address": "9446 Luminary Blvd", "city": "Orlando", "zip": "32827", "learn_comm": null}, "geometry": {"type": "Point", "coordinates": [-81.2566120181648, 28.3549274986934]}}, {"type": "Feature", "properties": {"loc_no": "1692", "loc_no_raw": "1692", "name": "Atwater Bay", "fac_type": "ES", "school_type": "ES", "sb_district": "4", "jurisdiction": "Unincorporated", "address": "11000 Atwater Bay Dr", "city": "Winter Garden", "zip": "34787", "learn_comm": null}, "geometry": {"type": "Point", "coordinates": [-81.6504727704874, 28.413782685806]}}, {"type": "Feature", "properties": {"loc_no": "1444", "loc_no_raw": "1444", "name": "Luminary", "fac_type": "ES", "school_type": "ES", "sb_district": "2", "jurisdiction": "Orlando", "address": "9420 Luminary Blvd", "city": "Orlando", "zip": "32827", "learn_comm": "Southeast"}, "geometry": {"type": "Point", "coordinates": [-81.2597546314228, 28.3552640274136]}}]}