{"type": "FeatureCollection", "features": [{"type": "Feature", "geometry": {"type": "Point", "coordinates": [-81.1830197159148, 28.5844198709093]}, "properties": {"loc_no": "0871", "name": "Bonneville", "fac_type": "ES", "sb_district": "1", "address": "14700 Sussex Dr", "city": "Orlando"}}, {"type": "Feature", "geometry": {"type": "Point", "coordinates": [-81.2493092087248, 28.5725773557154]}, "properties": {"loc_no": "0911", "name": "Union Park", "fac_type": "MS", "sb_district": "1", "address": "1844 Westfall Dr", "city": "Orlando"}}, {"type": "Feature", "geometry": {"type": "Point", "coordinates": [-81.2965504786526, 28.5727689014044]}, "properties": {"loc_no": "0711", "name": "Cheney", "fac_type": "ES", "sb_district": "1", "address": "2000 N Forsyth Rd", "city": "Orlando"}}, {"type": "Feature", "geometry": {"type": "Point", "coordinates": [-81.329735213412, 28.6065847399325]}, "properties": {"loc_no": "0561", "name": "Lakemont", "fac_type": "ES", "sb_district": "1", "address": "901 N Lakemont Ave", "city": "Winter Park"}}, {"type": "Feature", "geometry": {"type": "Point", "coordinates": [-81.3554045485199, 28.5896686069484]}, "properties": {"loc_no": "0302", "name": "Winter Park", "fac_type": "9TH", "sb_district": "1", "address": "528 Huntington Ave", "city": "Winter Park"}}, {"type": "Feature", "geometry": {"type": "Point", "coordinates": [-81.3086699776197, 28.5984477690509]}, "properties": {"loc_no": "1401", "name": "Aloma", "fac_type": "ES", "sb_district": "1", "address": "2949 Scarlet Rd", "city": "Winter Park"}}, {"type": "Feature", "geometry": {"type": "Point", "coordinates": [-81.3361121903185, 28.5778741564644]}, "properties": {"loc_no": "0571", "name": "Glenridge", "fac_type": "MS", "sb_district": "1", "address": "2900 Upper Park Rd", "city": "Orlando"}}, {"type": "Feature", "geometry": {"type": "Point", "coordinates": [-81.3326495103064, 28.5665201569876]}, "properties": {"loc_no": "0531", "name": "Audubon Park", "fac_type": "ES", "sb_district": "6", "address": "1750 Common Way Rd", "city": "Orlando"}}, {"type": "Feature", "geometry": {"type": "Point", "coordinates": [-81.2170610085044, 28.5777498370768]}, "properties": {"loc_no": "1001", "name": "University", "fac_type": "HS", "sb_district": "1", "address": "11501 Eastwood Dr", "city": "Orlando"}}, {"type": "Feature", "geometry": {"type": "Point", "coordinates": [-81.1298763414802, 28.5644357138662]}, "properties": {"loc_no": "1281", "name": "Corner Lake", "fac_type": "MS", "sb_district": "1", "address": "1700 Chuluota Rd", "city": "Orlando"}}, {"type": "Feature", "geometry": {"type": "Point", "coordinates": [-81.1226497985436, 28.5765108427434]}, "properties": {"loc_no": "1451", "name": "Columbia", "fac_type": "ES", "sb_district": "1", "address": "18501 Cypress Lake Glen Blvd", "city": "Orlando"}}, {"type": "Feature", "geometry": {"type": "Point", "coordinates": [-81.3181144488891, 28.5926642834283]}, "properties": {"loc_no": "0751", "name": "Brookshire", "fac_type": "ES", "sb_district": "1", "address": "400 Greene Dr", "city": "Winter Park"}}, {"type": "Feature", "geometry": {"type": "Point", "coordinates": [-81.32010974923, 28.5837718381466]}, "properties": {"loc_no": "1411", "name": "Winter Park", "fac_type": "HS", "sb_district": "1", "address": "2100 Summerfield Rd", "city": "Winter Park"}}, {"type": "Feature", "geometry": {"type": "Point", "coordinates": [-81.2181632278806, 28.5849198935073]}, "properties": {"loc_no": "0261", "name": "Riverdale", "fac_type": "ES", "sb_district": "1", "address": "11301 Lokanotosa Trl", "city": "Orlando"}}, {"type": "Feature", "geometry": {"type": "Point", "coordinates": [-81.2272520888295, 28.5517327921717]}, "properties": {"loc_no": "0213", "name": "Lawton Chiles", "fac_type": "ES", "sb_district": "1", "address": "11001 Bloomfield Dr", "city": "Orlando"}}, {"type": "Feature", "geometry": {"type": "Point", "coordinates": [-81.130805711888, 28.5570127329769]}, "properties": {"loc_no": "1801", "name": "East River", "fac_type": "HS", "sb_district": "1", "address": "654 Columbia School Rd", "city": "Orlando"}}, {"type": "Feature", "geometry": {"type": "Point", "coordinates": [-81.1758596465326, 28.5350446819361]}, "properties": {"loc_no": "1371", "name": "Sunrise", "fac_type": "ES", "sb_district": "2", "address": "101 Lone Palm Rd", "city": "Orlando"}}, {"type": "Feature", "geometry": {"type": "Point", "coordinates": [-81.2626832794264, 28.4218228414423]}, "properties": {"loc_no": "0771", "name": "NorthLake Park", "fac_type": "ES", "sb_district": "2", "address": "9055 NorthLake Pkwy", "city": "Orlando"}}, {"type": "Feature", "geometry": {"type": "Point", "coordinates": [-81.1627085235616, 28.5116233360986]}, "properties": {"loc_no": "1771", "name": "Stone Lakes", "fac_type": "ES", "sb_district": "2", "address": "15200 Stoneybrook Blvd", "city": "Orlando"}}, {"type": "Feature", "geometry": {"type": "Point", "coordinates": [-81.2354721922766, 28.5165425789259]}, "properties": {"loc_no": "0156", "name": "Cypress Springs", "fac_type": "ES", "sb_district": "1", "address": "10401 Cypress Springs Pkwy", "city": "Orlando"}}, {"type": "Feature", "geometry": {"type": "Point", "coordinates": [-81.1628863101891, 28.5497913262901]}, "properties": {"loc_no": "0217", "name": "Camelot", "fac_type": "ES", "sb_district": "1", "address": "14501 Waterford Chase Pkwy", "city": "Orlando"}}, {"type": "Feature", "geometry": {"type": "Point", "coordinates": [-81.1632275645443, 28.5531466730914]}, "properties": {"loc_no": "1612", "name": "Castle Creek", "fac_type": "ES", "sb_district": "1", "address": "1245 N Avalon Park Blvd", "city": "Orlando"}}, {"type": "Feature", "geometry": {"type": "Point", "coordinates": [-81.274163084374, 28.50496933573]}, "properties": {"loc_no": "1541", "name": "Pinar", "fac_type": "ES", "sb_district": "2", "address": "3701 Anthony Ln", "city": "Orlando"}}, {"type": "Feature", "geometry": {"type": "Point", "coordinates": [-81.2666306035352, 28.5031207667873]}, "properties": {"loc_no": "1551", "name": "Liberty", "fac_type": "MS", "sb_district": "2", "address": "3405 S Chickasaw Trl", "city": "Orlando"}}, {"type": "Feature", "geometry": {"type": "Point", "coordinates": [-81.3019274120285, 28.5523030224396]}, "properties": {"loc_no": "0661", "name": "Colonial", "fac_type": "HS", "sb_district": "2", "address": "6100 Oleander Dr", "city": "Orlando"}}, {"type": "Feature", "geometry": {"type": "Point", "coordinates": [-81.1925123764898, 28.5415692034728]}, "properties": {"loc_no": "1121", "name": "Discovery", "fac_type": "MS", "sb_district": "2", "address": "601 Woodbury Rd", "city": "Orlando"}}, {"type": "Feature", "geometry": {"type": "Point", "coordinates": [-81.2187739136715, 28.5448291253377]}, "properties": {"loc_no": "0242", "name": "Legacy", "fac_type": "MS", "sb_district": "1", "address": "11398 Lake Underhill Rd", "city": "Orlando"}}, {"type": "Feature", "geometry": {"type": "Point", "coordinates": [-81.2226402690501, 28.5083995535657]}, "properties": {"loc_no": "0321", "name": "Andover", "fac_type": "ES", "sb_district": "2", "address": "3100 Sanctuary Point Blvd", "city": "Orlando"}}, {"type": "Feature", "geometry": {"type": "Point", "coordinates": [-81.145252734754, 28.527919509324]}, "properties": {"loc_no": "1631", "name": "Timber Creek", "fac_type": "HS", "sb_district": "2", "address": "1001 S Avalon Park Blvd", "city": "Orlando"}}, {"type": "Feature", "geometry": {"type": "Point", "coordinates": [-81.2835496599519, 28.5555998233608]}, "properties": {"loc_no": "0951", "name": "Colonial", "fac_type": "9TH", "sb_district": "2", "address": "7775 Valencia College Ln", "city": "Orlando"}}, {"type": "Feature", "geometry": {"type": "Point", "coordinates": [-81.1520096630582, 28.5000364990167]}, "properties": {"loc_no": "1763", "name": "Avalon", "fac_type": "MS", "sb_district": "2", "address": "13914 Mailer Blvd", "city": "Orlando"}}, {"type": "Feature", "geometry": {"type": "Point", "coordinates": [-81.3011915011921, 28.5307974375694]}, "properties": {"loc_no": "0681", "name": "Engelwood", "fac_type": "ES", "sb_district": "2", "address": "900 Engel Dr", "city": "Orlando"}}, {"type": "Feature", "geometry": {"type": "Point", "coordinates": [-81.2950265169456, 28.525445410423]}, "properties": {"loc_no": "0831", "name": "Chickasaw", "fac_type": "ES", "sb_district": "2", "address": "6900 Autumnvale Dr", "city": "Orlando"}}, {"type": "Feature", "geometry": {"type": "Point", "coordinates": [-81.2978299104167, 28.5004828475743]}, "properties": {"loc_no": "0971", "name": "Ventura", "fac_type": "ES", "sb_district": "2", "address": "4400 Woodgate Blvd", "city": "Orlando"}}, {"type": "Feature", "geometry": {"type": "Point", "coordinates": [-81.2715813952916, 28.4744674480742]}, "properties": {"loc_no": "1752", "name": "Vista Lakes", "fac_type": "ES", "sb_district": "2", "address": "6050 Lake Champlain Dr", "city": "Orlando"}}, {"type": "Feature", "geometry": {"type": "Point", "coordinates": [-81.2831003115897, 28.4911064779958]}, "properties": {"loc_no": "0215", "name": "Three Points", "fac_type": "ES", "sb_district": "2", "address": "4001 S Goldenrod Rd", "city": "Orlando"}}, {"type": "Feature", "geometry": {"type": "Point", "coordinates": [-81.2172980811593, 28.4096922695188]}, "properties": {"loc_no": "1582", "name": "Moss Park", "fac_type": "ES", "sb_district": "2", "address": "9351 North Shore Golf Club Blvd", "city": "Orlando"}}, {"type": "Feature", "geometry": {"type": "Point", "coordinates": [-81.1959448018187, 28.5425675827495]}, "properties": {"loc_no": "1091", "name": "Waterford", "fac_type": "ES", "sb_district": "2", "address": "12950 Lake Underhill Rd", "city": "Orlando"}}, {"type": "Feature", "geometry": {"type": "Point", "coordinates": [-81.254574545459, 28.5250753169829]}, "properties": {"loc_no": "1601", "name": "Deerwood", "fac_type": "ES", "sb_district": "2", "address": "1356 S Econlockhatchee Trl", "city": "Orlando"}}, {"type": "Feature", "geometry": {"type": "Point", "coordinates": [-81.2462271404005, 28.5668279252707]}, "properties": {"loc_no": "0431", "name": "Union Park", "fac_type": "ES", "sb_district": "1", "address": "1600 N Dean Rd", "city": "Orlando"}}, {"type": "Feature", "geometry": {"type": "Point", "coordinates": [-81.2571299824512, 28.4745734144794]}, "properties": {"loc_no": "1682", "name": "Odyssey", "fac_type": "MS", "sb_district": "2", "address": "9290 Lee Vista Blvd", "city": "Orlando"}}, {"type": "Feature", "geometry": {"type": "Point", "coordinates": [-81.2596022121361, 28.4898054067466]}, "properties": {"loc_no": "1461", "name": "Hidden Oaks", "fac_type": "ES", "sb_district": "2", "address": "9051 Suburban Dr", "city": "Orlando"}}, {"type": "Feature", "geometry": {"type": "Point", "coordinates": [-81.308466811104, 28.4865393050368]}, "properties": {"loc_no": "0891", "name": "McCoy", "fac_type": "ES", "sb_district": "3", "address": "5225 S Semoran Blvd", "city": "Orlando"}}, {"type": "Feature", "geometry": {"type": "Point", "coordinates": [-81.148491755816, 28.5108135902719]}, "properties": {"loc_no": "0222", "name": "Avalon", "fac_type": "ES", "sb_district": "2", "address": "13500 Tanja King Blvd", "city": "Orlando"}}, {"type": "Feature", "geometry": {"type": "Point", "coordinates": [-81.153756278723, 28.5261445346492]}, "properties": {"loc_no": "1991", "name": "Timber Lakes", "fac_type": "ES", "sb_district": "2", "address": "2149 Crown Hill Blvd", "city": "Orlando"}}, {"type": "Feature", "geometry": {"type": "Point", "coordinates": [-81.2472614766652, 28.3808473660482]}, "properties": {"loc_no": "1951", "name": "Lake Nona", "fac_type": "HS", "sb_district": "2", "address": "12500 Narcoossee Rd", "city": "Orlando"}}, {"type": "Feature", "geometry": {"type": "Point", "coordinates": [-81.5584389376337, 28.5996658844611]}, "properties": {"loc_no": "0252", "name": "Ocoee", "fac_type": "HS", "sb_district": "7", "address": "1925 Ocoee Crown Point Pkwy", "city": "Ocoee"}}, {"type": "Feature", "geometry": {"type": "Point", "coordinates": [-81.5814366833001, 28.5706973478068]}, "properties": {"loc_no": "0511", "name": "Dillard Street", "fac_type": "ES", "sb_district": "7", "address": "311 N Dillard St", "city": "Winter Garden"}}, {"type": "Feature", "geometry": {"type": "Point", "coordinates": [-81.5152158539393, 28.5708502250107]}, "properties": {"loc_no": "0216", "name": "Citrus", "fac_type": "ES", "sb_district": "7", "address": "87 N Clarke Rd", "city": "Ocoee"}}, {"type": "Feature", "geometry": {"type": "Point", "coordinates": [-81.5072602421053, 28.6856768794985]}, "properties": {"loc_no": "0282", "name": "Apopka", "fac_type": "MS", "sb_district": "7", "address": "425 N Park Ave", "city": "Apopka"}}, {"type": "Feature", "geometry": {"type": "Point", "coordinates": [-81.5111776977829, 28.720015634835]}, "properties": {"loc_no": "1011", "name": "Rock Springs", "fac_type": "ES", "sb_district": "7", "address": "2400 N Rock Springs Rd", "city": "Apopka"}}, {"type": "Feature", "geometry": {"type": "Point", "coordinates": [-81.5443193273118, 28.7295703846126]}, "properties": {"loc_no": "1751", "name": "Wolf Lake", "fac_type": "ES", "sb_district": "7", "address": "1771 W Ponkan Rd", "city": "Apopka"}}, {"type": "Feature", "geometry": {"type": "Point", "coordinates": [-81.5408081422055, 28.7296131214123]}, "properties": {"loc_no": "1702", "name": "Wolf Lake", "fac_type": "MS", "sb_district": "7", "address": "1725 W Ponkan Rd", "city": "Apopka"}}, {"type": "Feature", "geometry": {"type": "Point", "coordinates": [-81.4875996814221, 28.6049730219662]}, "properties": {"loc_no": "0241", "name": "Lake Gem", "fac_type": "ES", "sb_district": "6", "address": "4801 Bloodhound St", "city": "Orlando"}}, {"type": "Feature", "geometry": {"type": "Point", "coordinates": [-81.5679727454725, 28.5612222009221]}, "properties": {"loc_no": "1321", "name": "Maxey", "fac_type": "ES", "sb_district": "7", "address": "1100 E Maple St", "city": "Winter Garden"}}, {"type": "Feature", "geometry": {"type": "Point", "coordinates": [-81.6066181693331, 28.5579249383479]}, "properties": {"loc_no": "0361", "name": "Tildenville", "fac_type": "ES", "sb_district": "7", "address": "1221 Brick Rd", "city": "Winter Garden"}}, {"type": "Feature", "geometry": {"type": "Point", "coordinates": [-81.4911337518767, 28.5836220101075]}, "properties": {"loc_no": "0401", "name": "Pinewood", "fac_type": "ES", "sb_district": "6", "address": "3005 N Apopka Vineland Rd", "city": "Orlando"}}, {"type": "Feature", "geometry": {"type": "Point", "coordinates": [-81.473339705382, 28.6381634794842]}, "properties": {"loc_no": "1542", "name": "Wekiva", "fac_type": "HS", "sb_district": "7", "address": "2501 N Hiawassee Rd", "city": "Apopka"}}, {"type": "Feature", "geometry": {"type": "Point", "coordinates": [-81.4783002853402, 28.6384705383985]}, "properties": {"loc_no": "1671", "name": "Piedmont Lakes", "fac_type": "MS", "sb_district": "7", "address": "2601 Lakeville Rd", "city": "Apopka"}}, {"type": "Feature", "geometry": {"type": "Point", "coordinates": [-81.5124207480553, 28.656081394256]}, "properties": {"loc_no": "1361", "name": "Wheatley", "fac_type": "ES", "sb_district": "7", "address": "2 W 18th St", "city": "Apopka"}}, {"type": "Feature", "geometry": {"type": "Point", "coordinates": [-81.5239131405361, 28.5878447607407]}, "properties": {"loc_no": "0841", "name": "Spring Lake", "fac_type": "ES", "sb_district": "7", "address": "115 Spring Lake Cir", "city": "Ocoee"}}, {"type": "Feature", "geometry": {"type": "Point", "coordinates": [-81.5414109427414, 28.5648606169061]}, "properties": {"loc_no": "1531", "name": "Ocoee", "fac_type": "ES", "sb_district": "7", "address": "400 S Lakewood Ave", "city": "Ocoee"}}, {"type": "Feature", "geometry": {"type": "Point", "coordinates": [-81.6020257352197, 28.5649009112443]}, "properties": {"loc_no": "0352", "name": "Lakeview", "fac_type": "MS", "sb_district": "7", "address": "1200 W Bay St", "city": "Winter Garden"}}, {"type": "Feature", "geometry": {"type": "Point", "coordinates": [-81.6007590185801, 28.7353503490644]}, "properties": {"loc_no": "0461", "name": "Zellwood", "fac_type": "ES", "sb_district": "7", "address": "3551 Washington Ave", "city": "Zellwood"}}, {"type": "Feature", "geometry": {"type": "Point", "coordinates": [-81.5031420648305, 28.6248531437999]}, "properties": {"loc_no": "0841", "name": "Spring Lake", "fac_type": "ES", "sb_district": "7", "address": "115 Spring Lake Cir", "city": "Ocoee"}}, {"type": "Feature", "geometry": {"type": "Point", "coordinates": [-81.4836009041972, 28.6684655567206]}, "properties": {"loc_no": "0821", "name": "Lovell", "fac_type": "ES", "sb_district": "7", "address": "815 Roger Williams Rd", "city": "Apopka"}}, {"type": "Feature", "geometry": {"type": "Point", "coordinates": [-81.465790605572, 28.6891565926629]}, "properties": {"loc_no": "0991", "name": "Clay Springs", "fac_type": "ES", "sb_district": "7", "address": "555 N Wekiva Springs Rd", "city": "Apopka"}}, {"type": "Feature", "geometry": {"type": "Point", "coordinates": [-81.5216123065562, 28.6935058858162]}, "properties": {"loc_no": "1521", "name": "Apopka", "fac_type": "HS", "sb_district": "7", "address": "555 W Martin St", "city": "Apopka"}}, {"type": "Feature", "geometry": {"type": "Point", "coordinates": [-81.5104325341283, 28.6894256928814]}, "properties": {"loc_no": "0541", "name": "Dream Lake", "fac_type": "ES", "sb_district": "7", "address": "500 N Park Ave", "city": "Apopka"}}, {"type": "Feature", "geometry": {"type": "Point", "coordinates": [-81.5247184105839, 28.6843013746851]}, "properties": {"loc_no": "1282", "name": "Apopka", "fac_type": "ES", "sb_district": "7", "address": "675 W Dixie Hwy", "city": "Apopka"}}, {"type": "Feature", "geometry": {"type": "Point", "coordinates": [-81.4423377201377, 28.6234501709075]}, "properties": {"loc_no": "0421", "name": "Lockhart", "fac_type": "ES", "sb_district": "7", "address": "7500 Edgewater Dr", "city": "Orlando"}}, {"type": "Feature", "geometry": {"type": "Point", "coordinates": [-81.5428465551385, 28.5670808426328]}, "properties": {"loc_no": "0342", "name": "Ocoee", "fac_type": "MS", "sb_district": "7", "address": "300 S Bluford Ave", "city": "Ocoee"}}, {"type": "Feature", "geometry": {"type": "Point", "coordinates": [-81.4783296325948, 28.6460464379658]}, "properties": {"loc_no": "0141", "name": "Lakeville", "fac_type": "ES", "sb_district": "7", "address": "2015 Lakeville Rd", "city": "Apopka"}}, {"type": "Feature", "geometry": {"type": "Point", "coordinates": [-81.3439046050967, 28.6329483968721]}, "properties": {"loc_no": "1181", "name": "Dommerich", "fac_type": "ES", "sb_district": "6", "address": "1900 Choctaw Trl", "city": "Maitland"}}, {"type": "Feature", "geometry": {"type": "Point", "coordinates": [-81.3440559746634, 28.6343508540826]}, "properties": {"loc_no": "0731", "name": "Maitland", "fac_type": "MS", "sb_district": "6", "address": "1901 Choctaw Trl", "city": "Maitland"}}, {"type": "Feature", "geometry": {"type": "Point", "coordinates": [-81.4470490908214, 28.5906280017568]}, "properties": {"loc_no": "0861", "name": "Rolling Hills", "fac_type": "ES", "sb_district": "6", "address": "4903 Donovan St", "city": "Orlando"}}, {"type": "Feature", "geometry": {"type": "Point", "coordinates": [-81.4494122623591, 28.5807994159817]}, "properties": {"loc_no": "0671", "name": "Evans", "fac_type": "HS", "sb_district": "6", "address": "4949 Silver Star Rd", "city": "Orlando"}}, {"type": "Feature", "geometry": {"type": "Point", "coordinates": [-81.4205952497473, 28.6338168492504]}, "properties": {"loc_no": "1251", "name": "Riverside", "fac_type": "ES", "sb_district": "6", "address": "3125 Pembrook Ave", "city": "Orlando"}}, {"type": "Feature", "geometry": {"type": "Point", "coordinates": [-81.4731783272935, 28.5673534252588]}, "properties": {"loc_no": "0881", "name": "Hiawassee", "fac_type": "ES", "sb_district": "5", "address": "6800 Hennepin Blvd", "city": "Orlando"}}, {"type": "Feature", "geometry": {"type": "Point", "coordinates": [-81.3591450141333, 28.5611689042]}, "properties": {"loc_no": "0181", "name": "Fern Creek", "fac_type": "ES", "sb_district": "6", "address": "1121 N Fern Creek Ave", "city": "Orlando"}}, {"type": "Feature", "geometry": {"type": "Point", "coordinates": [-81.3133994935803, 28.5451748531631]}, "properties": {"loc_no": "0611", "name": "Azalea Park", "fac_type": "ES", "sb_district": "6", "address": "1 Carol Ave", "city": "Orlando"}}, {"type": "Feature", "geometry": {"type": "Point", "coordinates": [-81.4631543351533, 28.5951339432984]}, "properties": {"loc_no": "1241", "name": "Meadowbrook", "fac_type": "MS", "sb_district": "6", "address": "6000 North Ln", "city": "Orlando"}}, {"type": "Feature", "geometry": {"type": "Point", "coordinates": [-81.4616617929495, 28.5857124643537]}, "properties": {"loc_no": "1431", "name": "Ridgewood Park", "fac_type": "ES", "sb_district": "6", "address": "3401 Pioneer Rd", "city": "Orlando"}}, {"type": "Feature", "geometry": {"type": "Point", "coordinates": [-81.3832809900647, 28.6145295547248]}, "properties": {"loc_no": "1351", "name": "Hungerford", "fac_type": "ES", "sb_district": "6", "address": "230 College Ave", "city": "Maitland"}}, {"type": "Feature", "geometry": {"type": "Point", "coordinates": [-81.3826198415686, 28.5958325340185]}, "properties": {"loc_no": "0311", "name": "Killarney", "fac_type": "ES", "sb_district": "6", "address": "2401 Wellington Blvd", "city": "Winter Park"}}, {"type": "Feature", "geometry": {"type": "Point", "coordinates": [-81.4212281206601, 28.6231409028471]}, "properties": {"loc_no": "0721", "name": "Lockhart", "fac_type": "MS", "sb_district": "6", "address": "3411 Doctor Love Rd", "city": "Orlando"}}, {"type": "Feature", "geometry": {"type": "Point", "coordinates": [-81.4117116740655, 28.6121321967664]}, "properties": {"loc_no": "0651", "name": "Lake Weston", "fac_type": "ES", "sb_district": "6", "address": "5500 Milan Dr", "city": "Orlando"}}, {"type": "Feature", "geometry": {"type": "Point", "coordinates": [-81.3654670983671, 28.5508417273236]}, "properties": {"loc_no": "0201", "name": "Hillcrest", "fac_type": "ES", "sb_district": "6", "address": "1010 E Concord St", "city": "Orlando"}}, {"type": "Feature", "geometry": {"type": "Point", "coordinates": [-81.3677079810373, 28.54548131683]}, "properties": {"loc_no": "0131", "name": "Howard", "fac_type": "MS", "sb_district": "6", "address": "800 E Robinson St", "city": "Orlando"}}, {"type": "Feature", "geometry": {"type": "Point", "coordinates": [-81.4710337296151, 28.5603890177133]}, "properties": {"loc_no": "0921", "name": "Robinswood", "fac_type": "MS", "sb_district": "5", "address": "6305 Balboa Dr", "city": "Orlando"}}, {"type": "Feature", "geometry": {"type": "Point", "coordinates": [-81.400772858545, 28.5737833755534]}, "properties": {"loc_no": "0521", "name": "Lake Silver", "fac_type": "ES", "sb_district": "6", "address": "2401 N Rio Grande Ave", "city": "Orlando"}}, {"type": "Feature", "geometry": {"type": "Point", "coordinates": [-81.4401676013643, 28.6036788608251]}, "properties": {"loc_no": "1271", "name": "Rosemont", "fac_type": "ES", "sb_district": "6", "address": "4650 Point Look Out Rd", "city": "Orlando"}}, {"type": "Feature", "geometry": {"type": "Point", "coordinates": [-81.3970232944188, 28.5842141651996]}, "properties": {"loc_no": "0581", "name": "College Park", "fac_type": "MS", "sb_district": "6", "address": "1201 Maury Rd", "city": "Orlando"}}, {"type": "Feature", "geometry": {"type": "Point", "coordinates": [-81.371228652175, 28.6314133017982]}, "properties": {"loc_no": "1221", "name": "Lake Sybelia", "fac_type": "ES", "sb_district": "6", "address": "600 Sandspur Rd", "city": "Maitland"}}, {"type": "Feature", "geometry": {"type": "Point", "coordinates": [-81.3937522622656, 28.5790785181051]}, "properties": {"loc_no": "0121", "name": "Edgewater", "fac_type": "HS", "sb_district": "6", "address": "3100 Edgewater Dr", "city": "Orlando"}}, {"type": "Feature", "geometry": {"type": "Point", "coordinates": [-81.3840345084399, 28.5720541308838]}, "properties": {"loc_no": "0251", "name": "Princeton", "fac_type": "ES", "sb_district": "6", "address": "311 W Princeton St", "city": "Orlando"}}, {"type": "Feature", "geometry": {"type": "Point", "coordinates": [-81.449700085769, 28.5708606778386]}, "properties": {"loc_no": "0791", "name": "Mollie Ray", "fac_type": "ES", "sb_district": "5", "address": "2000 Beecher St", "city": "Orlando"}}, {"type": "Feature", "geometry": {"type": "Point", "coordinates": [-81.4210492171642, 28.4710482254404]}, "properties": {"loc_no": "1133", "name": "Westridge", "fac_type": "MS", "sb_district": "5", "address": "3800 W Oak Ridge Rd", "city": "Orlando"}}, {"type": "Feature", "geometry": {"type": "Point", "coordinates": [-81.4530996661654, 28.5169422094998]}, "properties": {"loc_no": "0236", "name": "Eagle's Nest", "fac_type": "ES", "sb_district": "5", "address": "5353 Metrowest Blvd", "city": "Orlando"}}, {"type": "Feature", "geometry": {"type": "Point", "coordinates": [-81.4070287685732, 28.48048961952]}, "properties": {"loc_no": "1491", "name": "Palmetto", "fac_type": "ES", "sb_district": "5", "address": "2015 Duskin Ave", "city": "Orlando"}}, {"type": "Feature", "geometry": {"type": "Point", "coordinates": [-81.3859974901006, 28.4700574492063]}, "properties": {"loc_no": "0691", "name": "Oak Ridge", "fac_type": "HS", "sb_district": "5", "address": "6000 S Winegard Rd", "city": "Orlando"}}, {"type": "Feature", "geometry": {"type": "Point", "coordinates": [-81.4574137086578, 28.5603367607367]}, "properties": {"loc_no": "0621", "name": "Pine Hills", "fac_type": "ES", "sb_district": "5", "address": "1006 Ferndell Rd", "city": "Orlando"}}, {"type": "Feature", "geometry": {"type": "Point", "coordinates": [-81.4363175693684, 28.525263069286]}, "properties": {"loc_no": "5871", "name": "Carver", "fac_type": "MS", "sb_district": "5", "address": "4500 W Columbia St", "city": "Orlando"}}, {"type": "Feature", "geometry": {"type": "Point", "coordinates": [-81.4333937081176, 28.5251347914706]}, "properties": {"loc_no": "5841", "name": "Eccleston", "fac_type": "ES", "sb_district": "5", "address": "1500 Aaron Ave", "city": "Orlando"}}, {"type": "Feature", "geometry": {"type": "Point", "coordinates": [-81.4266709639018, 28.4708310153713]}, "properties": {"loc_no": "1261", "name": "Sadler", "fac_type": "ES", "sb_district": "5", "address": "4000 W Oak Ridge Rd", "city": "Orlando"}}, {"type": "Feature", "geometry": {"type": "Point", "coordinates": [-81.4085500377144, 28.5114459351053]}, "properties": {"loc_no": "0701", "name": "Catalina", "fac_type": "ES", "sb_district": "5", "address": "2510 Gulfstream Rd", "city": "Orlando"}}, {"type": "Feature", "geometry": {"type": "Point", "coordinates": [-81.4229879737739, 28.5292732942984]}, "properties": {"loc_no": "5891", "name": "Washington Shores", "fac_type": "EL", "sb_district": "5", "address": "2500 Bruton Blvd", "city": "Orlando"}}, {"type": "Feature", "geometry": {"type": "Point", "coordinates": [-81.40688480837, 28.5483119798669]}, "properties": {"loc_no": "0641", "name": "Rock Lake", "fac_type": "ES", "sb_district": "5", "address": "408 N Tampa Ave", "city": "Orlando"}}, {"type": "Feature", "geometry": {"type": "Point", "coordinates": [-81.4493291041287, 28.4572805654847]}, "properties": {"loc_no": "0811", "name": "Tangelo Park", "fac_type": "ES", "sb_district": "5", "address": "5115 Anzio St", "city": "Orlando"}}, {"type": "Feature", "geometry": {"type": "Point", "coordinates": [-81.4440184099307, 28.4860654720884]}, "properties": {"loc_no": "1553", "name": "Millennia", "fac_type": "ES", "sb_district": "5", "address": "5301 Cypress Creek Blvd", "city": "Orlando"}}, {"type": "Feature", "geometry": {"type": "Point", "coordinates": [-81.4341879726825, 28.4804069933562]}, "properties": {"loc_no": "1621", "name": "Shingle Creek", "fac_type": "ES", "sb_district": "5", "address": "5620 Harcourt Ave", "city": "Orlando"}}, {"type": "Feature", "geometry": {"type": "Point", "coordinates": [-81.4369958756944, 28.5443913405647]}, "properties": {"loc_no": "1421", "name": "Ivey Lane", "fac_type": "ES", "sb_district": "5", "address": "209 Silverton St", "city": "Orlando"}}, {"type": "Feature", "geometry": {"type": "Point", "coordinates": [-81.4064618311672, 28.5112956273499]}, "properties": {"loc_no": "0151", "name": "Memorial", "fac_type": "MS", "sb_district": "5", "address": "2220 29th St", "city": "Orlando"}}, {"type": "Feature", "geometry": {"type": "Point", "coordinates": [-81.393866945808, 28.509580411597]}, "properties": {"loc_no": "0231", "name": "Pineloch", "fac_type": "ES", "sb_district": "5", "address": "3101 Woods Ave", "city": "Orlando"}}, {"type": "Feature", "geometry": {"type": "Point", "coordinates": [-81.4079716573077, 28.5342106467439]}, "properties": {"loc_no": "1331", "name": "Orange Center", "fac_type": "ES", "sb_district": "5", "address": "621Texas Ave", "city": "Orlando"}}, {"type": "Feature", "geometry": {"type": "Point", "coordinates": [-81.3992065993493, 28.5329531990266]}, "properties": {"loc_no": "5711", "name": "Jones", "fac_type": "HS", "sb_district": "5", "address": "801 S Rio Grande Ave", "city": "Orlando"}}, {"type": "Feature", "geometry": {"type": "Point", "coordinates": [-81.4568097647933, 28.3580102447575]}, "properties": {"loc_no": "0232", "name": "West Creek", "fac_type": "ES", "sb_district": "4", "address": "5056 Tacon Dr", "city": "Orlando"}}, {"type": "Feature", "geometry": {"type": "Point", "coordinates": [-81.5059924532676, 28.4343958579986]}, "properties": {"loc_no": "1071", "name": "Bay Meadows", "fac_type": "ES", "sb_district": "4", "address": "9150 Apopka Vineland Rd", "city": "Orlando"}}, {"type": "Feature", "geometry": {"type": "Point", "coordinates": [-81.4308945244483, 28.3590532631705]}, "properties": {"loc_no": "1191", "name": "Hunters Creek", "fac_type": "ES", "sb_district": "3", "address": "4650 Town Center Blvd", "city": "Orlando"}}, {"type": "Feature", "geometry": {"type": "Point", "coordinates": [-81.5063749240158, 28.4986441328871]}, "properties": {"loc_no": "1632", "name": "Olympia", "fac_type": "HS", "sb_district": "4", "address": "4301 S Apopka Vineland Rd", "city": "Orlando"}}, {"type": "Feature", "geometry": {"type": "Point", "coordinates": [-81.6137887789103, 28.4802358174023]}, "properties": {"loc_no": "1762", "name": "Bridgewater", "fac_type": "MS", "sb_district": "4", "address": "5660 Tiny Rd", "city": "Winter Garden"}}, {"type": "Feature", "geometry": {"type": "Point", "coordinates": [-81.492782045952, 28.411697612566]}, "properties": {"loc_no": "1731", "name": "Sand Lake", "fac_type": "ES", "sb_district": "4", "address": "8301 Buena Vista Woods Blvd", "city": "Orlando"}}, {"type": "Feature", "geometry": {"type": "Point", "coordinates": [-81.5566835515061, 28.5260274060511]}, "properties": {"loc_no": "1571", "name": "Lake Whitney", "fac_type": "ES", "sb_district": "4", "address": "1351 Windermere Rd", "city": "Winter Garden"}}, {"type": "Feature", "geometry": {"type": "Point", "coordinates": [-81.4826564978632, 28.5567167939763]}, "properties": {"loc_no": "0253", "name": "West Oaks", "fac_type": "ES", "sb_district": "5", "address": "905 Dorscher Rd", "city": "Orlando"}}, {"type": "Feature", "geometry": {"type": "Point", "coordinates": [-81.4954757929544, 28.5455930176099]}, "properties": {"loc_no": "1611", "name": "Frangus", "fac_type": "ES", "sb_district": "4", "address": "380 Killington Way", "city": "Orlando"}}, {"type": "Feature", "geometry": {"type": "Point", "coordinates": [-81.5443555145789, 28.508510895456]}, "properties": {"loc_no": "1231", "name": "Windermere", "fac_type": "ES", "sb_district": "4", "address": "11125 Park Ave", "city": "Windermere"}}, {"type": "Feature", "geometry": {"type": "Point", "coordinates": [-81.6120266577502, 28.5138295647748]}, "properties": {"loc_no": "0322", "name": "Whispering Oak", "fac_type": "ES", "sb_district": "4", "address": "15300 Stoneybrook West Pkwy", "city": "Winter Garden"}}, {"type": "Feature", "geometry": {"type": "Point", "coordinates": [-81.4937334394296, 28.4690580392466]}, "properties": {"loc_no": "1031", "name": "Southwest", "fac_type": "MS", "sb_district": "4", "address": "6450 Dr Phillips Blvd", "city": "Orlando"}}, {"type": "Feature", "geometry": {"type": "Point", "coordinates": [-81.4780097791103, 28.471195217043]}, "properties": {"loc_no": "0931", "name": "Dr Phillips", "fac_type": "HS", "sb_district": "4", "address": "6500 Turkey Lake Rd", "city": "Orlando"}}, {"type": "Feature", "geometry": {"type": "Point", "coordinates": [-81.5590644203708, 28.4595264857808]}, "properties": {"loc_no": "1776", "name": "Sunset Park", "fac_type": "ES", "sb_district": "4", "address": "12050 Overstreet Rd", "city": "Windermere"}}, {"type": "Feature", "geometry": {"type": "Point", "coordinates": [-81.5043268997127, 28.4925118657082]}, "properties": {"loc_no": "1291", "name": "Chain of Lakes", "fac_type": "MS", "sb_district": "4", "address": "8700 Conroy Windermere Rd", "city": "Orlando"}}, {"type": "Feature", "geometry": {"type": "Point", "coordinates": [-81.4940313181058, 28.4836870784034]}, "properties": {"loc_no": "0961", "name": "Palm Lake", "fac_type": "ES", "sb_district": "4", "address": "8000 Pin Oak Dr", "city": "Orlando"}}, {"type": "Feature", "geometry": {"type": "Point", "coordinates": [-81.4350568618324, 28.367846791045]}, "properties": {"loc_no": "0381", "name": "Hunter's Creek", "fac_type": "MS", "sb_district": "4", "address": "13400 Town Loop Blvd", "city": "Orlando"}}, {"type": "Feature", "geometry": {"type": "Point", "coordinates": [-81.4897574665863, 28.4616912137853]}, "properties": {"loc_no": "1591", "name": "Dr Phillips", "fac_type": "ES", "sb_district": "4", "address": "6909 Dr Phillips Blvd", "city": "Orlando"}}, {"type": "Feature", "geometry": {"type": "Point", "coordinates": [-81.5671795079108, 28.5422109170379]}, "properties": {"loc_no": "1511", "name": "West Orange", "fac_type": "HS", "sb_district": "4", "address": "1625 S Beulah Rd", "city": "Winter Garden"}}, {"type": "Feature", "geometry": {"type": "Point", "coordinates": [-81.5109534423621, 28.5293967845598]}, "properties": {"loc_no": "1681", "name": "Gotha", "fac_type": "MS", "sb_district": "4", "address": "9155 Gotha Rd", "city": "Windermere"}}, {"type": "Feature", "geometry": {"type": "Point", "coordinates": [-81.4736717400741, 28.5406798961475]}, "properties": {"loc_no": "1501", "name": "Oak Hill", "fac_type": "ES", "sb_district": "5", "address": "11 S Hiawassee Rd", "city": "Orlando"}}, {"type": "Feature", "geometry": {"type": "Point", "coordinates": [-81.5348289107703, 28.5250523109178]}, "properties": {"loc_no": "0235", "name": "Thornebrooke", "fac_type": "ES", "sb_district": "4", "address": "601Thornebrooke Rd", "city": "Ocoee"}}, {"type": "Feature", "geometry": {"type": "Point", "coordinates": [-81.4588417019865, 28.5415841706986]}, "properties": {"loc_no": "0271", "name": "Orlo Vista", "fac_type": "ES", "sb_district": "5", "address": "3 N Hastings St", "city": "Orlando"}}, {"type": "Feature", "geometry": {"type": "Point", "coordinates": [-81.536208103249, 28.5397460541339]}, "properties": {"loc_no": "1562", "name": "Westbrooke", "fac_type": "ES", "sb_district": "4", "address": "500 Tomyn Blvd", "city": "Ocoee"}}, {"type": "Feature", "geometry": {"type": "Point", "coordinates": [-81.3032449947059, 28.5299269116379]}, "properties": {"loc_no": "1111", "name": "Jackson", "fac_type": "MS", "sb_district": "2", "address": "6000 Stonewall Jackson Rd", "city": "Orlando"}}, {"type": "Feature", "geometry": {"type": "Point", "coordinates": [-81.4934782283862, 28.52095891738]}, "properties": {"loc_no": "1021", "name": "Metrowest", "fac_type": "ES", "sb_district": "4", "address": "1801 Lake Vilma Dr", "city": "Orlando"}}, {"type": "Feature", "geometry": {"type": "Point", "coordinates": [-81.6006119726092, 28.4880772334593]}, "properties": {"loc_no": "1791", "name": "Keene's Crossing", "fac_type": "ES", "sb_district": "4", "address": "5240 Keene's Pheasant Dr", "city": "Windermere"}}, {"type": "Feature", "geometry": {"type": "Point", "coordinates": [-81.4230883867441, 28.3839007636463]}, "properties": {"loc_no": "1081", "name": "John Young", "fac_type": "ES", "sb_district": "3", "address": "12550 Marsfield Ave", "city": "Orlando"}}, {"type": "Feature", "geometry": {"type": "Point", "coordinates": [-81.349042130197, 28.3551332340309]}, "properties": {"loc_no": "1741", "name": "Wyndham Lakes", "fac_type": "ES", "sb_district": "3", "address": "14360 Wyndham Lakes Blvd", "city": "Orlando"}}, {"type": "Feature", "geometry": {"type": "Point", "coordinates": [-81.3162325440645, 28.4960956528539]}, "properties": {"loc_no": "0301", "name": "Lake George", "fac_type": "ES", "sb_district": "3", "address": "4101 Gatlin Ave", "city": "Orlando"}}, {"type": "Feature", "geometry": {"type": "Point", "coordinates": [-81.3981728414507, 28.3684141585955]}, "properties": {"loc_no": "0214", "name": "Endeavor", "fac_type": "ES", "sb_district": "3", "address": "13501 Balcombe Rd", "city": "Orlando"}}, {"type": "Feature", "geometry": {"type": "Point", "coordinates": [-81.3798148627378, 28.3857543125301]}, "properties": {"loc_no": "1341", "name": "Southwood", "fac_type": "ES", "sb_district": "3", "address": "12600 Bisted Dr", "city": "Orlando"}}, {"type": "Feature", "geometry": {"type": "Point", "coordinates": [-81.3792056924461, 28.3812664010554]}, "properties": {"loc_no": "1651", "name": "Cypress Creek", "fac_type": "HS", "sb_district": "3", "address": "1101 Bear Crossing Dr", "city": "Orlando"}}, {"type": "Feature", "geometry": {"type": "Point", "coordinates": [-81.34471412934, 28.3712928078781]}, "properties": {"loc_no": "1381", "name": "Meadow Woods", "fac_type": "MS", "sb_district": "3", "address": "1800 Rhode Island Wood Cir", "city": "Orlando"}}, {"type": "Feature", "geometry": {"type": "Point", "coordinates": [-81.3286563432472, 28.4837147538618]}, "properties": {"loc_no": "1441", "name": "Shenandoah", "fac_type": "ES", "sb_district": "3", "address": "4827 Conway Rd", "city": "Orlando"}}, {"type": "Feature", "geometry": {"type": "Point", "coordinates": [-81.3588362655373, 28.5195401457766]}, "properties": {"loc_no": "0211", "name": "Kaley", "fac_type": "ES", "sb_district": "3", "address": "1600 E Kaley St", "city": "Orlando"}}, {"type": "Feature", "geometry": {"type": "Point", "coordinates": [-81.3259816838213, 28.5270475232657]}, "properties": {"loc_no": "0781", "name": "Dover Shores", "fac_type": "ES", "sb_district": "6", "address": "1200 Gaston Foster Rd", "city": "Orlando"}}, {"type": "Feature", "geometry": {"type": "Point", "coordinates": [-81.3587718459619, 28.4252747842828]}, "properties": {"loc_no": "0741", "name": "Cypress Park", "fac_type": "ES", "sb_district": "3", "address": "9601 11th Ave", "city": "Taft"}}, {"type": "Feature", "geometry": {"type": "Point", "coordinates": [-81.3790813809299, 28.4608352516549]}, "properties": {"loc_no": "0851", "name": "Lancaster", "fac_type": "ES", "sb_district": "3", "address": "6700 Sheryl Ann Dr", "city": "Orlando"}}, {"type": "Feature", "geometry": {"type": "Point", "coordinates": [-81.3770148980142, 28.4599820638261]}, "properties": {"loc_no": "1151", "name": "Walker", "fac_type": "MS", "sb_district": "3", "address": "150 Amidon Ln", "city": "Orlando"}}, {"type": "Feature", "geometry": {"type": "Point", "coordinates": [-81.3820480623825, 28.4537719402703]}, "properties": {"loc_no": "1171", "name": "Winegard", "fac_type": "ES", "sb_district": "3", "address": "7055 Winegard Rd", "city": "Orlando"}}, {"type": "Feature", "geometry": {"type": "Point", "coordinates": [-81.4128614679002, 28.416396775974]}, "properties": {"loc_no": "1662", "name": "Freedom", "fac_type": "HS", "sb_district": "3", "address": "2500 Taft Vineland Rd", "city": "Orlando"}}, {"type": "Feature", "geometry": {"type": "Point", "coordinates": [-81.4179511112126, 28.4159166359172]}, "properties": {"loc_no": "0245", "name": "Freedom", "fac_type": "MS", "sb_district": "3", "address": "2850 Taft Vineland Rd", "city": "Orlando"}}, {"type": "Feature", "geometry": {"type": "Point", "coordinates": [-81.4188429463124, 28.4075980887969]}, "properties": {"loc_no": "1051", "name": "Waterbridge", "fac_type": "ES", "sb_district": "3", "address": "11100 Galvin Dr", "city": "Orlando"}}, {"type": "Feature", "geometry": {"type": "Point", "coordinates": [-81.3441553242306, 28.448689156435]}, "properties": {"loc_no": "0801", "name": "Durrance", "fac_type": "ES", "sb_district": "3", "address": "8101 Benrus St", "city": "Orlando"}}, {"type": "Feature", "geometry": {"type": "Point", "coordinates": [-81.3339383639542, 28.5050633392239]}, "properties": {"loc_no": "0551", "name": "Conway", "fac_type": "ES", "sb_district": "3", "address": "4100 Lake Margaret Dr", "city": "Orlando"}}, {"type": "Feature", "geometry": {"type": "Point", "coordinates": [-81.3280312708903, 28.5005420980302]}, "properties": {"loc_no": "1391", "name": "Conway", "fac_type": "MS", "sb_district": "3", "address": "4600 Anderson Rd", "city": "Orlando"}}, {"type": "Feature", "geometry": {"type": "Point", "coordinates": [-81.3669770299365, 28.4740983974448]}, "properties": {"loc_no": "0411", "name": "Pine Castle", "fac_type": "ES", "sb_district": "3", "address": "905 Waltham Ave", "city": "Orlando"}}, {"type": "Feature", "geometry": {"type": "Point", "coordinates": [-81.3649152822248, 28.5147963560019]}, "properties": {"loc_no": "0631", "name": "Blankner", "fac_type": "MK8", "sb_district": "3", "address": "2500 S Mills Ave", "city": "Orlando"}}, {"type": "Feature", "geometry": {"type": "Point", "coordinates": [-81.3658404704775, 28.5193019839528]}, "properties": {"loc_no": "0111", "name": "Boone", "fac_type": "HS", "sb_district": "3", "address": "2000 S Mills Ave", "city": "Orlando"}}, {"type": "Feature", "geometry": {"type": "Point", "coordinates": [-81.3445217783972, 28.3946936052561]}, "properties": {"loc_no": "1703", "name": "South Creek", "fac_type": "MS", "sb_district": "3", "address": "3801 E Wetherbee Rd", "city": "Orlando"}}, {"type": "Feature", "geometry": {"type": "Point", "coordinates": [-81.3629706362445, 28.3714256570906]}, "properties": {"loc_no": "1041", "name": "Meadow Woods", "fac_type": "ES", "sb_district": "3", "address": "500 Rhode Island Woods Cir", "city": "Orlando"}}, {"type": "Feature", "geometry": {"type": "Point", "coordinates": [-81.35066550119, 28.530437831366]}, "properties": {"loc_no": "0221", "name": "Lake Como", "fac_type": "ES", "sb_district": "6", "address": "901 S Bumby Ave", "city": "Orlando"}}, {"type": "Feature", "geometry": {"type": "Point", "coordinates": [-81.3738140777714, 28.3545330547101]}, "properties": {"loc_no": "0212", "name": "Oakshire", "fac_type": "ES", "sb_district": "3", "address": "14501 Oakshire Rd", "city": "Orlando"}}, {"type": "Feature", "geometry": {"type": "Point", "coordinates": [-81.3545677606563, 28.4975720016151]}, "properties": {"loc_no": "0901", "name": "Pershing", "fac_type": "ES", "sb_district": "3", "address": "1800 Pershing Ave", "city": "Orlando"}}, {"type": "Feature", "geometry": {"type": "Point", "coordinates": [-81.2461431612995, 28.3665212784808]}, "properties": {"loc_no": "1931", "name": "Lake Nona", "fac_type": "MS", "sb_district": "2", "address": "13700 Narcoossee Rd", "city": "Orlando"}}, {"type": "Feature", "geometry": {"type": "Point", "coordinates": [-81.2961531429679, 28.5606829284318]}, "properties": {"loc_no": "1971", "name": "Forsyth Woods", "fac_type": "ES", "sb_district": "2", "address": "6651 Curtis St", "city": "Orlando"}}, {"type": "Feature", "geometry": {"type": "Point", "coordinates": [-81.3621976368168, 28.3936841143731]}, "properties": {"loc_no": "1941", "name": "Wetherbee", "fac_type": "ES", "sb_district": "3", "address": "701 Wetherbee Rd", "city": "Orlando"}}, {"type": "Feature", "geometry": {"type": "Point", "coordinates": [-81.6013574654864, 28.5373104365414]}, "properties": {"loc_no": "1821", "name": "SunRidge", "fac_type": "ES", "sb_district": "7", "address": "14455 SunRidge Blvd", "city": "Winter Garden"}}, {"type": "Feature", "geometry": {"type": "Point", "coordinates": [-81.6039337232241, 28.5372936004185]}, "properties": {"loc_no": "1911", "name": "SunRidge", "fac_type": "MS", "sb_district": "7", "address": "14955 SunRidge Blvd", "city": "Winter Garden"}}, {"type": "Feature", "geometry": {"type": "Point", "coordinates": [-81.2344469567117, 28.4345476202193]}, "properties": {"loc_no": "1831", "name": "Sun Blaze", "fac_type": "ES", "sb_district": "2", "address": "9101 Randal Park Blvd", "city": "Orlando"}}, {"type": "Feature", "geometry": {"type": "Point", "coordinates": [-81.50432355782, 28.5999359695253]}, "properties": {"loc_no": "0941", "name": "Prairie Lake", "fac_type": "ES", "sb_district": "7", "address": "8723 Hackney Prairie Rd", "city": "Orlando"}}, {"type": "Feature", "geometry": {"type": "Point", "coordinates": [-81.5204343020761, 28.6963372582387]}, "properties": {"loc_no": "1361", "name": "Wheatley", "fac_type": "ES", "sb_district": "7", "address": "2 W 18th St", "city": "Apopka"}}, {"type": "Feature", "geometry": {"type": "Point", "coordinates": [-81.6071531089182, 28.4670824063134]}, "properties": {"loc_no": "1482", "name": "Independence", "fac_type": "ES", "sb_district": "4", "address": "New Independence Parkway", "city": "Winter Garden"}}, {"type": "Feature", "geometry": {"type": "Point", "coordinates": [-81.2387154922329, 28.3610211191534]}, "properties": {"loc_no": "1921", "name": "Eagle Creek", "fac_type": "ES", "sb_district": "2", "address": "Eagle Creek Santuary Blvd", "city": "Orlando"}}, {"type": "Feature", "geometry": {"type": "Point", "coordinates": [-81.2125086388072, 28.5800295960963]}, "properties": {"loc_no": "1001", "name": "University", "fac_type": "HS", "sb_district": "1", "address": "11501 Eastwood Dr", "city": "Orlando"}}, {"type": "Feature", "geometry": {"type": "Point", "coordinates": [-81.5641779301969, 28.4426660363868]}, "properties": {"loc_no": "1392", "name": "Bay Lake", "fac_type": "ES", "sb_district": "4", "address": "12005 Silverlake Park Dr", "city": "Orlando"}}, {"type": "Feature", "geometry": {"type": "Point", "coordinates": [-81.0742922584613, 28.4904743266764]}, "properties": {"loc_no": "1861", "name": "Wedgefield", "fac_type": "K8", "sb_district": "1", "address": "3835 Bancroft Blvd", "city": "Orlando"}}, {"type": "Feature", "geometry": {"type": "Point", "coordinates": [-81.4209318532881, 28.4960610336461]}, "properties": {"loc_no": "1492", "name": "Millennia Gardens", "fac_type": "ES", "sb_district": "5", "address": "3515 Gardens Ridge Way", "city": "Orlando"}}, {"type": "Feature", "geometry": {"type": "Point", "coordinates": [-81.2707521617108, 28.5458151344128]}, "properties": {"loc_no": "1141", "name": "Little River", "fac_type": "ES", "sb_district": "2", "address": "100 Caswell Dr", "city": "Orlando"}}, {"type": "Feature", "geometry": {"type": "Point", "coordinates": [-81.3908065062925, 28.5485679054125]}, "properties": {"loc_no": "1014", "name": "OCPS Academic Center for Excellence", "fac_type": "K8", "sb_district": "5", "address": "701 W Livingston St", "city": "Orlando"}}, {"type": "Feature", "geometry": {"type": "Point", "coordinates": [-81.5806439204082, 28.4826934794514]}, "properties": {"loc_no": "1908", "name": "Windermere", "fac_type": "HS", "sb_district": "4", "address": "5523 Winter Garden Vineland Rd", "city": "Windermere"}}, {"type": "Feature", "geometry": {"type": "Point", "coordinates": [-81.1378805301761, 28.5342384933349]}, "properties": {"loc_no": "1852", "name": "Timber Springs", "fac_type": "MS", "sb_district": "2", "address": "16001 Timber Park Lane", "city": "Orlando"}}, {"type": "Feature", "geometry": {"type": "Point", "coordinates": [-81.2693233466708, 28.3651005026507]}, "properties": {"loc_no": "0331", "name": "Laureate Park", "fac_type": "ES", "sb_district": "2", "address": "7800 Laureate Blvd", "city": "Orlando"}}, {"type": "Feature", "geometry": {"type": "Point", "coordinates": [-81.2110825554451, 28.4223065957128]}, "properties": {"loc_no": "1871", "name": "Innovation", "fac_type": "MS", "sb_district": "2", "address": "13950 Storey Park Blvd", "city": "Orlando"}}, {"type": "Feature", "geometry": {"type": "Point", "coordinates": [-81.4935066377674, 28.5198819614323]}, "properties": {"loc_no": "1201", "name": "Westpointe", "fac_type": "ES", "sb_district": "4", "address": "7525 Westpointe Blvd", "city": "Orlando"}}, {"type": "Feature", "geometry": {"type": "Point", "coordinates": [-81.2534799053844, 28.587633474266]}, "properties": {"loc_no": "0981", "name": "Arbor Ridge", "fac_type": "K8", "sb_district": "1", "address": "2900 Logandale Dr", "city": "Orlando"}}, {"type": "Feature", "geometry": {"type": "Point", "coordinates": [-81.4229879737739, 28.5292732942984]}, "properties": {"loc_no": "5861", "name": "Washington Shores", "fac_type": "ES", "sb_district": "5", "address": "944 W Lake Mann Dr", "city": "Orlando"}}, {"type": "Feature", "geometry": {"type": "Point", "coordinates": [-81.4986698128316, 28.502715318791]}, "properties": {"loc_no": "1061", "name": "Windy Ridge", "fac_type": "K8", "sb_district": "4", "address": "3900 Beech Tree Dr", "city": "Orlando"}}, {"type": "Feature", "geometry": {"type": "Point", "coordinates": [-81.4939024400579, 28.6740757587371]}, "properties": {"loc_no": "0084", "name": "Sheeler Charter High School", "fac_type": "HS", "sb_district": "7", "address": "871 E Semoran Blvd", "city": "Apopka"}}, {"type": "Feature", "geometry": {"type": "Point", "coordinates": [-81.3985913148992, 28.6049880116981]}, "properties": {"loc_no": "0055", "name": "Princeton House Charter School", "fac_type": "K5", "sb_district": "6", "address": "1166 Lee Road", "city": "Orlando"}}, {"type": "Feature", "geometry": {"type": "Point", "coordinates": [-81.4128405009984, 28.573938592456]}, "properties": {"loc_no": "0089", "name": "Orlando Science Middle / High Charter", "fac_type": "MSHS", "sb_district": "6", "address": "2427 Lynx Lane", "city": "Orlando"}}, {"type": "Feature", "geometry": {"type": "Point", "coordinates": [-81.4567847856107, 28.5770116550776]}, "properties": {"loc_no": "0070", "name": "UCP Pine Hills", "fac_type": "IFKG", "sb_district": "5", "address": "5800 Golf Club Pkwy", "city": "Orlando"}}, {"type": "Feature", "geometry": {"type": "Point", "coordinates": [-81.3882175757349, 28.5464635676411]}, "properties": {"loc_no": "0062", "name": "Nap Ford Community Charter", "fac_type": "PK5", "sb_district": "5", "address": "648 W Livingston St", "city": "Orlando"}}, {"type": "Feature", "geometry": {"type": "Point", "coordinates": [-81.3770965749481, 28.5442697470935]}, "properties": {"loc_no": "0056", "name": "Lake Eola Charter School", "fac_type": "K8", "sb_district": "6", "address": "135 N Magnolia Ave", "city": "Orlando"}}, {"type": "Feature", "geometry": {"type": "Point", "coordinates": [-81.2006279678879, 28.5803574578788]}, "properties": {"loc_no": "0090", "name": "UCP East Orange", "fac_type": "IF-5", "sb_district": "1", "address": "12702 Science Dr", "city": "Orlando"}}, {"type": "Feature", "geometry": {"type": "Point", "coordinates": [-81.4774553523054, 28.5801593456812]}, "properties": {"loc_no": "0152", "name": "Innovations Middle School", "fac_type": "MS", "sb_district": "6", "address": "2768 North Hiawassee Rd", "city": "Orlando"}}, {"type": "Feature", "geometry": {"type": "Point", "coordinates": [-81.3061223237396, 28.6040664054256]}, "properties": {"loc_no": "0120", "name": "Aloma Charter High School", "fac_type": "HS", "sb_district": "1", "address": "495 N Semoran Blvd", "city": "Winter Park"}}, {"type": "Feature", "geometry": {"type": "Point", "coordinates": [-81.353922986174, 28.539629631366]}, "properties": {"loc_no": "0074", "name": "Workforce Advantage Academy", "fac_type": "HS", "sb_district": "6", "address": "2113 E South St", "city": "Orlando"}}, {"type": "Feature", "geometry": {"type": "Point", "coordinates": [-81.3204925763041, 28.5251208899006]}, "properties": {"loc_no": "0053", "name": "Passport Charter School", "fac_type": "K8", "sb_district": "6", "address": "5221 Curry Ford Rd", "city": "Orlando"}}, {"type": "Feature", "geometry": {"type": "Point", "coordinates": [-81.3471778669177, 28.5489426461509]}, "properties": {"loc_no": "0149", "name": "Central Florida Leadership Academy", "fac_type": "MSHS", "sb_district": "6", "address": "427 N Primrose", "city": "Orlando"}}, {"type": "Feature", "geometry": {"type": "Point", "coordinates": [-81.5846062137586, 28.5572458275682]}, "properties": {"loc_no": "0065", "name": "UCP West Orange", "fac_type": "IF-3", "sb_district": "7", "address": "630 S Dillard St", "city": "Winter Garden"}}, {"type": "Feature", "geometry": {"type": "Point", "coordinates": [-81.5605623008867, 28.591725888243]}, "properties": {"loc_no": "0061", "name": "Hope Charter School", "fac_type": "K8", "sb_district": "7", "address": "1550 E Crown Point Rd", "city": "Ocoee"}}, {"type": "Feature", "geometry": {"type": "Point", "coordinates": [-81.3383515909168, 28.4422907346029]}, "properties": {"loc_no": "0155", "name": "Pinecrest Preparatory K-8", "fac_type": "K8", "sb_district": "3", "address": "8503 Daetwyler Dr", "city": "Orlando"}}, {"type": "Feature", "geometry": {"type": "Point", "coordinates": [-81.4270815421585, 28.3620230406374]}, "properties": {"loc_no": "0204", "name": "Renaissance Charter Hunter's Creek", "fac_type": " ", "sb_district": "3", "address": "4140 Town Center Blvd", "city": "Orlando"}}, {"type": "Feature", "geometry": {"type": "Point", "coordinates": [-81.2394669221571, 28.5968582828762]}, "properties": {"loc_no": "0000", "name": "Orange County Preparatory", "fac_type": "K8", "sb_district": "1", "address": "10250 University Blvd", "city": "Orlando"}}, {"type": "Feature", "geometry": {"type": "Point", "coordinates": [-81.5605623008867, 28.591725888243]}, "properties": {"loc_no": "0119", "name": "Legacy High Charter School", "fac_type": "HS", "sb_district": "7", "address": "1550 E Crown Point Rd", "city": "Ocoee"}}, {"type": "Feature", "geometry": {"type": "Point", "coordinates": [-81.3957968187032, 28.4640248771388]}, "properties": {"loc_no": "0085", "name": "Chancery Charter High School", "fac_type": "HS", "sb_district": "3", "address": "7001 S Orange Blossom Trl", "city": "Orlando"}}, {"type": "Feature", "geometry": {"type": "Point", "coordinates": [-81.3984462430877, 28.496296175309]}, "properties": {"loc_no": "0040", "name": "Properitas Leadership Academy", "fac_type": "HS", "sb_district": "5", "address": "4504 S Orange Blossom Trl", "city": "Orlando"}}, {"type": "Feature", "geometry": {"type": "Point", "coordinates": [-81.3267142109635, 28.5380364047046]}, "properties": {"loc_no": "0065", "name": "UCP Downtown Orlando", "fac_type": "IF-3", "sb_district": "3", "address": "4690 Lake Underhill Rd", "city": "Orlando"}}, {"type": "Feature", "geometry": {"type": "Point", "coordinates": [-81.3755630952352, 28.5065467523198]}, "properties": {"loc_no": "0034", "name": "UCP Transitional Learning Academy", "fac_type": "MS", "sb_district": "2", "address": "3305 S. Orange Avenue", "city": "Orlando"}}, {"type": "Feature", "geometry": {"type": "Point", "coordinates": [-81.3657644900395, 28.4725002381911]}, "properties": {"loc_no": "0133", "name": "Cornerstone Academy School", "fac_type": "K8", "sb_district": "3", "address": "5903 Randolph Ave", "city": "Belle Isle"}}, {"type": "Feature", "geometry": {"type": "Point", "coordinates": [-81.3657644900395, 28.4725002381911]}, "properties": {"loc_no": "0146", "name": "Cornerstone High School", "fac_type": "HS", "sb_district": "3", "address": "5903 Randolph Ave", "city": "Belle Isle"}}, {"type": "Feature", "geometry": {"type": "Point", "coordinates": [-81.3070311136872, 28.5586084423147]}, "properties": {"loc_no": "0177", "name": "Access Charter", "fac_type": "MSHS", "sb_district": "6", "address": "6000 E Colonial Dr", "city": "Orlando"}}, {"type": "Feature", "geometry": {"type": "Point", "coordinates": [-81.5758924961312, 28.5678541553611]}, "properties": {"loc_no": "0172", "name": "Innovation Montessori Ocoee", "fac_type": "K5", "sb_district": "7", "address": "855 E Plant St", "city": "Winter Garden"}}, {"type": "Feature", "geometry": {"type": "Point", "coordinates": [-81.3947310031504, 28.6090166636444]}, "properties": {"loc_no": "0163", "name": "Aspire Charter Academy", "fac_type": "K5", "sb_district": "6", "address": "928 Malone Dr", "city": "Orlando"}}, {"type": "Feature", "geometry": {"type": "Point", "coordinates": [-81.6224443793509, 28.554319337832]}, "properties": {"loc_no": "0072", "name": "Oakland Avenue Charter School", "fac_type": "K5", "sb_district": "7", "address": "456 East Oakland Ave", "city": "Oakland"}}, {"type": "Feature", "geometry": {"type": "Point", "coordinates": [-81.5189780733518, 28.5721449590428]}, "properties": {"loc_no": "0182", "name": "Kids Community College", "fac_type": "ES", "sb_district": "7", "address": "1475 E. Silver Star Rd", "city": "Ocoee"}}, {"type": "Feature", "geometry": {"type": "Point", "coordinates": [-81.4120971176822, 28.573134840924]}, "properties": {"loc_no": "0200", "name": "Orlando Science Elementary", "fac_type": "K5", "sb_district": "6", "address": "2379 Lynx Lane", "city": "Orlando"}}, {"type": "Feature", "geometry": {"type": "Point", "coordinates": [-81.2762578328754, 28.5550370308094]}, "properties": {"loc_no": "0185", "name": "Renaissance Charter at Chickasaw Trail", "fac_type": "K8", "sb_district": "2", "address": "8203 Valencia College Ln", "city": "Orlando"}}, {"type": "Feature", "geometry": {"type": "Point", "coordinates": [-81.4734821412423, 28.5380552567633]}, "properties": {"loc_no": "0202", "name": "Sunshine High", "fac_type": "HS", "sb_district": "5", "address": "6600 Old Winter Garden Rd", "city": "Orlando"}}, {"type": "Feature", "geometry": {"type": "Point", "coordinates": [-81.3986502583942, 28.6040939198384]}, "properties": {"loc_no": "0203", "name": "Pinecrest Creek Academy", "fac_type": "K5", "sb_district": "5", "address": "1100 Lee Rd", "city": "Orlando"}}, {"type": "Feature", "geometry": {"type": "Point", "coordinates": [-81.4156905177631, 28.528286890028]}, "properties": {"loc_no": "0080", "name": "Legends Academy", "fac_type": "K8", "sb_district": "5", "address": "3032 Monte Carlo Trl", "city": "Orlando"}}, {"type": "Feature", "geometry": {"type": "Point", "coordinates": [-81.2917243928983, 28.4740321905679]}, "properties": {"loc_no": "0033", "name": "Renaissance Charter at Goldenrod", "fac_type": "K8", "sb_district": "3", "address": "6112 S Goldenrod Rd", "city": "Orlando"}}, {"type": "Feature", "geometry": {"type": "Point", "coordinates": [-81.5494729226877, 28.6044359369596]}, "properties": {"loc_no": "1010", "name": "Renaissance At Crown Point", "fac_type": "K8", "sb_district": "7", "address": "281 West Road", "city": "Ocoee"}}, {"type": "Feature", "geometry": {"type": "Point", "coordinates": [-81.4317466632324, 28.5666924655201]}, "properties": {"loc_no": "1003", "name": "Lucious and Emma Nixon Academy Charter", "fac_type": "K5", "sb_district": "5", "address": "1780 Mercy Drive", "city": "Orlando"}}, {"type": "Feature", "geometry": {"type": "Point", "coordinates": [-81.1749272553891, 28.5644830606556]}, "properties": {"loc_no": "1002", "name": "Econ River Charter High School", "fac_type": "HS", "sb_district": "1", "address": "14180 E Colonial Drive", "city": "Orlando"}}, {"type": "Feature", "geometry": {"type": "Point", "coordinates": [-81.308959038891, 28.5273631230482]}, "properties": {"loc_no": "1009", "name": "BridgePrep Academy of Orange County", "fac_type": "K8", "sb_district": "2", "address": "5710 LaCosta Drive", "city": "Orlando"}}]}